SEARCHVAL,BLK_NO,ROAD_NAME,BUILDING,ADDRESS,POSTAL,X,Y,LATITUDE,LONGITUDE,address
ADMIRALTY PRIMARY SCHOOL,11,WOODLANDS CIRCLE,ADMIRALTY PRIMARY SCHOOL,11 WOODLANDS CIRCLE ADMIRALTY PRIMARY SCHOOL SINGAPORE 738907,738907,24296.6250855923,47144.7700594738,1.4426347903311,103.800040119743,11   WOODLANDS CIRCLE
THE LEARNING HARBOUR @ ADMIRALTY PRIMARY SCHOOL,11,WOODLANDS CIRCLE,THE LEARNING HARBOUR @ ADMIRALTY PRIMARY SCHOOL,11 WOODLANDS CIRCLE THE LEARNING HARBOUR @ ADMIRALTY PRIMARY SCHOOL SINGAPORE 738907,738907,24315.9398124339,47135.3542042952,1.44254963931583,103.800213682734,11   WOODLANDS CIRCLE
ADMIRALTY SECONDARY SCHOOL,31,WOODLANDS CRESCENT,ADMIRALTY SECONDARY SCHOOL,31 WOODLANDS CRESCENT ADMIRALTY SECONDARY SCHOOL SINGAPORE 737916,737916,24559.0472937012,47504.7873554379,1.44589068910993,103.802398196596,31   WOODLANDS CRESCENT
AHMAD IBRAHIM PRIMARY SCHOOL,10,YISHUN STREET 11,AHMAD IBRAHIM PRIMARY SCHOOL,10 YISHUN STREET 11 AHMAD IBRAHIM PRIMARY SCHOOL SINGAPORE 768643,768643,27958.1371433474,46096.2627680488,1.43315271543517,103.832942401086,10   YISHUN STREET 11
LIFE STUDENT CARE CENTRE @ AHMAD IBRAHIM,10,YISHUN STREET 11,LIFE STUDENT CARE CENTRE @ AHMAD IBRAHIM,10 YISHUN STREET 11 LIFE STUDENT CARE CENTRE @ AHMAD IBRAHIM SINGAPORE 768643,768643,27936.7779958136,46125.1636074763,1.43341408412245,103.832750468895,10   YISHUN STREET 11
AHMAD IBRAHIM SECONDARY SCHOOL,751,YISHUN AVENUE 7,AHMAD IBRAHIM SECONDARY SCHOOL,751 YISHUN AVENUE 7 AHMAD IBRAHIM SECONDARY SCHOOL SINGAPORE 768928,768928,27599.3872889336,46417.7087551262,1.43605975368804,103.829718690077,751  YISHUN AVENUE 7
AI TONG SCHOOL,100,BRIGHT HILL DRIVE,AI TONG SCHOOL,100 BRIGHT HILL DRIVE AI TONG SCHOOL SINGAPORE 579646,579646,27966.8088298785,38071.9191181567,1.3605834338904,103.833020333986,100  Bright Hill Drive
PRO-TEACH SCHOOLCARE (AI TONG),100,BRIGHT HILL DRIVE,PRO-TEACH SCHOOLCARE (AI TONG),100 BRIGHT HILL DRIVE PRO-TEACH SCHOOLCARE (AI TONG) SINGAPORE 579646,579646,27966.8091930943,38071.9186944049,1.36058343005814,103.83302033725,100  Bright Hill Drive
ALEXANDRA PRIMARY SCHOOL,2A,PRINCE CHARLES CRESCENT,ALEXANDRA PRIMARY SCHOOL,2A PRINCE CHARLES CRESCENT ALEXANDRA PRIMARY SCHOOL SINGAPORE 159016,159016,27010.1854815315,30414.7169698272,1.29133439161334,103.824424680531,2A   Prince Charles Crescent
MOE KINDERGARTEN @ ALEXANDRA,2A,PRINCE CHARLES CRESCENT,MOE KINDERGARTEN @ ALEXANDRA,2A PRINCE CHARLES CRESCENT MOE KINDERGARTEN @ ALEXANDRA SINGAPORE 159016,159016,26964.858994307,30396.5014853496,1.29116965570463,103.824017403629,2A   Prince Charles Crescent
QSF - THE ENABLERS PTE LTD (STUDENT CARE @ ALEXANDRA PRI),2A,PRINCE CHARLES CRESCENT,QSF - THE ENABLERS PTE LTD (STUDENT CARE @ ALEXANDRA PRI),2A PRINCE CHARLES CRESCENT QSF - THE ENABLERS PTE LTD (STUDENT CARE @ ALEXANDRA PRI) SINGAPORE 159016,159016,26956.3339864248,30410.8083137497,1.2912990413487,103.823940802388,2A   Prince Charles Crescent
ANCHOR GREEN PRIMARY SCHOOL,31,ANCHORVALE DRIVE,ANCHOR GREEN PRIMARY SCHOOL,31 ANCHORVALE DRIVE ANCHOR GREEN PRIMARY SCHOOL SINGAPORE 544969,544969,33992.4459471293,41365.6329499111,1.39036998654612,103.887165375933,31   Anchorvale Drive
MOE KINDERGARTEN @ ANCHOR GREEN,31,ANCHORVALE DRIVE,MOE KINDERGARTEN @ ANCHOR GREEN,31 ANCHORVALE DRIVE MOE KINDERGARTEN @ ANCHOR GREEN SINGAPORE 544969,544969,34022.2468050532,41380.9286938738,1.39050830954652,103.887433162937,31   Anchorvale Drive
NASCANS ANCHOR GREEN STUDENT CARE CENTRE,31,ANCHORVALE DRIVE,NASCANS ANCHOR GREEN STUDENT CARE CENTRE,31 ANCHORVALE DRIVE NASCANS ANCHOR GREEN STUDENT CARE CENTRE SINGAPORE 544969,544969,33986.4095728686,41384.8677390069,1.39054394024591,103.887111138358,31   Anchorvale Drive
ALPHAJOY STUDENT CARE CENTRE (ANDERSON PRIMARY),19,ANG MO KIO AVENUE 9,ALPHAJOY STUDENT CARE CENTRE (ANDERSON PRIMARY),19 ANG MO KIO AVENUE 9 ALPHAJOY STUDENT CARE CENTRE (ANDERSON PRIMARY) SINGAPORE 569785,569785,28900.6627847943,40683.2561488524,1.38419941907925,103.841411716006,19   ANG MO KIO AVE 9
ANDERSON PRIMARY SCHOOL,19,ANG MO KIO AVENUE 9,ANDERSON PRIMARY SCHOOL,19 ANG MO KIO AVENUE 9 ANDERSON PRIMARY SCHOOL SINGAPORE 569785,569785,28898.4776482461,40690.4297215287,1.38426429436736,103.841392081119,19   ANG MO KIO AVE 9
ANDERSON SECONDARY SCHOOL,10,ANG MO KIO STREET 53,ANDERSON SECONDARY SCHOOL,10 ANG MO KIO STREET 53 ANDERSON SECONDARY SCHOOL SINGAPORE 569206,569206,30029.3897069497,39593.0597646087,1.37434001701177,103.851554107068,10   ANG MO KIO STREET 53
ANDERSON SERANGOON JUNIOR COLLEGE,4500,ANG MO KIO AVENUE 6,ANDERSON SERANGOON JUNIOR COLLEGE,4500 ANG MO KIO AVENUE 6 ANDERSON SERANGOON JUNIOR COLLEGE SINGAPORE 569843,569843,29384.6783545613,40102.1495742314,1.37894408046934,103.845760935132,4500 ANG MO KIO AVENUE 6
ANG MO KIO PRIMARY SCHOOL,20,ANG MO KIO AVENUE 3,ANG MO KIO PRIMARY SCHOOL,20 ANG MO KIO AVENUE 3 ANG MO KIO PRIMARY SCHOOL SINGAPORE 569920,569920,28702.4804675551,39038.1602696702,1.36932176584608,103.839630858752,20   ANG MO KIO AVENUE 3
ANG MO KIO STUDENT CARE CENTRE,20,ANG MO KIO AVENUE 3,ANG MO KIO STUDENT CARE CENTRE,20 ANG MO KIO AVENUE 3 ANG MO KIO STUDENT CARE CENTRE SINGAPORE 569920,569920,28636.8767921422,39012.7601949703,1.36909205812692,103.839041363152,20   ANG MO KIO AVENUE 3
MOE KINDERGARTEN @ ANG MO KIO,20,ANG MO KIO AVENUE 3,MOE KINDERGARTEN @ ANG MO KIO,20 ANG MO KIO AVENUE 3 MOE KINDERGARTEN @ ANG MO KIO SINGAPORE 569920,569920,28710.7679020325,38969.8104103636,1.36870363392975,103.839705325534,20   ANG MO KIO AVENUE 3
ANG MO KIO SECONDARY SCHOOL,6,ANG MO KIO STREET 22,ANG MO KIO SECONDARY SCHOOL,6 ANG MO KIO STREET 22 ANG MO KIO SECONDARY SCHOOL SINGAPORE 569362,569362,28983.3847605418,38818.7070966065,1.36733710171069,103.842154973672,6    ANG MO KIO STREET 22
"ALL SAINTS' CHURCH, SINGAPORE",600,UPPER CHANGI ROAD,"ALL SAINTS' CHURCH, SINGAPORE","600 UPPER CHANGI ROAD ALL SAINTS' CHURCH, SINGAPORE SINGAPORE 487012",487012,39993.0203263573,34754.6941457652,1.33058126205128,103.941082513081,600  UPPER CHANGI ROAD
ANGLICAN HIGH SCHOOL,600,UPPER CHANGI ROAD,ANGLICAN HIGH SCHOOL,600 UPPER CHANGI ROAD ANGLICAN HIGH SCHOOL SINGAPORE 487012,487012,40078.8166212114,34821.0227393862,1.33118107926966,103.941853465631,600  UPPER CHANGI ROAD
ANGLO-CHINESE JUNIOR COLLEGE,25,DOVER CLOSE EAST,ANGLO-CHINESE JUNIOR COLLEGE,25 DOVER CLOSE EAST ANGLO-CHINESE JUNIOR COLLEGE SINGAPORE 139745,139745,22662.4720813679,31709.3940755054,1.30304255193392,103.785358436408,25   DOVER CLOSE EAST
ANGLO-CHINESE SCHOOL (BARKER ROAD),60,BARKER ROAD,ANGLO-CHINESE SCHOOL (BARKER ROAD),60 BARKER ROAD ANGLO-CHINESE SCHOOL (BARKER ROAD) SINGAPORE 309919,309919,28273.1184036592,33542.0043816008,1.31961649151328,103.835772689988,60   BARKER ROAD
ANGLO-CHINESE SCHOOL (INDEPENDENT),121,DOVER ROAD,ANGLO-CHINESE SCHOOL (INDEPENDENT),121 DOVER ROAD ANGLO-CHINESE SCHOOL (INDEPENDENT) SINGAPORE 139650,139650,22106.5732889464,31782.5550005548,1.30370409257783,103.780363417671,121  DOVER ROAD
LIVING WATERS METHODIST CHURCH,121,DOVER ROAD,LIVING WATERS METHODIST CHURCH,121 DOVER ROAD LIVING WATERS METHODIST CHURCH SINGAPORE 139650,139650,22081.8306045849,31577.7673617657,1.30185206138005,103.780141132126,121  DOVER ROAD
SHALOM BAPTIST CHURCH,121,DOVER ROAD,SHALOM BAPTIST CHURCH,121 DOVER ROAD SHALOM BAPTIST CHURCH SINGAPORE 139650,139650,22047.332397731,31759.0278784204,1.30349131033986,103.779831115543,121  DOVER ROAD
ANGLO-CHINESE SCHOOL (JUNIOR),16,WINSTEDT ROAD,ANGLO-CHINESE SCHOOL (JUNIOR),16 WINSTEDT ROAD ANGLO-CHINESE SCHOOL (JUNIOR) SINGAPORE 227988,227988,28849.3350947062,32406.8353125956,1.30935041274966,103.840950265464,16   WINSTEDT ROAD
CAIRNHILL METHODIST CHURCH,16,WINSTEDT ROAD,CAIRNHILL METHODIST CHURCH,16 WINSTEDT ROAD CAIRNHILL METHODIST CHURCH SINGAPORE 227988,227988,28949.8458368964,32368.4710064493,1.30900345657234,103.84185340188,16   WINSTEDT ROAD
EPWORTH STUDENT CARE (ANGLO-CHINESE SCHOOL JUNIOR),16,WINSTEDT ROAD,EPWORTH STUDENT CARE (ANGLO-CHINESE SCHOOL JUNIOR),16 WINSTEDT ROAD EPWORTH STUDENT CARE (ANGLO-CHINESE SCHOOL JUNIOR) SINGAPORE 227988,227988,28916.3166898089,32403.7520947009,1.30932252730174,103.841552127373,16   WINSTEDT ROAD
ANGLO-CHINESE SCHOOL (PRIMARY),50,BARKER ROAD,ANGLO-CHINESE SCHOOL (PRIMARY),50 BARKER ROAD ANGLO-CHINESE SCHOOL (PRIMARY) SINGAPORE 309918,309918,28254.9829477305,33404.2340238672,1.31837054523521,103.835609732354,50   BARKER ROAD
MCYC SCC @ ACS (P),50,BARKER ROAD,MCYC SCC @ ACS (P),50 BARKER ROAD MCYC SCC @ ACS (P) SINGAPORE 309918,309918,28225.5395849617,33442.7207942754,1.31871860621788,103.83534516884,50   BARKER ROAD
3 TAMPINES STREET 22 SINGAPORE 529366,3,TAMPINES STREET 22,NIL,3 TAMPINES STREET 22 SINGAPORE 529366,529366,41186.5743079996,36741.9621954821,1.34855287558648,103.951808105552,3    Tampines Street 22
ASSUMPTION ENGLISH SCHOOL,622,UPPER BUKIT TIMAH ROAD,ASSUMPTION ENGLISH SCHOOL,622 UPPER BUKIT TIMAH ROAD ASSUMPTION ENGLISH SCHOOL SINGAPORE 678117,678117,20584.7646280937,38934.3043401875,1.36838160662857,103.766687526556,622  UPPER BUKIT TIMAH ROAD
ASSUMPTION VOCATIONAL INSTITUTE,622,UPPER BUKIT TIMAH ROAD,ASSUMPTION VOCATIONAL INSTITUTE,622 UPPER BUKIT TIMAH ROAD ASSUMPTION VOCATIONAL INSTITUTE SINGAPORE 678117,678117,20467.9607513407,39008.0823083557,1.36904879818856,103.765637944184,622  UPPER BUKIT TIMAH ROAD
BOYS' TOWN SINGAPORE,622,UPPER BUKIT TIMAH ROAD,BOYS' TOWN SINGAPORE,622 UPPER BUKIT TIMAH ROAD BOYS' TOWN SINGAPORE SINGAPORE 678117,678117,20723.8791869851,39020.6978526283,1.36916295281535,103.767937546001,622  UPPER BUKIT TIMAH ROAD
ASSUMPTION PATHWAY SCHOOL,30,CASHEW ROAD,ASSUMPTION PATHWAY SCHOOL,30 CASHEW ROAD ASSUMPTION PATHWAY SCHOOL SINGAPORE 679697,679697,20503.7068768945,39076.8485643137,1.3696707043227,103.765959130581,30   Cashew Road
BARTLEY SECONDARY SCHOOL,10,JALAN BUNGA RAMPAI,BARTLEY SECONDARY SCHOOL,10 JALAN BUNGA RAMPAI BARTLEY SECONDARY SCHOOL SINGAPORE 538403,538403,33507.4424001053,35790.8945052791,1.33995415587811,103.882806211705,10   JALAN BUNGA RAMPAI
BEACON PRIMARY SCHOOL,36,BUKIT PANJANG RING ROAD,BEACON PRIMARY SCHOOL,36 BUKIT PANJANG RING ROAD BEACON PRIMARY SCHOOL SINGAPORE 679944,679944,21357.64699852,40655.688190354,1.38394936211823,103.773632022975,36   Bukit Panjang Ring Road
YMCA STUDENT CARE CENTRE @ BEACON,36,BUKIT PANJANG RING ROAD,YMCA STUDENT CARE CENTRE @ BEACON,36 BUKIT PANJANG RING ROAD YMCA STUDENT CARE CENTRE @ BEACON SINGAPORE 679944,679944,21383.9620138323,40687.9868531004,1.38424146547316,103.773868475891,36   Bukit Panjang Ring Road
BEATTY SECONDARY SCHOOL,1,TOA PAYOH NORTH,BEATTY SECONDARY SCHOOL,1 TOA PAYOH NORTH BEATTY SECONDARY SCHOOL SINGAPORE 318990,318990,30110.2946048304,35993.876840448,1.341790284928,103.852280842345,1    TOA PAYOH NORTH
BEDOK GREEN PRIMARY SCHOOL,1,BEDOK SOUTH AVENUE 2,BEDOK GREEN PRIMARY SCHOOL,1 BEDOK SOUTH AVENUE 2 BEDOK GREEN PRIMARY SCHOOL SINGAPORE 469317,469317,39636.5324891713,33965.6893824711,1.32344593287992,103.937878976352,1    BEDOK SOUTH AVE 2
KNOWLEDGE PARK EDUCARE (BG) PTE LTD,1,BEDOK SOUTH AVENUE 2,KNOWLEDGE PARK EDUCARE (BG) PTE LTD,1 BEDOK SOUTH AVENUE 2 KNOWLEDGE PARK EDUCARE (BG) PTE LTD SINGAPORE 469317,469317,39621.6222987836,34026.5434058774,1.32399627990304,103.937745023577,1    BEDOK SOUTH AVE 2
BEDOK GREEN SECONDARY SCHOOL,360,BEDOK NORTH AVENUE 3,BEDOK GREEN SECONDARY SCHOOL,360 BEDOK NORTH AVENUE 3 BEDOK GREEN SECONDARY SCHOOL SINGAPORE 469722,469722,39319.2390878517,35190.1334154308,1.33451947288431,103.935028383346,360  BEDOK NORTH AVE 3
BEDOK SOUTH SECONDARY SCHOOL,1,JALAN LANGGAR BEDOK,BEDOK SOUTH SECONDARY SCHOOL,1 JALAN LANGGAR BEDOK BEDOK SOUTH SECONDARY SCHOOL SINGAPORE 468585,468585,41095.5563319344,34152.6950651146,1.32513655159184,103.950989139261,1    JALAN LANGGAR BEDOK
BEDOK VIEW SECONDARY SCHOOL,6,BEDOK SOUTH AVENUE 3,BEDOK VIEW SECONDARY SCHOOL,6 BEDOK SOUTH AVENUE 3 BEDOK VIEW SECONDARY SCHOOL SINGAPORE 469293,469293,40292.8371452186,34044.3485775683,1.32415704029686,103.943776245024,6    BEDOK SOUTH AVENUE 3
BENDEMEER PRIMARY SCHOOL,91,BENDEMEER ROAD,BENDEMEER PRIMARY SCHOOL,91 BENDEMEER ROAD BENDEMEER PRIMARY SCHOOL SINGAPORE 339948,339948,31570.8074810533,33784.8514976725,1.32181250780475,103.865404167629,91   BENDEMEER ROAD
MOE KINDERGARTEN @ BENDEMEER,91,BENDEMEER ROAD,MOE KINDERGARTEN @ BENDEMEER,91 BENDEMEER ROAD MOE KINDERGARTEN @ BENDEMEER SINGAPORE 339948,339948,31494.2164972834,33865.841993412,1.3225449659487,103.864715966512,91   BENDEMEER ROAD
SHG STUDENT CARE (BENDEMEER PRIMARY SCHOOL),91,BENDEMEER ROAD,SHG STUDENT CARE (BENDEMEER PRIMARY SCHOOL),91 BENDEMEER ROAD SHG STUDENT CARE (BENDEMEER PRIMARY SCHOOL) SINGAPORE 339948,339948,31564.9272895884,33828.6365878265,1.32220848530291,103.865351336085,91   BENDEMEER ROAD
BENDEMEER SECONDARY SCHOOL,1,ST. WILFRED ROAD,BENDEMEER SECONDARY SCHOOL,1 ST. WILFRED ROAD BENDEMEER SECONDARY SCHOOL SINGAPORE 327919,327919,31027.0613143621,34065.2544317767,1.32434843114787,103.860518349544,1    ST WILFRED ROAD
BENDEMEER SECONDARY SCHOOL,1,SAINT WILFRED ROAD,BENDEMEER SECONDARY SCHOOL,1 SAINT WILFRED ROAD BENDEMEER SECONDARY SCHOOL SINGAPORE 327919,327919,31077.3568056701,34094.3010115474,1.32461111307996,103.860970284401,1    ST WILFRED ROAD
BLANGAH RISE PRIMARY SCHOOL,91,TELOK BLANGAH HEIGHTS,BLANGAH RISE PRIMARY SCHOOL,91 TELOK BLANGAH HEIGHTS BLANGAH RISE PRIMARY SCHOOL SINGAPORE 109100,109100,25252.1938973861,28732.4526119996,1.27612047924037,103.808628535239,91   TELOK BLANGAH HEIGHTS
MOE KINDERGARTEN @ BLANGAH RISE,91,TELOK BLANGAH HEIGHTS,MOE KINDERGARTEN @ BLANGAH RISE,91 TELOK BLANGAH HEIGHTS MOE KINDERGARTEN @ BLANGAH RISE SINGAPORE 109100,109100,25316.7547196876,28798.2301769778,1.27671535398442,103.809208632292,91   TELOK BLANGAH HEIGHTS
PCF SPARKLETOTS KCARE CENTRE@BLANGAH RISE,91,TELOK BLANGAH HEIGHTS,PCF SPARKLETOTS KCARE CENTRE@BLANGAH RISE,91 TELOK BLANGAH HEIGHTS PCF SPARKLETOTS KCARE CENTRE@BLANGAH RISE SINGAPORE 109100,109100,25248.3667832566,28733.284345923,1.27612800081734,103.808594147148,91   TELOK BLANGAH HEIGHTS
SHG STUDENT CARE (BLANGAH RISE PRIMARY SCHOOL),91,TELOK BLANGAH HEIGHTS,SHG STUDENT CARE (BLANGAH RISE PRIMARY SCHOOL),91 TELOK BLANGAH HEIGHTS SHG STUDENT CARE (BLANGAH RISE PRIMARY SCHOOL) SINGAPORE 109100,109100,25250.4834536267,28735.1893522833,1.27614522920998,103.80861316604,91   TELOK BLANGAH HEIGHTS
BIG HEART STUDENT CARE (BOON LAY GARDEN PRIMARY SCHOOL),20,BOON LAY DRIVE,BIG HEART STUDENT CARE (BOON LAY GARDEN PRIMARY SCHOOL),20 BOON LAY DRIVE BIG HEART STUDENT CARE (BOON LAY GARDEN PRIMARY SCHOOL) SINGAPORE 649930,649930,14594.0803428125,36110.2863859087,1.34284013791617,103.712858381937,20   BOON LAY DRIVE
BOON LAY GARDEN PRIMARY SCHOOL,20,BOON LAY DRIVE,BOON LAY GARDEN PRIMARY SCHOOL,20 BOON LAY DRIVE BOON LAY GARDEN PRIMARY SCHOOL SINGAPORE 649930,649930,14641.1027754331,36147.7026988044,1.34317853793318,103.713280889452,20   BOON LAY DRIVE
BOON LAY SECONDARY SCHOOL,11,JURONG WEST STREET 65,BOON LAY SECONDARY SCHOOL,11 JURONG WEST STREET 65 BOON LAY SECONDARY SCHOOL SINGAPORE 648354,648354,13373.5768683841,36097.304205548,1.34272216334333,103.701891453912,11   JURONG WEST STREET 65
BOWEN SECONDARY SCHOOL,2,LORONG NAPIRI,BOWEN SECONDARY SCHOOL,2 LORONG NAPIRI BOWEN SECONDARY SCHOOL SINGAPORE 547529,547529,32934.6156324307,39153.0014795549,1.37035994436209,103.877659577677,2    LORONG NAPIRI
BROADRICK SECONDARY SCHOOL,61,DAKOTA CRESCENT,BROADRICK SECONDARY SCHOOL,61 DAKOTA CRESCENT BROADRICK SECONDARY SCHOOL SINGAPORE 399935,399935,33965.1104164785,32152.5974159427,1.30705061123433,103.886917922608,61   DAKOTA CRESCENT
BUKIT BATOK SECONDARY SCHOOL,50,BUKIT BATOK WEST AVENUE 8,BUKIT BATOK SECONDARY SCHOOL,50 BUKIT BATOK WEST AVENUE 8 BUKIT BATOK SECONDARY SCHOOL SINGAPORE 658962,658962,17711.9101901269,36735.00712738,1.34849111079052,103.74087370482,50   BUKIT BATOK WEST AVE 8
BUKIT MERAH SECONDARY SCHOOL,10,LENGKOK BAHRU,BUKIT MERAH SECONDARY SCHOOL,10 LENGKOK BAHRU BUKIT MERAH SECONDARY SCHOOL SINGAPORE 159050,159050,25787.5608570725,29790.9091712814,1.28569283064288,103.813438929393,10   LENGKOK BAHRU
BUKIT PANJANG GOVERNMENT HIGH SCHOOL,7,CHOA CHU KANG AVENUE 4,BUKIT PANJANG GOVERNMENT HIGH SCHOOL,7 CHOA CHU KANG AVENUE 4 BUKIT PANJANG GOVERNMENT HIGH SCHOOL SINGAPORE 689809,689809,17432.4458359294,40467.0724023171,1.38224243360043,103.738361221869,7    CHOA CHU KANG AVE 4
ACE @ WORK ENRICHMENT PTE LTD (BT PANJANG PRIMARY),109,CASHEW ROAD,ACE @ WORK ENRICHMENT PTE LTD (BT PANJANG PRIMARY),109 CASHEW ROAD ACE @ WORK ENRICHMENT PTE LTD (BT PANJANG PRIMARY) SINGAPORE 679676,679676,20888.5750349946,39500.3618246447,1.37350089986584,103.769417337654,109  CASHEW ROAD
BUKIT PANJANG PRIMARY SCHOOL,109,CASHEW ROAD,BUKIT PANJANG PRIMARY SCHOOL,109 CASHEW ROAD BUKIT PANJANG PRIMARY SCHOOL SINGAPORE 679676,679676,20883.8530479269,39513.7297099214,1.37362179302436,103.769374904025,109  CASHEW ROAD
AFTERSCHOOL @ BUKIT TIMAH PRIMARY SCHOOL,111,LORONG KISMIS,AFTERSCHOOL @ BUKIT TIMAH PRIMARY SCHOOL,111 LORONG KISMIS AFTERSCHOOL @ BUKIT TIMAH PRIMARY SCHOOL SINGAPORE 598112,598112,20603.3479896449,35547.1996132508,1.3377498622588,103.766855344779,111  Lorong Kismis
BUKIT TIMAH PRIMARY SCHOOL,111,LORONG KISMIS,BUKIT TIMAH PRIMARY SCHOOL,111 LORONG KISMIS BUKIT TIMAH PRIMARY SCHOOL SINGAPORE 598112,598112,20600.383664391,35497.4072666373,1.3372995575169,103.766828720721,111  Lorong Kismis
BUKIT VIEW PRIMARY SCHOOL,18,BUKIT BATOK STREET 21,BUKIT VIEW PRIMARY SCHOOL,18 BUKIT BATOK STREET 21 BUKIT VIEW PRIMARY SCHOOL SINGAPORE 659634,659634,19135.5884738322,36444.0823157039,1.34586054788695,103.75366641455,18   BUKIT BATOK STREET 21
MCYC SCC @ BVPS,18,BUKIT BATOK STREET 21,MCYC SCC @ BVPS,18 BUKIT BATOK STREET 21 MCYC SCC @ BVPS SINGAPORE 659634,659634,19095.2098939065,36487.6660026927,1.34625469092492,103.753303575677,18   BUKIT BATOK STREET 21
BUKIT VIEW SECONDARY SCHOOL,16,BUKIT BATOK STREET 21,BUKIT VIEW SECONDARY SCHOOL,16 BUKIT BATOK STREET 21 BUKIT VIEW SECONDARY SCHOOL SINGAPORE 659633,659633,18975.3516749162,36429.990117576,1.3457330554294,103.752226593984,16   BUKIT BATOK STREET 21
CANBERRA PRIMARY SCHOOL,21,ADMIRALTY DRIVE,CANBERRA PRIMARY SCHOOL,21 ADMIRALTY DRIVE CANBERRA PRIMARY SCHOOL SINGAPORE 757714,757714,26057.0121687725,48097.4040875677,1.45125024371543,103.815858858929,21   ADMIRALTY DRIVE
SINGAPORE EDUSMART LEARNING HUB (CANBERRA PRIMARY),21,ADMIRALTY DRIVE,SINGAPORE EDUSMART LEARNING HUB (CANBERRA PRIMARY),21 ADMIRALTY DRIVE SINGAPORE EDUSMART LEARNING HUB (CANBERRA PRIMARY) SINGAPORE 757714,757714,26060.4123529922,48095.4844920393,1.45123288382933,103.81588941317,21   ADMIRALTY DRIVE
CANBERRA SECONDARY SCHOOL,51,SEMBAWANG DRIVE,CANBERRA SECONDARY SCHOOL,51 SEMBAWANG DRIVE CANBERRA SECONDARY SCHOOL SINGAPORE 757699,757699,25872.8083025776,48311.9895634912,1.45319086315972,103.814203583818,51   SEMBAWANG DRIVE
CANOSSA CATHOLIC PRIMARY SCHOOL,1,SALLIM ROAD,CANOSSA CATHOLIC PRIMARY SCHOOL,1 SALLIM ROAD CANOSSA CATHOLIC PRIMARY SCHOOL SINGAPORE 387621,387621,33443.1189393327,34319.1509661097,1.32664424544839,103.882227964852,1    Sallim Road
CANOSSA CONVENT,1,SALLIM ROAD,CANOSSA CONVENT,1 SALLIM ROAD CANOSSA CONVENT SINGAPORE 387621,387621,33367.3513052557,34342.5272931494,1.32685566604543,103.881547155683,1    Sallim Road
CANOSSAVILLE CHILDREN'S HOME,1,SALLIM ROAD,CANOSSAVILLE CHILDREN'S HOME,1 SALLIM ROAD CANOSSAVILLE CHILDREN'S HOME SINGAPORE 387621,387621,33516.7677842807,34281.6894025784,1.32630544320425,103.882889732898,1    Sallim Road
CANOSSIAN SCHOOL,1,SALLIM ROAD,CANOSSIAN SCHOOL,1 SALLIM ROAD CANOSSIAN SCHOOL SINGAPORE 387621,387621,33312.124342165,34342.8723481651,1.32685879628177,103.881050911498,1    Sallim Road
MAGDALENE'S KINDERGARTEN,1,SALLIM ROAD,MAGDALENE'S KINDERGARTEN,1 SALLIM ROAD MAGDALENE'S KINDERGARTEN SINGAPORE 387621,387621,33306.6919957874,34342.288811706,1.32685351993336,103.881002098815,1    Sallim Road
MASJID SALLIM MATTAR,1,MATTAR ROAD,MASJID SALLIM MATTAR,1 MATTAR ROAD MASJID SALLIM MATTAR SINGAPORE 387725,387725,33332.0983359599,34219.9130531698,1.32574679283198,103.881230367298,1    Sallim Road
CANTONMENT PRIMARY SCHOOL,1,CANTONMENT CLOSE,CANTONMENT PRIMARY SCHOOL,1 CANTONMENT CLOSE CANTONMENT PRIMARY SCHOOL SINGAPORE 088256,088256,28739.4305021614,28660.7930697445,1.27547252623201,103.839962631748,1    Cantonment Close
KIDZ TREEHOUSE @ CANTONMENT,1,CANTONMENT CLOSE,KIDZ TREEHOUSE @ CANTONMENT,1 CANTONMENT CLOSE KIDZ TREEHOUSE @ CANTONMENT SINGAPORE 088256,088256,28748.1620587641,28659.9995642845,1.27546534984202,103.840041087946,1    Cantonment Close
CASUARINA PRIMARY SCHOOL,30,PASIR RIS STREET 41,CASUARINA PRIMARY SCHOOL,30 PASIR RIS STREET 41 CASUARINA PRIMARY SCHOOL SINGAPORE 518935,518935,41766.4977676729,39385.5958609674,1.37246063927999,103.957020286115,30   PASIR RIS ST 41
NASCANS @ CASUARINA PRIMARY,30,PASIR RIS STREET 41,NASCANS @ CASUARINA PRIMARY,30 PASIR RIS STREET 41 NASCANS @ CASUARINA PRIMARY SINGAPORE 518935,518935,41776.7314032353,39457.149041526,1.37310773436801,103.957112275692,30   PASIR RIS ST 41
CATHOLIC HIGH SCHOOL,9,BISHAN STREET 22,CATHOLIC HIGH SCHOOL,9 BISHAN STREET 22 CATHOLIC HIGH SCHOOL SINGAPORE 579767,579767,29286.0617525242,37423.9135497604,1.3547230747166,103.844874676599,9    BISHAN STREET 22
COMMIT LEARNING SCHOOLHOUSE @ CATHOLIC HIGH SCHOOL (PRIMARY),9,BISHAN STREET 22,COMMIT LEARNING SCHOOLHOUSE @ CATHOLIC HIGH SCHOOL (PRIMARY),9 BISHAN STREET 22 COMMIT LEARNING SCHOOLHOUSE @ CATHOLIC HIGH SCHOOL (PRIMARY) SINGAPORE 579767,579767,29212.1656484166,37386.9490167908,1.35438878373608,103.844210670766,9    BISHAN STREET 22
CATHOLIC JUNIOR COLLEGE,129,WHITLEY ROAD,CATHOLIC JUNIOR COLLEGE,129 WHITLEY ROAD CATHOLIC JUNIOR COLLEGE SINGAPORE 297822,297822,28190.3351049758,34088.1962013766,1.32455605783219,103.835028842353,129  WHITLEY ROAD
CEDAR GIRLS' SECONDARY SCHOOL,1,CEDAR AVENUE,CEDAR GIRLS' SECONDARY SCHOOL,1 CEDAR AVENUE CEDAR GIRLS' SECONDARY SCHOOL SINGAPORE 349692,349692,32519.9675315833,35105.7372267004,1.33375800216334,103.873933064886,1    CEDAR AVENUE
BIG HEART STUDENT CARE (CEDAR PRIMARY SCHOOL),15,CEDAR AVENUE,BIG HEART STUDENT CARE (CEDAR PRIMARY SCHOOL),15 CEDAR AVENUE BIG HEART STUDENT CARE (CEDAR PRIMARY SCHOOL) SINGAPORE 349700,349700,32707.7091499828,35316.1469013225,1.33566084356265,103.87562006259,15   CEDAR AVENUE
CEDAR PRIMARY SCHOOL,15,CEDAR AVENUE,CEDAR PRIMARY SCHOOL,15 CEDAR AVENUE CEDAR PRIMARY SCHOOL SINGAPORE 349700,349700,32707.8191135684,35308.1476785857,1.3355885014312,103.87562104944,15   CEDAR AVENUE
MOE KINDERGARTEN @ CEDAR,15,CEDAR AVENUE,MOE KINDERGARTEN @ CEDAR,15 CEDAR AVENUE MOE KINDERGARTEN @ CEDAR SINGAPORE 349700,349700,32697.4944924461,35278.0751957744,1.3353165382378,103.875528272142,15   CEDAR AVENUE
CHANGKAT CHANGI SECONDARY SCHOOL,23,SIMEI STREET 3,CHANGKAT CHANGI SECONDARY SCHOOL,23 SIMEI STREET 3 CHANGKAT CHANGI SECONDARY SCHOOL SINGAPORE 529894,529894,41346.5926023414,35741.6438345015,1.33950630072876,103.953245525564,23   SIMEI ST 3
CHANGKAT PRIMARY SCHOOL,11,SIMEI STREET 3,CHANGKAT PRIMARY SCHOOL,11 SIMEI STREET 3 CHANGKAT PRIMARY SCHOOL SINGAPORE 529896,529896,41216.8906296864,35821.8419446945,1.34023163951633,103.952080114035,11   SIMEI ST 3
LEARNING STUDIO EDUCARE @ CHANGKAT PRIMARY SCHOOL,11,SIMEI STREET 3,LEARNING STUDIO EDUCARE @ CHANGKAT PRIMARY SCHOOL,11 SIMEI STREET 3 LEARNING STUDIO EDUCARE @ CHANGKAT PRIMARY SCHOOL SINGAPORE 529896,529896,41238.4638929376,35793.2822557092,1.33997334692002,103.952273949753,11   SIMEI ST 3
CHIJ (KATONG) PRIMARY,17,MARTIA ROAD,CHIJ (KATONG) PRIMARY,17 MARTIA ROAD CHIJ (KATONG) PRIMARY SINGAPORE 424821,424821,36656.9804726057,32090.1643723603,1.30648535277087,103.911105620496,17   MARTIA ROAD
NASCANS @ CHIJ KATONG,17,MARTIA ROAD,NASCANS @ CHIJ KATONG,17 MARTIA ROAD NASCANS @ CHIJ KATONG SINGAPORE 424821,424821,36656.9036827311,32108.3319426198,1.30664965374234,103.911104935556,17   MARTIA ROAD
CHIJ (KELLOCK),1,BUKIT TERESA ROAD,CHIJ (KELLOCK),1 BUKIT TERESA ROAD CHIJ (KELLOCK) SINGAPORE 099757,099757,27425.6197932558,28611.0557805933,1.275022722964,103.828157564896,1    Bukit Teresa Road
YMCA STUDENT CARE CENTRE @ CHIJ (KELLOCK),1,BUKIT TERESA ROAD,YMCA STUDENT CARE CENTRE @ CHIJ (KELLOCK),1 BUKIT TERESA ROAD YMCA STUDENT CARE CENTRE @ CHIJ (KELLOCK) SINGAPORE 099757,099757,27402.9654484307,28579.8478246406,1.27474048872023,103.827954007978,1    Bukit Teresa Road
CHIJ KATONG CONVENT,346,MARINE TERRACE,CHIJ KATONG CONVENT,346 MARINE TERRACE CHIJ KATONG CONVENT SINGAPORE 449150,449150,37329.0360122882,32085.467477452,1.30644268034894,103.917144350028,346  MARINE TERRACE
SAINT ANTHONY'S PRIMARY SCHOOL,30,BUKIT BATOK STREET 32,SAINT ANTHONY'S PRIMARY SCHOOL,30 BUKIT BATOK STREET 32 SAINT ANTHONY'S PRIMARY SCHOOL SINGAPORE 659401,659401,18644.3733009221,38463.0810494516,1.36411948475833,103.749251919049,30   Bukit Batok St 32
YMCA STUDENT CARE CENTRE @ ST ANTHONY'S,30,BUKIT BATOK STREET 32,YMCA STUDENT CARE CENTRE @ ST ANTHONY'S,30 BUKIT BATOK STREET 32 YMCA STUDENT CARE CENTRE @ ST ANTHONY'S SINGAPORE 659401,659401,18644.3742089616,38467.7008820735,1.36416126483168,103.749251925758,30   Bukit Batok St 32
CHIJ OUR LADY OF GOOD COUNSEL,2C,BURGHLEY DRIVE,CHIJ OUR LADY OF GOOD COUNSEL,2C BURGHLEY DRIVE CHIJ OUR LADY OF GOOD COUNSEL SINGAPORE 558979,558979,31415.5340866428,37723.1973494291,1.35742952269615,103.864009397373,2C   Burghley Drive
YMCA STUDENT CARE CENTRE @ CHIJ OUR LADY OF GOOD COUNSEL,2C,BURGHLEY DRIVE,YMCA STUDENT CARE CENTRE @ CHIJ OUR LADY OF GOOD COUNSEL,2C BURGHLEY DRIVE YMCA STUDENT CARE CENTRE @ CHIJ OUR LADY OF GOOD COUNSEL SINGAPORE 558979,558979,31431.409129547,37785.7194716875,1.35799494859112,103.864152052213,2C   Burghley Drive
CHIJ OUR LADY OF THE NATIVITY,1257,UPPER SERANGOON ROAD,CHIJ OUR LADY OF THE NATIVITY,1257 UPPER SERANGOON ROAD CHIJ OUR LADY OF THE NATIVITY SINGAPORE 534793,534793,35151.0338091562,39478.4768616967,1.37330297140128,103.897575728303,1257 UPPER SERANGOON ROAD
COMMIT LEARNING SCHOOLHOUSE @ CHIJ OUR LADY OF THE NATIVITY,1257,UPPER SERANGOON ROAD,COMMIT LEARNING SCHOOLHOUSE @ CHIJ OUR LADY OF THE NATIVITY,1257 UPPER SERANGOON ROAD COMMIT LEARNING SCHOOLHOUSE @ CHIJ OUR LADY OF THE NATIVITY SINGAPORE 534793,534793,35172.5371230971,39508.4571482297,1.37357409699145,103.897768958127,1257 UPPER SERANGOON ROAD
CHIJ OUR LADY QUEEN OF PEACE,4,CHESTNUT DRIVE,CHIJ OUR LADY QUEEN OF PEACE,4 CHESTNUT DRIVE CHIJ OUR LADY QUEEN OF PEACE SINGAPORE 679287,679287,20665.4072236279,38737.7066427004,1.366603668561,103.767412204602,4    Chestnut Drive
SINGAPORE EDUSMART LEARNING HUB (CHIJ OLQP),4,CHESTNUT DRIVE,SINGAPORE EDUSMART LEARNING HUB (CHIJ OLQP),4 CHESTNUT DRIVE SINGAPORE EDUSMART LEARNING HUB (CHIJ OLQP) SINGAPORE 679287,679287,20670.4441793347,38726.0948755704,1.36649865720247,103.767457467964,4    Chestnut Drive
CHIJ PRIMARY (TOA PAYOH),628,LORONG 1 TOA PAYOH,CHIJ PRIMARY (TOA PAYOH),628 LORONG 1 TOA PAYOH CHIJ PRIMARY (TOA PAYOH) SINGAPORE 319765,319765,28949.1537291808,34994.5345916729,1.33275264711587,103.841847263786,628  Lorong 1 Toa Payoh
YMCA STUDENT CARE CENTRE @ CHIJ PRIMARY (TOA PAYOH),628,LORONG 1 TOA PAYOH,YMCA STUDENT CARE CENTRE @ CHIJ PRIMARY (TOA PAYOH),628 LORONG 1 TOA PAYOH YMCA STUDENT CARE CENTRE @ CHIJ PRIMARY (TOA PAYOH) SINGAPORE 319765,319765,28949.1543042725,34994.5335020255,1.33275263726147,103.841847268953,628  Lorong 1 Toa Payoh
CHIJ SECONDARY (TOA PAYOH),626,LORONG 1 TOA PAYOH,CHIJ SECONDARY (TOA PAYOH),626 LORONG 1 TOA PAYOH CHIJ SECONDARY (TOA PAYOH) SINGAPORE 319764,319764,29107.6704288498,34962.2641689572,1.33246079948303,103.843271625083,626  LORONG 1 TOA PAYOH
CHIJ SAINT JOSEPH'S CONVENT,62,SENGKANG EAST WAY,CHIJ SAINT JOSEPH'S CONVENT,62 SENGKANG EAST WAY CHIJ SAINT JOSEPH'S CONVENT SINGAPORE 548595,548595,35695.0897989292,41518.518049065,1.39175222260369,103.902464991543,62   SENGKANG EAST WAY
CHIJ SAINT NICHOLAS GIRLS' SCHOOL,501,ANG MO KIO STREET 13,CHIJ SAINT NICHOLAS GIRLS' SCHOOL,501 ANG MO KIO STREET 13 CHIJ SAINT NICHOLAS GIRLS' SCHOOL SINGAPORE 569405,569405,28104.0195931299,39497.6106162649,1.37347687878916,103.834253269436,501  ANG MO KIO STREET 13
CHIJ SAINT THERESA'S CONVENT,160,LOWER DELTA ROAD,CHIJ SAINT THERESA'S CONVENT,160 LOWER DELTA ROAD CHIJ SAINT THERESA'S CONVENT SINGAPORE 099138,099138,26789.3781491434,28647.4426490944,1.27535177510054,103.822440701642,160  LOWER DELTA ROAD
CHONGFU SCHOOL,170,YISHUN AVENUE 6,CHONGFU SCHOOL,170 YISHUN AVENUE 6 CHONGFU SCHOOL SINGAPORE 768959,768959,28666.6613053558,46675.9986570273,1.43839562897006,103.839309173817,170  YISHUN AVENUE 6
SHG STUDENT CARE (CHONGFU SCHOOL),170,YISHUN AVENUE 6,SHG STUDENT CARE (CHONGFU SCHOOL),170 YISHUN AVENUE 6 SHG STUDENT CARE (CHONGFU SCHOOL) SINGAPORE 768959,768959,28640.1243954552,46683.3712114282,1.43846230429529,103.839070714229,170  YISHUN AVENUE 6
BIG HEART STUDENT CARE (CHONGZHENG PRIMARY SCHOOL),1,TAMPINES STREET 21,BIG HEART STUDENT CARE (CHONGZHENG PRIMARY SCHOOL),1 TAMPINES STREET 21 BIG HEART STUDENT CARE (CHONGZHENG PRIMARY SCHOOL) SINGAPORE 529392,529392,41131.9416870372,36969.5707135443,1.35061130568554,103.951317297552,1    TAMPINES STREET 21
CHONGZHENG PRIMARY SCHOOL,1,TAMPINES STREET 21,CHONGZHENG PRIMARY SCHOOL,1 TAMPINES STREET 21 CHONGZHENG PRIMARY SCHOOL SINGAPORE 529392,529392,41141.094059418,36980.1959562805,1.35070739237744,103.951399541868,1    TAMPINES STREET 21
CHRIST CHURCH SECONDARY SCHOOL,20,WOODLANDS DRIVE 17,CHRIST CHURCH SECONDARY SCHOOL,20 WOODLANDS DRIVE 17 CHRIST CHURCH SECONDARY SCHOOL SINGAPORE 737924,737924,23563.3391703926,45368.1754093207,1.42656780901455,103.793451105242,20   WOODLANDS DRIVE 17
LIGHT OF CHRIST CHURCH WOODLANDS,20,WOODLANDS DRIVE 17,LIGHT OF CHRIST CHURCH WOODLANDS,20 WOODLANDS DRIVE 17 LIGHT OF CHRIST CHURCH WOODLANDS SINGAPORE 737924,737924,23511.7159437109,45365.0813252199,1.42653981910601,103.792987223691,20   WOODLANDS DRIVE 17
CHUA CHU KANG PRIMARY SCHOOL,20,CHOA CHU KANG AVENUE 2,CHUA CHU KANG PRIMARY SCHOOL,20 CHOA CHU KANG AVENUE 2 CHUA CHU KANG PRIMARY SCHOOL SINGAPORE 689905,689905,17818.7829598142,39971.2903354876,1.37775890093367,103.741832917421,20   CHOA CHU KANG AVENUE 2
YMCA SCC @ CHUA CHU KANG,20,CHOA CHU KANG AVENUE 2,YMCA SCC @ CHUA CHU KANG,20 CHOA CHU KANG AVENUE 2 YMCA SCC @ CHUA CHU KANG SINGAPORE 689905,689905,17756.1856216164,39954.6381621007,1.37760828302593,103.741270440945,20   CHOA CHU KANG AVENUE 2
3 TECK WHYE CRESCENT SINGAPORE 688845,3,TECK WHYE CRESCENT,NIL,3 TECK WHYE CRESCENT SINGAPORE 688845,688845,18936.729485549,40571.8260801956,1.38319029263484,103.751878290333,3    TECK WHYE CRESCENT
CHUNG CHENG HIGH SCHOOL (MAIN),50,GOODMAN ROAD,CHUNG CHENG HIGH SCHOOL (MAIN),50 GOODMAN ROAD CHUNG CHENG HIGH SCHOOL (MAIN) SINGAPORE 439012,439012,34492.1113962689,31935.9858617261,1.30509154753048,103.891653229373,50   GOODMAN ROAD
CHUNG CHENG HIGH SCHOOL (MAIN) ADMINISTRATION BUILDING AND ENTRANCE ARCH,50,GOODMAN ROAD,CHUNG CHENG HIGH SCHOOL (MAIN) ADMINISTRATION BUILDING AND ENTRANCE ARCH,50 GOODMAN ROAD CHUNG CHENG HIGH SCHOOL (MAIN) ADMINISTRATION BUILDING AND ENTRANCE ARCH SINGAPORE 439012,439012,34387.4480683208,31907.6790314764,1.30483557242719,103.890712775053,50   GOODMAN ROAD
CHUNG CHENG HIGH SCHOOL (YISHUN),11,YISHUN STREET 61,CHUNG CHENG HIGH SCHOOL (YISHUN),11 YISHUN STREET 61 CHUNG CHENG HIGH SCHOOL (YISHUN) SINGAPORE 768547,768547,28453.17758404,44556.321072707,1.41922603586175,103.837390782849,11   YISHUN STREET 61
CLEMENTI PRIMARY SCHOOL,8,CLEMENTI AVENUE 3,CLEMENTI PRIMARY SCHOOL,8 CLEMENTI AVENUE 3 CLEMENTI PRIMARY SCHOOL SINGAPORE 129903,129903,20190.2983410172,33038.6364921555,1.31506321827875,103.763144493687,8    CLEMENTI AVE 3
NASCANS CLEMENTI STUDENT CARE CENTRE,8,CLEMENTI AVENUE 3,NASCANS CLEMENTI STUDENT CARE CENTRE,8 CLEMENTI AVENUE 3 NASCANS CLEMENTI STUDENT CARE CENTRE SINGAPORE 129903,129903,20170.5088003157,33037.9840960354,1.31505731320501,103.762966674996,8    CLEMENTI AVE 3
CLEMENTI TOWN SECONDARY SCHOOL,10,CLEMENTI AVENUE 3,CLEMENTI TOWN SECONDARY SCHOOL,10 CLEMENTI AVENUE 3 CLEMENTI TOWN SECONDARY SCHOOL SINGAPORE 129904,129904,20065.2210438633,33091.2638894655,1.31553912945073,103.762020598524,10   CLEMENTI AVE 3
COMMONWEALTH SECONDARY SCHOOL,698,WEST COAST ROAD,COMMONWEALTH SECONDARY SCHOOL,698 WEST COAST ROAD COMMONWEALTH SECONDARY SCHOOL SINGAPORE 608784,608784,18241.9409345519,33496.5605151355,1.31920395934801,103.745637393049,698  WEST COAST ROAD
COMPASSVALE SECONDARY SCHOOL,51,COMPASSVALE CRESCENT,COMPASSVALE SECONDARY SCHOOL,51 COMPASSVALE CRESCENT COMPASSVALE SECONDARY SCHOOL SINGAPORE 545083,545083,35403.746108626,42003.7810229771,1.39614083952009,103.899847164494,51   COMPASSVALE CRESCENT
BIG HEART STUDENT CARE (CONCORD PRIMARY SCHOOL),3,CHOA CHU KANG AVENUE 4,BIG HEART STUDENT CARE (CONCORD PRIMARY SCHOOL),3 CHOA CHU KANG AVENUE 4 BIG HEART STUDENT CARE (CONCORD PRIMARY SCHOOL) SINGAPORE 689814,689814,17231.3486815896,40248.4434567168,1.38026516111464,103.736554295636,3    CHOA CHU KANG AVE 4
CONCORD PRIMARY SCHOOL,3,CHOA CHU KANG AVENUE 4,CONCORD PRIMARY SCHOOL,3 CHOA CHU KANG AVENUE 4 CONCORD PRIMARY SCHOOL SINGAPORE 689814,689814,17194.7500582738,40220.0161901619,1.38000806197242,103.736225440727,3    CHOA CHU KANG AVE 4
ACE @ WORK ENRICHMENT PTE LTD (CORPORATION PRIMARY),31,JURONG WEST STREET 24,ACE @ WORK ENRICHMENT PTE LTD (CORPORATION PRIMARY),31 JURONG WEST STREET 24 ACE @ WORK ENRICHMENT PTE LTD (CORPORATION PRIMARY) SINGAPORE 648347,648347,14006.5242964895,37066.276891252,1.35148548772662,103.707578404944,31   JURONG WEST STREET 24
CORPORATION PRIMARY SCHOOL,31,JURONG WEST STREET 24,CORPORATION PRIMARY SCHOOL,31 JURONG WEST STREET 24 CORPORATION PRIMARY SCHOOL SINGAPORE 648347,648347,14008.2263862854,37012.3505131546,1.35099779872539,103.707593724342,31   JURONG WEST STREET 24
CRESCENT GIRLS' SCHOOL,357,TANGLIN ROAD,CRESCENT GIRLS' SCHOOL,357 TANGLIN ROAD CRESCENT GIRLS' SCHOOL SINGAPORE 247961,247961,26244.4775918219,30634.2205088157,1.29331947077104,103.817544461755,357  TANGLIN ROAD
CREST SECONDARY SCHOOL,561,JURONG EAST STREET 24,CREST SECONDARY SCHOOL,561 JURONG EAST STREET 24 CREST SECONDARY SCHOOL SINGAPORE 609561,609561,17907.1336000822,36141.0674422178,1.3431198045076,103.742628105304,561  JURONG EAST STREET 24
BIG HEART STUDENT CARE @ DAMAI,52,BEDOK RESERVOIR CRESCENT,BIG HEART STUDENT CARE @ DAMAI,52 BEDOK RESERVOIR CRESCENT BIG HEART STUDENT CARE @ DAMAI SINGAPORE 479226,479226,37789.8996013105,35270.4133399837,1.33524602829747,103.921286435321,52   BEDOK RESERVOIR CRESCENT
DAMAI PRIMARY SCHOOL,52,BEDOK RESERVOIR CRESCENT,DAMAI PRIMARY SCHOOL,52 BEDOK RESERVOIR CRESCENT DAMAI PRIMARY SCHOOL SINGAPORE 479226,479226,37788.0885467725,35294.1912929006,1.33546106800406,103.921270169613,52   BEDOK RESERVOIR CRESCENT
DAMAI SECONDARY SCHOOL,4800,BEDOK RESERVOIR ROAD,DAMAI SECONDARY SCHOOL,4800 BEDOK RESERVOIR ROAD DAMAI SECONDARY SCHOOL SINGAPORE 479229,479229,38435.9529452929,35456.4196343422,1.33692798510393,103.927091653438,4800 BEDOK RESERVOIR ROAD
DAZHONG PRIMARY SCHOOL,35,BUKIT BATOK STREET 31,DAZHONG PRIMARY SCHOOL,35 BUKIT BATOK STREET 31 DAZHONG PRIMARY SCHOOL SINGAPORE 659441,659441,18557.5702323942,37916.8722190689,1.3591797447277,103.74847210784,35   BUKIT BATOK STREET 31
MOE KINDERGARTEN @ DAZHONG,35,BUKIT BATOK STREET 31,MOE KINDERGARTEN @ DAZHONG,35 BUKIT BATOK STREET 31 MOE KINDERGARTEN @ DAZHONG SINGAPORE 659441,659441,18534.5662015537,37941.6096065342,1.35940345327924,103.748265393745,35   BUKIT BATOK STREET 31
PRO-TEACH SCHOOLCARE (DAZHONG),35,BUKIT BATOK STREET 31,PRO-TEACH SCHOOLCARE (DAZHONG),35 BUKIT BATOK STREET 31 PRO-TEACH SCHOOLCARE (DAZHONG) SINGAPORE 659441,659441,18518.634648324,37903.9176733773,1.35906257616677,103.748122250254,35   BUKIT BATOK STREET 31
DE LA SALLE SCHOOL,11,CHOA CHU KANG STREET 52,DE LA SALLE SCHOOL,11 CHOA CHU KANG STREET 52 DE LA SALLE SCHOOL SINGAPORE 689285,689285,17971.195454672,41845.4133931287,1.3947078296399,103.743201812831,11   Choa Chu Kang St 52
YMCA STUDENT CARE CENTRE @ DE LA SALLE,11,CHOA CHU KANG STREET 52,YMCA STUDENT CARE CENTRE @ DE LA SALLE,11 CHOA CHU KANG STREET 52 YMCA STUDENT CARE CENTRE @ DE LA SALLE SINGAPORE 689285,689285,17962.4648363767,41854.9376379568,1.39479396035866,103.743123358084,11   Choa Chu Kang St 52
DEYI SECONDARY SCHOOL,1,ANG MO KIO STREET 42,DEYI SECONDARY SCHOOL,1 ANG MO KIO STREET 42 DEYI SECONDARY SCHOOL SINGAPORE 569277,569277,30139.7572483057,38670.5350554623,1.36599702567717,103.852545772422,1    ANG MO KIO STREET 42
DUNEARN SECONDARY SCHOOL,21,BUKIT BATOK WEST AVENUE 2,DUNEARN SECONDARY SCHOOL,21 BUKIT BATOK WEST AVENUE 2 DUNEARN SECONDARY SCHOOL SINGAPORE 659204,659204,18140.1430463539,38403.3358936273,1.36357900792871,103.74472109107,21   BUKIT BATOK WEST AVENUE 2
DUNMAN HIGH SCHOOL,10,TANJONG RHU ROAD,DUNMAN HIGH SCHOOL,10 TANJONG RHU ROAD DUNMAN HIGH SCHOOL SINGAPORE 436895,436895,33522.593402571,31368.7836118564,1.29996216014962,103.88294155989,10   TANJONG RHU ROAD
DUNMAN SECONDARY SCHOOL,21,TAMPINES STREET 45,DUNMAN SECONDARY SCHOOL,21 TAMPINES STREET 45 DUNMAN SECONDARY SCHOOL SINGAPORE 529093,529093,41676.8242046405,38079.9135282841,1.36065258337022,103.956213906966,21   TAMPINES STREET 45
EAST SPRING PRIMARY SCHOOL,31,TAMPINES STREET 33,EAST SPRING PRIMARY SCHOOL,31 TAMPINES STREET 33 EAST SPRING PRIMARY SCHOOL SINGAPORE 529258,529258,42284.8340225685,37198.8184850682,1.35268400746357,103.961676849165,31   TAMPINES ST 33
NASCANS @ EAST SPRING,31,TAMPINES STREET 33,NASCANS @ EAST SPRING,31 TAMPINES STREET 33 NASCANS @ EAST SPRING SINGAPORE 529258,529258,42292.2109052921,37208.3428207003,1.35277013841942,103.961743139539,31   TAMPINES ST 33
EAST SPRING SECONDARY SCHOOL,30,TAMPINES STREET 34,EAST SPRING SECONDARY SCHOOL,30 TAMPINES STREET 34 EAST SPRING SECONDARY SCHOOL SINGAPORE 529231,529231,42169.5015330398,37590.3682097681,1.35622508992581,103.960640700298,30   TAMPINES STREET 34
EDGEFIELD PRIMARY SCHOOL,41,EDGEFIELD PLAINS,EDGEFIELD PRIMARY SCHOOL,41 EDGEFIELD PLAINS EDGEFIELD PRIMARY SCHOOL SINGAPORE 828869,828869,36294.0746121518,42440.6405269764,1.40009139510996,103.907847599114,41   EDGEFIELD PLAINS
WHEE!CANOPUS STUDENT CARE @ EDGEFIELD PRIMARY SCHOOL,41,EDGEFIELD PLAINS,WHEE!CANOPUS STUDENT CARE @ EDGEFIELD PRIMARY SCHOOL,41 EDGEFIELD PLAINS WHEE!CANOPUS STUDENT CARE @ EDGEFIELD PRIMARY SCHOOL SINGAPORE 828869,828869,36247.6589920688,42463.4656134974,1.40029783011552,103.907430523653,41   EDGEFIELD PLAINS
EDGEFIELD SECONDARY SCHOOL,36,PUNGGOL FIELD,EDGEFIELD SECONDARY SCHOOL,36 PUNGGOL FIELD EDGEFIELD SECONDARY SCHOOL SINGAPORE 828814,828814,35719.8105087345,42496.0989190713,1.40059309981824,103.902687385465,36   PUNGGOL FIELD
AFTERSCHOOL @ ELIAS PARK PRIMARY SCHOOL,11,PASIR RIS STREET 52,AFTERSCHOOL @ ELIAS PARK PRIMARY SCHOOL,11 PASIR RIS STREET 52 AFTERSCHOOL @ ELIAS PARK PRIMARY SCHOOL SINGAPORE 518866,518866,40460.9792755861,39672.6204007976,1.37505696315817,103.945289416873,11   PASIR RIS STREET 52
ELIAS PARK PRIMARY SCHOOL,11,PASIR RIS STREET 52,ELIAS PARK PRIMARY SCHOOL,11 PASIR RIS STREET 52 ELIAS PARK PRIMARY SCHOOL SINGAPORE 518866,518866,40443.0313903531,39612.4369040336,1.37451269377776,103.945128117139,11   PASIR RIS STREET 52
COMMIT LEARNING SCHOOLHOUSE @ ENDEAVOUR PRIMARY,10,ADMIRALTY LINK,COMMIT LEARNING SCHOOLHOUSE @ ENDEAVOUR PRIMARY,10 ADMIRALTY LINK COMMIT LEARNING SCHOOLHOUSE @ ENDEAVOUR PRIMARY SINGAPORE 757521,757521,26203.4465249702,48388.3767226581,1.45388170417263,103.817174701639,10   Admiralty Link
ENDEAVOUR PRIMARY SCHOOL,10,ADMIRALTY LINK,ENDEAVOUR PRIMARY SCHOOL,10 ADMIRALTY LINK ENDEAVOUR PRIMARY SCHOOL SINGAPORE 757521,757521,26232.5507349819,48405.7003912628,1.45403837499301,103.817436231731,10   Admiralty Link
NORTH LINK BUILDING,10,ADMIRALTY STREET,NORTH LINK BUILDING,10 ADMIRALTY STREET NORTH LINK BUILDING SINGAPORE 757695,757695,25677.8830927983,49327.1050034035,1.46237118146808,103.812451896813,10   Admiralty Link
EUNOIA JUNIOR COLLEGE,2,SIN MING PLACE,EUNOIA JUNIOR COLLEGE,2 SIN MING PLACE EUNOIA JUNIOR COLLEGE SINGAPORE 573838,573838,28886.6991347941,38243.7692278698,1.36213757183547,103.841286169122,2    Sin Ming Place
BIG HEART STUDENT CARE @ EVERGREEN,31,WOODLANDS CIRCLE,BIG HEART STUDENT CARE @ EVERGREEN,31 WOODLANDS CIRCLE BIG HEART STUDENT CARE @ EVERGREEN SINGAPORE 738908,738908,23685.1394134862,47312.1421118006,1.44414835451585,103.794545295922,31   WOODLANDS CIRCLE
EVERGREEN PRIMARY SCHOOL,31,WOODLANDS CIRCLE,EVERGREEN PRIMARY SCHOOL,31 WOODLANDS CIRCLE EVERGREEN PRIMARY SCHOOL SINGAPORE 738908,738908,23688.7552570887,47312.692020528,1.44415332824735,103.794577787757,31   WOODLANDS CIRCLE
EVERGREEN SECONDARY SCHOOL,11,WOODLANDS STREET 83,EVERGREEN SECONDARY SCHOOL,11 WOODLANDS STREET 83 EVERGREEN SECONDARY SCHOOL SINGAPORE 738489,738489,23639.7815383626,47018.3404796105,1.44149131273737,103.794137756171,11   WOODLANDS STREET 83
COMMIT LEARNING SCHOOLHOUSE @ FAIRFIELD METHODIST SCHOOL (PRIMARY),100,DOVER ROAD,COMMIT LEARNING SCHOOLHOUSE @ FAIRFIELD METHODIST SCHOOL (PRIMARY),100 DOVER ROAD COMMIT LEARNING SCHOOLHOUSE @ FAIRFIELD METHODIST SCHOOL (PRIMARY) SINGAPORE 139648,139648,22673.2819890725,31484.0275675338,1.30100441916733,103.785455606827,100  DOVER ROAD
FAIRFIELD METHODIST SCHOOL (PRIMARY),100,DOVER ROAD,FAIRFIELD METHODIST SCHOOL (PRIMARY),100 DOVER ROAD FAIRFIELD METHODIST SCHOOL (PRIMARY) SINGAPORE 139648,139648,22671.3515878748,31432.7656800412,1.30054082453424,103.785438270044,100  DOVER ROAD
FAIRFIELD METHODIST SCHOOL (SECONDARY),102,DOVER ROAD,FAIRFIELD METHODIST SCHOOL (SECONDARY),102 DOVER ROAD FAIRFIELD METHODIST SCHOOL (SECONDARY) SINGAPORE 139649,139649,22522.3772030193,31553.6179904211,1.30163374395823,103.784099647149,102  DOVER ROAD
HOLY COVENANT METHODIST CHURCH,102,DOVER ROAD,HOLY COVENANT METHODIST CHURCH,102 DOVER ROAD HOLY COVENANT METHODIST CHURCH SINGAPORE 139649,139649,22549.1834071716,31576.1390955821,1.30183742154919,103.784340509094,102  DOVER ROAD
FARRER PARK PRIMARY SCHOOL,2,FARRER PARK ROAD,FARRER PARK PRIMARY SCHOOL,2 FARRER PARK ROAD FARRER PARK PRIMARY SCHOOL SINGAPORE 217567,217567,29941.7768185176,32740.5849021059,1.31236867681371,103.850766402965,2    FARRER PARK ROAD
LEARNING STUDIO BY ZENITANT (FARRER PARK PRIMARY),2,FARRER PARK ROAD,LEARNING STUDIO BY ZENITANT (FARRER PARK PRIMARY),2 FARRER PARK ROAD LEARNING STUDIO BY ZENITANT (FARRER PARK PRIMARY) SINGAPORE 217567,217567,29942.2804777659,32747.4519811794,1.31243078021903,103.850770929023,2    FARRER PARK ROAD
MOE KINDERGARTEN @ FARRER PARK,2,FARRER PARK ROAD,MOE KINDERGARTEN @ FARRER PARK,2 FARRER PARK ROAD MOE KINDERGARTEN @ FARRER PARK SINGAPORE 217567,217567,29917.0852870485,32693.1287898142,1.31193950204473,103.850544534433,2    FARRER PARK ROAD
FENGSHAN PRIMARY SCHOOL,307,BEDOK NORTH ROAD,FENGSHAN PRIMARY SCHOOL,307 BEDOK NORTH ROAD FENGSHAN PRIMARY SCHOOL SINGAPORE 469680,469680,38949.9907227494,34668.9245775398,1.32980598760785,103.931710293058,307  BEDOK NORTH ROAD
KIDS' LOFT STUDENT CARE @ FENGSHAN,307,BEDOK NORTH ROAD,KIDS' LOFT STUDENT CARE @ FENGSHAN,307 BEDOK NORTH ROAD KIDS' LOFT STUDENT CARE @ FENGSHAN SINGAPORE 469680,469680,38962.6912292531,34666.5444546398,1.3297844580718,103.931824413157,307  BEDOK NORTH ROAD
MOE KINDERGARTEN @ FENGSHAN,307,BEDOK NORTH ROAD,MOE KINDERGARTEN @ FENGSHAN,307 BEDOK NORTH ROAD MOE KINDERGARTEN @ FENGSHAN SINGAPORE 469680,469680,38982.7967979731,34657.410485195,1.32970184654986,103.932005069334,307  BEDOK NORTH ROAD
FERN GREEN PRIMARY SCHOOL,70,FERNVALE LINK,FERN GREEN PRIMARY SCHOOL,70 FERNVALE LINK FERN GREEN PRIMARY SCHOOL SINGAPORE 797538,797538,33231.7764054528,42128.5479522273,1.39726966050479,103.880330305684,70   Fernvale Link
MOE KINDERGARTEN @ FERN GREEN,70,FERNVALE LINK,MOE KINDERGARTEN @ FERN GREEN,70 FERNVALE LINK MOE KINDERGARTEN @ FERN GREEN SINGAPORE 797538,797538,33210.2900113147,42134.1007954478,1.39731988228585,103.880137234155,70   Fernvale Link
RAFFLES STUDENT CARE LEARNING CENTRE LLP (FERN GREEN PRIMARY),70,FERNVALE LINK,RAFFLES STUDENT CARE LEARNING CENTRE LLP (FERN GREEN PRIMARY),70 FERNVALE LINK RAFFLES STUDENT CARE LEARNING CENTRE LLP (FERN GREEN PRIMARY) SINGAPORE 797538,797538,33208.7882047668,42148.1511329543,1.39744694871873,103.88012374173,70   Fernvale Link
FERNVALE PRIMARY SCHOOL,1,FERNVALE LANE,FERNVALE PRIMARY SCHOOL,1 FERNVALE LANE FERNVALE PRIMARY SCHOOL SINGAPORE 797701,797701,32576.8849010281,41358.1178030372,1.39030227963797,103.874445458032,1    Fernvale Lane
MOE KINDERGARTEN @ FERNVALE,1,FERNVALE LANE,MOE KINDERGARTEN @ FERNVALE,1 FERNVALE LANE MOE KINDERGARTEN @ FERNVALE SINGAPORE 797701,797701,32537.1710060248,41287.4380051475,1.38966308328476,103.874088586824,1    Fernvale Lane
PRO-TEACH SCHOOLCARE (FERNVALE),1,FERNVALE LANE,PRO-TEACH SCHOOLCARE (FERNVALE),1 FERNVALE LANE PRO-TEACH SCHOOLCARE (FERNVALE) SINGAPORE 797701,797701,32538.5495916111,41322.4145974834,1.38997939874565,103.874100979909,1    Fernvale Lane
FIRST TOA PAYOH PRIMARY SCHOOL,7,LORONG 8 TOA PAYOH,FIRST TOA PAYOH PRIMARY SCHOOL,7 LORONG 8 TOA PAYOH FIRST TOA PAYOH PRIMARY SCHOOL SINGAPORE 319252,319252,30471.8817195026,35831.634454662,1.34032299499938,103.855529906182,7    LORONG 8 TOA PAYOH
MOE KINDERGARTEN @ FIRST TOA PAYOH,7,LORONG 8 TOA PAYOH,MOE KINDERGARTEN @ FIRST TOA PAYOH,7 LORONG 8 TOA PAYOH MOE KINDERGARTEN @ FIRST TOA PAYOH SINGAPORE 319252,319252,30543.7338872049,35811.7035927437,1.34014274139827,103.856175538933,7    LORONG 8 TOA PAYOH
NASCANS FIRST TOA PAYOH STUDENT CARE CENTRE,7,LORONG 8 TOA PAYOH,NASCANS FIRST TOA PAYOH STUDENT CARE CENTRE,7 LORONG 8 TOA PAYOH NASCANS FIRST TOA PAYOH STUDENT CARE CENTRE SINGAPORE 319252,319252,30485.3756709313,35831.6336071584,1.34032298622598,103.855651157354,7    LORONG 8 TOA PAYOH
FRONTIER PRIMARY SCHOOL,20,JURONG WEST STREET 61,FRONTIER PRIMARY SCHOOL,20 JURONG WEST STREET 61 FRONTIER PRIMARY SCHOOL SINGAPORE 648200,648200,13129.8467444237,35399.679120725,1.33641298743234,103.69970173931,20   Jurong West Street 61
LEARNING LEAP PTE LTD (FRONTIER PRIMARY SCHOOL),20,JURONG WEST STREET 61,LEARNING LEAP PTE LTD (FRONTIER PRIMARY SCHOOL),20 JURONG WEST STREET 61 LEARNING LEAP PTE LTD (FRONTIER PRIMARY SCHOOL) SINGAPORE 648200,648200,13127.742393123,35425.1252935641,1.3366431119298,103.699682818103,20   Jurong West Street 61
MOE KINDERGARTEN @ FRONTIER,20,JURONG WEST STREET 61,MOE KINDERGARTEN @ FRONTIER,20 JURONG WEST STREET 61 MOE KINDERGARTEN @ FRONTIER SINGAPORE 648200,648200,13126.4445019821,35488.2521096021,1.33721400626256,103.699671124954,20   Jurong West Street 61
PCF SPARKLETOTS KCARE CENTRE @ FRONTIER,20,JURONG WEST STREET 61,PCF SPARKLETOTS KCARE CENTRE @ FRONTIER,20 JURONG WEST STREET 61 PCF SPARKLETOTS KCARE CENTRE @ FRONTIER SINGAPORE 648200,648200,13127.742393123,35425.1252935641,1.3366431119298,103.699682818103,20   Jurong West Street 61
FUCHUN PRIMARY SCHOOL,23,WOODLANDS AVENUE 1,FUCHUN PRIMARY SCHOOL,23 WOODLANDS AVENUE 1 FUCHUN PRIMARY SCHOOL SINGAPORE 739063,739063,21865.3411816815,45800.7908879817,1.43047990810126,103.778192944298,23   WOODLANDS AVENUE 1
SHG STUDENT CARE (FUCHUN PRIMARY SCHOOL),23,WOODLANDS AVENUE 1,SHG STUDENT CARE (FUCHUN PRIMARY SCHOOL),23 WOODLANDS AVENUE 1 SHG STUDENT CARE (FUCHUN PRIMARY SCHOOL) SINGAPORE 739063,739063,21863.36610494,45818.4663008247,1.43063975763573,103.778175192579,23   WOODLANDS AVENUE 1
FUCHUN SECONDARY SCHOOL,21,WOODLANDS AVENUE 1,FUCHUN SECONDARY SCHOOL,21 WOODLANDS AVENUE 1 FUCHUN SECONDARY SCHOOL SINGAPORE 739062,739062,21802.2213575486,45825.6298548002,1.43070452883799,103.777625748539,21   WOODLANDS AVENUE 1
AMP-MERCU STUDENT CARE CENTRE @ FUHUA PRIMARY SCHOOL,65,JURONG EAST STREET 13,AMP-MERCU STUDENT CARE CENTRE @ FUHUA PRIMARY SCHOOL,65 JURONG EAST STREET 13 AMP-MERCU STUDENT CARE CENTRE @ FUHUA PRIMARY SCHOOL SINGAPORE 609647,609647,17179.4264072292,35419.8652930856,1.33659726465816,103.736089481883,65   JURONG EAST STREET 13
FUHUA PRIMARY SCHOOL,65,JURONG EAST STREET 13,FUHUA PRIMARY SCHOOL,65 JURONG EAST STREET 13 FUHUA PRIMARY SCHOOL SINGAPORE 609647,609647,17181.0134181511,35409.5467255618,1.33650394789627,103.736103745748,65   JURONG EAST STREET 13
FUHUA SECONDARY SCHOOL,5,JURONG WEST STREET 41,FUHUA SECONDARY SCHOOL,5 JURONG WEST STREET 41 FUHUA SECONDARY SCHOOL SINGAPORE 649410,649410,16114.5930194063,36571.750703603,1.34701408913756,103.72652089832,5    JURONG WEST STREET 41
GAN ENG SENG PRIMARY SCHOOL,100,REDHILL CLOSE,GAN ENG SENG PRIMARY SCHOOL,100 REDHILL CLOSE GAN ENG SENG PRIMARY SCHOOL SINGAPORE 158901,158901,26022.2170935348,29780.10807156,1.28559516494962,103.815547410064,100  REDHILL CLOSE
YMCA STUDENT CARE CENTRE @ GAN ENG SENG PRIMARY,100,REDHILL CLOSE,YMCA STUDENT CARE CENTRE @ GAN ENG SENG PRIMARY,100 REDHILL CLOSE YMCA STUDENT CARE CENTRE @ GAN ENG SENG PRIMARY SINGAPORE 158901,158901,25986.6930139093,29819.9415856339,1.28595540299542,103.815228209494,100  REDHILL CLOSE
GAN ENG SENG SCHOOL,1,HENDERSON ROAD,GAN ENG SENG SCHOOL,1 HENDERSON ROAD GAN ENG SENG SCHOOL SINGAPORE 159561,159561,26933.2813452026,30164.4591011573,1.28907114485773,103.823733673089,1    HENDERSON ROAD
CHRISTALITE METHODIST CHAPEL,4,GEYLANG EAST CENTRAL,CHRISTALITE METHODIST CHAPEL,4 GEYLANG EAST CENTRAL CHRISTALITE METHODIST CHAPEL SINGAPORE 389706,389706,33599.0035654055,33379.2588208541,1.31814416827374,103.883628501601,4    Geylang East Central
GEYLANG METHODIST SCHOOL (PRIMARY),4,GEYLANG EAST CENTRAL,GEYLANG METHODIST SCHOOL (PRIMARY),4 GEYLANG EAST CENTRAL GEYLANG METHODIST SCHOOL (PRIMARY) SINGAPORE 389706,389706,33623.1818729434,33318.1223668903,1.31759126757284,103.883845744916,4    Geylang East Central
KIDZ TREEHOUSE @ GEYLANG METHODIST PRIMARY,4,GEYLANG EAST CENTRAL,KIDZ TREEHOUSE @ GEYLANG METHODIST PRIMARY,4 GEYLANG EAST CENTRAL KIDZ TREEHOUSE @ GEYLANG METHODIST PRIMARY SINGAPORE 389706,389706,33629.5341844177,33305.4682006706,1.31747682664316,103.883902821362,4    Geylang East Central
GEYLANG METHODIST SCHOOL (SECONDARY),2,GEYLANG EAST CENTRAL,GEYLANG METHODIST SCHOOL (SECONDARY),2 GEYLANG EAST CENTRAL GEYLANG METHODIST SCHOOL (SECONDARY) SINGAPORE 389705,389705,33491.3455231488,33324.5040080417,1.31764900474601,103.882661129303,2    GEYLANG EAST CENTRAL
COMMIT LEARNING SCHOOLHOUSE @ GONGSHANG PRIMARY SCHOOL,1,TAMPINES STREET 42,COMMIT LEARNING SCHOOLHOUSE @ GONGSHANG PRIMARY SCHOOL,1 TAMPINES STREET 42 COMMIT LEARNING SCHOOLHOUSE @ GONGSHANG PRIMARY SCHOOL SINGAPORE 529176,529176,40890.1319455709,37688.8239677399,1.35711606790292,103.949144797277,1    TAMPINES STREET 42
GONGSHANG PRIMARY SCHOOL,1,TAMPINES STREET 42,GONGSHANG PRIMARY SCHOOL,1 TAMPINES STREET 42 GONGSHANG PRIMARY SCHOOL SINGAPORE 529176,529176,40886.8508355999,37702.2195482217,1.35723721393297,103.949115320172,1    TAMPINES STREET 42
MOE KINDERGARTEN @ GONGSHANG,1,TAMPINES STREET 42,MOE KINDERGARTEN @ GONGSHANG,1 TAMPINES STREET 42 MOE KINDERGARTEN @ GONGSHANG SINGAPORE 529176,529176,40900.4946135487,37684.3217867706,1.35707534737744,103.949237910522,1    TAMPINES STREET 42
GREENDALE PRIMARY SCHOOL,50,EDGEDALE PLAINS,GREENDALE PRIMARY SCHOOL,50 EDGEDALE PLAINS GREENDALE PRIMARY SCHOOL SINGAPORE 828848,828848,36793.4333255449,42041.5424514245,1.39648195114256,103.91233462071,50   Edgedale Plains
MOE KINDERGARTEN @ GREENDALE,50,EDGEDALE PLAINS,MOE KINDERGARTEN @ GREENDALE,50 EDGEDALE PLAINS MOE KINDERGARTEN @ GREENDALE SINGAPORE 828848,828848,36869.7601908892,41988.4874885771,1.39600211828423,103.913020462134,50   Edgedale Plains
QSF - THE ENABLERS PTE LTD (STUDENT CARE @ GREENDALE PRI),50,EDGEDALE PLAINS,QSF - THE ENABLERS PTE LTD (STUDENT CARE @ GREENDALE PRI),50 EDGEDALE PLAINS QSF - THE ENABLERS PTE LTD (STUDENT CARE @ GREENDALE PRI) SINGAPORE 828848,828848,36806.320434168,42039.5216397587,1.39646367174598,103.912450421018,50   Edgedale Plains
GREENDALE SECONDARY SCHOOL,51,EDGEDALE PLAINS,GREENDALE SECONDARY SCHOOL,51 EDGEDALE PLAINS GREENDALE SECONDARY SCHOOL SINGAPORE 828866,828866,36722.8223570501,42094.4224047884,1.39696019936894,103.91170014084,51   EDGEDALE PLAINS
GREENRIDGE PRIMARY SCHOOL,11,JELAPANG ROAD,GREENRIDGE PRIMARY SCHOOL,11 JELAPANG ROAD GREENRIDGE PRIMARY SCHOOL SINGAPORE 677744,677744,20708.0073222192,40870.2050487585,1.3858892193692,103.767794469258,11   JELAPANG ROAD
YMCA STUDENT CARE CENTRE @ GREENRIDGE,11,JELAPANG ROAD,YMCA STUDENT CARE CENTRE @ GREENRIDGE,11 JELAPANG ROAD YMCA STUDENT CARE CENTRE @ GREENRIDGE SINGAPORE 677744,677744,20708.9999910127,40874.8348092809,1.38593108948507,103.767803387989,11   JELAPANG ROAD
32 BUKIT PANJANG RING ROAD SINGAPORE 679938,32,BUKIT PANJANG RING ROAD,NIL,32 BUKIT PANJANG RING ROAD SINGAPORE 679938,679938,21379.5029344708,40425.1360503398,1.38186433722811,103.773828466913,32   BUKIT PANJANG RING ROAD
GREENWOOD PRIMARY SCHOOL,11,WOODLANDS DRIVE 62,GREENWOOD PRIMARY SCHOOL,11 WOODLANDS DRIVE 62 GREENWOOD PRIMARY SCHOOL SINGAPORE 737942,737942,24818.0410170276,46842.3174743224,1.43989958331782,103.804725587384,11   WOODLANDS  DR  62
SHG STUDENT CARE (GREENWOOD PRIMARY SCHOOL),11,WOODLANDS DRIVE 62,SHG STUDENT CARE (GREENWOOD PRIMARY SCHOOL),11 WOODLANDS DRIVE 62 SHG STUDENT CARE (GREENWOOD PRIMARY SCHOOL) SINGAPORE 737942,737942,24794.6262799157,46865.6384109538,1.4401104867196,103.804515180606,11   WOODLANDS  DR  62
GUANGYANG SECONDARY SCHOOL,8,BISHAN STREET 12,GUANGYANG SECONDARY SCHOOL,8 BISHAN STREET 12 GUANGYANG SECONDARY SCHOOL SINGAPORE 579807,579807,29879.7115914728,36283.3906797953,1.34440856042912,103.850208933626,8    BISHAN STREET 12
HAI SING CATHOLIC SCHOOL,9,PASIR RIS DRIVE 6,HAI SING CATHOLIC SCHOOL,9 PASIR RIS DRIVE 6 HAI SING CATHOLIC SCHOOL SINGAPORE 519421,519421,41490.9673433183,39593.0795296021,1.3743371707478,103.954544548905,9    PASIR RIS DRIVE 6
HAIG GIRLS' SCHOOL,51,KOON SENG ROAD,HAIG GIRLS' SCHOOL,51 KOON SENG ROAD HAIG GIRLS' SCHOOL SINGAPORE 427072,427072,35744.037941209,32693.6655622385,1.31194344271383,103.902902557195,51   Koon Seng Road
HAIG GIRLS' SCHOOL (U/C),51,KOON SENG ROAD,HAIG GIRLS' SCHOOL (U/C),51 KOON SENG ROAD HAIG GIRLS' SCHOOL (U/C) SINGAPORE 427072,427072,35798.6867555426,32648.9584790319,1.31153911414311,103.903393592097,51   Koon Seng Road
KIDZ TREEHOUSE @ HAIG GIRLS',51,KOON SENG ROAD,KIDZ TREEHOUSE @ HAIG GIRLS',51 KOON SENG ROAD KIDZ TREEHOUSE @ HAIG GIRLS' SINGAPORE 427072,427072,35761.7296382273,32670.1590828672,1.31173085411355,103.903061519804,51   Koon Seng Road
HENRY PARK PRIMARY SCHOOL,1,HOLLAND GROVE ROAD,HENRY PARK PRIMARY SCHOOL,1 HOLLAND GROVE ROAD HENRY PARK PRIMARY SCHOOL SINGAPORE 278790,278790,22544.2873791968,33216.9645254761,1.31667646178347,103.784296227747,1    HOLLAND GROVE ROAD
PRO-TEACH SCHOOL CARE (HENRY PARK),1,HOLLAND GROVE ROAD,PRO-TEACH SCHOOL CARE (HENRY PARK),1 HOLLAND GROVE ROAD PRO-TEACH SCHOOL CARE (HENRY PARK) SINGAPORE 278790,278790,22525.7713336423,33224.8035397753,1.31674735173514,103.784129850316,1    HOLLAND GROVE ROAD
HILLGROVE SECONDARY SCHOOL,10,BUKIT BATOK STREET 52,HILLGROVE SECONDARY SCHOOL,10 BUKIT BATOK STREET 52 HILLGROVE SECONDARY SCHOOL SINGAPORE 659250,659250,19059.9452109011,37204.3120635767,1.35273576615912,103.752986488399,10   BUKIT BATOK STREET 52
HOLY INNOCENTS' HIGH SCHOOL,1191,UPPER SERANGOON ROAD,HOLY INNOCENTS' HIGH SCHOOL,1191 UPPER SERANGOON ROAD HOLY INNOCENTS' HIGH SCHOOL SINGAPORE 534786,534786,35020.0627604807,39284.0954767819,1.37154508822261,103.896398814264,1191 UPPER SERANGOON ROAD
HOLY INNOCENTS' PRIMARY SCHOOL,5,LORONG LOW KOON,HOLY INNOCENTS' PRIMARY SCHOOL,5 LORONG LOW KOON HOLY INNOCENTS' PRIMARY SCHOOL SINGAPORE 536451,536451,34765.9036816582,38774.6943912152,1.36693830877349,103.894114899795,5    Lorong Low Koon
KIDZ TREEHOUSE @ HOLY INNOCENTS' PRIMARY,5,LORONG LOW KOON,KIDZ TREEHOUSE @ HOLY INNOCENTS' PRIMARY,5 LORONG LOW KOON KIDZ TREEHOUSE @ HOLY INNOCENTS' PRIMARY SINGAPORE 536451,536451,34780.4997206423,38781.9217803665,1.36700366732013,103.89424605689,5    Lorong Low Koon
HONG WEN SCHOOL,30,TOWNER ROAD,HONG WEN SCHOOL,30 TOWNER ROAD HONG WEN SCHOOL SINGAPORE 327829,327829,30705.4493981982,33779.0355954058,1.32175999964553,103.857628468881,30   TOWNER ROAD
PRO-TEACH SCHOOLCARE (HONG WEN BRANCH) PTE LTD,30,TOWNER ROAD,PRO-TEACH SCHOOLCARE (HONG WEN BRANCH) PTE LTD,30 TOWNER ROAD PRO-TEACH SCHOOLCARE (HONG WEN BRANCH) PTE LTD SINGAPORE 327829,327829,30717.1735806195,33778.5725557897,1.32175581103999,103.857733816796,30   TOWNER ROAD
HORIZON PRIMARY SCHOOL,61,EDGEDALE PLAINS,HORIZON PRIMARY SCHOOL,61 EDGEDALE PLAINS HORIZON PRIMARY SCHOOL SINGAPORE 828819,828819,36912.5247354358,42380.7999361996,1.399550034492,103.913404855665,61   Edgedale Plains
MOE KINDERGARTEN @ HORIZON,61,EDGEDALE PLAINS,MOE KINDERGARTEN @ HORIZON,61 EDGEDALE PLAINS MOE KINDERGARTEN @ HORIZON SINGAPORE 828819,828819,36895.8301868727,42389.6472073048,1.39963005110234,103.913254844387,61   Edgedale Plains
PRO-TEACH SCHOOLCARE (HORIZON),61,EDGEDALE PLAINS,PRO-TEACH SCHOOLCARE (HORIZON),61 EDGEDALE PLAINS PRO-TEACH SCHOOLCARE (HORIZON) SINGAPORE 828819,828819,36875.4283853956,42431.5278964583,1.40000881091199,103.91307153053,61   Edgedale Plains
HOUGANG 1,1,HOUGANG STREET 91,HOUGANG 1,1 HOUGANG STREET 91 HOUGANG 1 SINGAPORE 538692,538692,33136.3424516348,39745.1742408983,1.37571530699875,103.879472337592,1    HOUGANG ST 93
HOUGANG OLIVE,176A,HOUGANG STREET 13,HOUGANG OLIVE,176A HOUGANG STREET 13 HOUGANG OLIVE SINGAPORE 531176,531176,34222.4845907995,36681.7608406078,1.34801069167978,103.889231470637,1    HOUGANG ST 93
HOUGANG OLIVE,175,HOUGANG STREET 13,HOUGANG OLIVE,175 HOUGANG STREET 13 HOUGANG OLIVE SINGAPORE 530175,530175,34126.0666853674,36738.9350641631,1.34852777464929,103.888365107708,1    HOUGANG ST 93
HOUGANG OLIVE,175B,HOUGANG STREET 13,HOUGANG OLIVE,175B HOUGANG STREET 13 HOUGANG OLIVE SINGAPORE 532175,532175,34125.5398408426,36766.1321187876,1.34877373513529,103.888360379207,1    HOUGANG ST 93
HOUGANG PRIMARY SCHOOL,1,HOUGANG STREET 93,HOUGANG PRIMARY SCHOOL,1 HOUGANG STREET 93 HOUGANG PRIMARY SCHOOL SINGAPORE 534238,534238,33284.6782123018,39929.5216681417,1.37738245231461,103.880805274557,1    HOUGANG ST 93
HOUGANG SECONDARY SCHOOL,2,HOUGANG STREET 93,HOUGANG SECONDARY SCHOOL,2 HOUGANG STREET 93 HOUGANG SECONDARY SCHOOL SINGAPORE 534256,534256,33477.0592164416,39958.0252705514,1.37764019332164,103.882533963338,1    HOUGANG ST 93
HOUGANG SPRING,693,HOUGANG STREET 61,HOUGANG SPRING,693 HOUGANG STREET 61 HOUGANG SPRING SINGAPORE 530693,530693,34034.2881051395,39853.8510429524,1.3766979699603,103.887541049902,1    HOUGANG ST 93
HOUGANG STREET 93,,HOUGANG STREET 93,NIL,HOUGANG STREET 93,NIL,33363.179352188,40009.7884142332,1.37810834188276,103.881510679068,1    HOUGANG ST 93
VILLAGE RESIDENCE HOUGANG,1,HOUGANG STREET 91,VILLAGE RESIDENCE HOUGANG,1 HOUGANG STREET 91 VILLAGE RESIDENCE HOUGANG SINGAPORE 538692,538692,33117.165111172,39760.0655137971,1.37584998164921,103.879300017907,1    HOUGANG ST 93
YMCA STUDENT CARE CENTRE @ HOUGANG,1,HOUGANG STREET 93,YMCA STUDENT CARE CENTRE @ HOUGANG,1 HOUGANG STREET 93 YMCA STUDENT CARE CENTRE @ HOUGANG SINGAPORE 534238,534238,33295.2221855018,39928.7320672497,1.37737530954806,103.880900019698,1    HOUGANG ST 93
HOUGANG SECONDARY SCHOOL,2,HOUGANG STREET 93,HOUGANG SECONDARY SCHOOL,2 HOUGANG STREET 93 HOUGANG SECONDARY SCHOOL SINGAPORE 534256,534256,33477.0592164416,39958.0252705514,1.37764019332164,103.882533963338,2    HOUGANG STREET 93
HUA YI SECONDARY SCHOOL,60,JURONG WEST STREET 42,HUA YI SECONDARY SCHOOL,60 JURONG WEST STREET 42 HUA YI SECONDARY SCHOOL SINGAPORE 649371,649371,15592.8322145641,37161.0913502462,1.35234365488339,103.721832320169,60   JURONG WEST ST 42
HUAMIN PRIMARY SCHOOL,21,YISHUN AVENUE 11,HUAMIN PRIMARY SCHOOL,21 YISHUN AVENUE 11 HUAMIN PRIMARY SCHOOL SINGAPORE 768857,768857,29215.4177919272,45412.9266837817,1.42697284512936,103.844240226564,21   YISHUN AVENUE 11
MOE KINDERGARTEN @ HUAMIN,21,YISHUN AVENUE 11,MOE KINDERGARTEN @ HUAMIN,21 YISHUN AVENUE 11 MOE KINDERGARTEN @ HUAMIN SINGAPORE 768857,768857,29198.8241870897,45449.2488998696,1.4273013308197,103.844091119272,21   YISHUN AVENUE 11
WHEE!CANOPUS STUDENT CARE @ HUAMIN PRIMARY SCHOOL,21,YISHUN AVENUE 11,WHEE!CANOPUS STUDENT CARE @ HUAMIN PRIMARY SCHOOL,21 YISHUN AVENUE 11 WHEE!CANOPUS STUDENT CARE @ HUAMIN PRIMARY SCHOOL SINGAPORE 768857,768857,29212.0174563685,45411.3805951737,1.42695886300879,103.844209671353,21   YISHUN AVENUE 11
CHINESE HIGH SCHOOL CLOCK TOWER BUILDING,661,BUKIT TIMAH ROAD,CHINESE HIGH SCHOOL CLOCK TOWER BUILDING,661 BUKIT TIMAH ROAD CHINESE HIGH SCHOOL CLOCK TOWER BUILDING SINGAPORE 269734,269734,24658.1639833655,34287.4728272986,1.3263580622144,103.803290365022,661  BUKIT TIMAH ROAD
HWA CHONG INSTITUTION,661,BUKIT TIMAH ROAD,HWA CHONG INSTITUTION,661 BUKIT TIMAH ROAD HWA CHONG INSTITUTION SINGAPORE 269734,269734,24926.8156149359,34131.5293299966,1.3249477928719,103.805704361472,661  BUKIT TIMAH ROAD
HWA CHONG INSTITUTION (AUDITORIUM),661,BUKIT TIMAH ROAD,HWA CHONG INSTITUTION (AUDITORIUM),661 BUKIT TIMAH ROAD HWA CHONG INSTITUTION (AUDITORIUM) SINGAPORE 269734,269734,24929.7337209778,34205.2982177679,1.32561493280909,103.805730574839,661  BUKIT TIMAH ROAD
HWA CHONG INSTITUTION (ONG TENG CHEONG SALT CENTRE),661,BUKIT TIMAH ROAD,HWA CHONG INSTITUTION (ONG TENG CHEONG SALT CENTRE),661 BUKIT TIMAH ROAD HWA CHONG INSTITUTION (ONG TENG CHEONG SALT CENTRE) SINGAPORE 269734,269734,24448.348166584,34416.4159513339,1.32752415425611,103.80140504104,661  BUKIT TIMAH ROAD
HWA CHONG INSTITUTION (SCIENCE RESEARCH CENTRE),661,BUKIT TIMAH ROAD,HWA CHONG INSTITUTION (SCIENCE RESEARCH CENTRE),661 BUKIT TIMAH ROAD HWA CHONG INSTITUTION (SCIENCE RESEARCH CENTRE) SINGAPORE 269734,269734,24794.2409987506,34152.7572960891,1.32513975740581,103.804513104992,661  BUKIT TIMAH ROAD
INNOVA PRIMARY SCHOOL,80,WOODLANDS DRIVE 17,INNOVA PRIMARY SCHOOL,80 WOODLANDS DRIVE 17 INNOVA PRIMARY SCHOOL SINGAPORE 737888,737888,23246.8971469188,45633.4723797198,1.42896700684852,103.790607539185,80   Woodlands Drive 17
PRO-TEACH SCHOOLCARE (INNOVA),80,WOODLANDS DRIVE 17,PRO-TEACH SCHOOLCARE (INNOVA),80 WOODLANDS DRIVE 17 PRO-TEACH SCHOOLCARE (INNOVA) SINGAPORE 737888,737888,23245.2490552058,45667.8495751731,1.42927790140509,103.790592723808,80   Woodlands Drive 17
JIEMIN PRIMARY SCHOOL,2,YISHUN STREET 71,JIEMIN PRIMARY SCHOOL,2 YISHUN STREET 71 JIEMIN PRIMARY SCHOOL SINGAPORE 768515,768515,27678.0421859771,45492.0549418237,1.42768847665227,103.830425490093,2    YISHUN STREET 71
QSF - THE ENABLERS PTE LTD (STUDENT CARE @ JIEMIN PRI),2,YISHUN STREET 71,QSF - THE ENABLERS PTE LTD (STUDENT CARE @ JIEMIN PRI),2 YISHUN STREET 71 QSF - THE ENABLERS PTE LTD (STUDENT CARE @ JIEMIN PRI) SINGAPORE 768515,768515,27675.3278137334,45482.9473963268,1.42760611127302,103.830401099055,2    YISHUN STREET 71
AMK HEIGHTS,352,ANG MO KIO STREET 32,AMK HEIGHTS,352 ANG MO KIO STREET 32 AMK HEIGHTS SINGAPORE 560352,560352,29952.6014969982,38496.6787232533,1.36442474404862,103.850864037677,5    ANG MO KIO ST 52
ANG MO KIO BUS INTERCHANGE,57,ANG MO KIO AVENUE 8,ANG MO KIO BUS INTERCHANGE,57 ANG MO KIO AVENUE 8 ANG MO KIO BUS INTERCHANGE SINGAPORE 567751,567751,29685.3052657386,39060.0209576953,1.36951942637994,103.848462230319,5    ANG MO KIO ST 52
ANG MO KIO FIRE STATION,2874,ANG MO KIO AVENUE 9,ANG MO KIO FIRE STATION,2874 ANG MO KIO AVENUE 9 ANG MO KIO FIRE STATION SINGAPORE 569783,569783,29369.8056964744,40770.4391411114,1.3849878525885,103.845627324406,5    ANG MO KIO ST 52
ANG MO KIO MRT STATION,2450,ANG MO KIO AVENUE 8,ANG MO KIO MRT STATION,2450 ANG MO KIO AVENUE 8 ANG MO KIO MRT STATION SINGAPORE 569811,569811,29807.2610862684,39105.7359950263,1.36993284962264,103.849558091776,5    ANG MO KIO ST 52
ANG MO KIO MRT STATION (NS16),2795,ANG MO KIO AVENUE 8,ANG MO KIO MRT STATION (NS16),2795 ANG MO KIO AVENUE 8 ANG MO KIO MRT STATION (NS16) SINGAPORE 569812,569812,29807.2611468043,39105.7359950263,1.36993284962262,103.84955809232,5    ANG MO KIO ST 52
ANG MO KIO MRT STATION EXIT A,,NIL,ANG MO KIO MRT STATION EXIT A,ANG MO KIO MRT STATION EXIT A,NIL,29849.6519725556,39053.9714168608,1.36946470665767,103.849939000494,5    ANG MO KIO ST 52
ANG MO KIO MRT STATION EXIT C,,NIL,ANG MO KIO MRT STATION EXIT C,ANG MO KIO MRT STATION EXIT C,NIL,29782.3649432287,39051.0800677165,1.36943856246777,103.849334379134,5    ANG MO KIO ST 52
ANG MO KIO MRT STATION EXIT D,,NIL,ANG MO KIO MRT STATION EXIT D,ANG MO KIO MRT STATION EXIT D,NIL,29837.0428753626,39100.7076051589,1.36988737282392,103.849825701795,5    ANG MO KIO ST 52
ANG MO KIO SECONDARY SCHOOL,6,ANG MO KIO STREET 22,ANG MO KIO SECONDARY SCHOOL,6 ANG MO KIO STREET 22 ANG MO KIO SECONDARY SCHOOL SINGAPORE 569362,569362,28983.3847605418,38818.7070966065,1.36733710171069,103.842154973672,5    ANG MO KIO ST 52
SBS TRANSIT BUS DEPOT (ANG MO KIO),15,ANG MO KIO STREET 63,SBS TRANSIT BUS DEPOT (ANG MO KIO),15 ANG MO KIO STREET 63 SBS TRANSIT BUS DEPOT (ANG MO KIO) SINGAPORE 569117,569117,29586.3101322968,40875.3239096291,1.38593638186528,103.847572787003,5    ANG MO KIO ST 52
JUNYUAN PRIMARY SCHOOL,2,TAMPINES STREET 91,JUNYUAN PRIMARY SCHOOL,2 TAMPINES STREET 91 JUNYUAN PRIMARY SCHOOL SINGAPORE 528906,528906,39785.8491141181,36666.4713015798,1.34787074766746,103.939221709073,2    Tampines Street 91
MOE KINDERGARTEN @ JUNYUAN,2,TAMPINES STREET 91,MOE KINDERGARTEN @ JUNYUAN,2 TAMPINES STREET 91 MOE KINDERGARTEN @ JUNYUAN SINGAPORE 528906,528906,39764.1579873385,36686.6051103286,1.34805283888458,103.939026808982,2    Tampines Street 91
WHEE!CANOPUS STUDENT CARE @ JUNYUAN PRIMARY SCHOOL,2,TAMPINES STREET 91,WHEE!CANOPUS STUDENT CARE @ JUNYUAN PRIMARY SCHOOL,2 TAMPINES STREET 91 WHEE!CANOPUS STUDENT CARE @ JUNYUAN PRIMARY SCHOOL SINGAPORE 528906,528906,39797.6365868924,36666.4453921858,1.34787050871599,103.939327626661,2    Tampines Street 91
JUNYUAN SECONDARY SCHOOL,11,TAMPINES STREET 84,JUNYUAN SECONDARY SCHOOL,11 TAMPINES STREET 84 JUNYUAN SECONDARY SCHOOL SINGAPORE 528933,528933,39192.0351621611,37301.4129357934,1.35361315263537,103.933886165824,11   TAMPINES STREET 84
JURONG PIONEER JUNIOR COLLEGE,21,TECK WHYE WALK,JURONG PIONEER JUNIOR COLLEGE,21 TECK WHYE WALK JURONG PIONEER JUNIOR COLLEGE SINGAPORE 688258,688258,19214.5432963269,40702.7122574467,1.38437406410733,103.75437461519,21   Teck Whye Walk
JURONG PRIMARY SCHOOL,320,JURONG EAST STREET 32,JURONG PRIMARY SCHOOL,320 JURONG EAST STREET 32 JURONG PRIMARY SCHOOL SINGAPORE 609476,609476,16853.0771883978,36729.2343872562,1.34843859698946,103.733156566858,320  JURONG EAST Street 32
KIDZ FUSION NETWORK @ JURONG PRIMARY,320,JURONG EAST STREET 32,KIDZ FUSION NETWORK @ JURONG PRIMARY,320 JURONG EAST STREET 32 KIDZ FUSION NETWORK @ JURONG PRIMARY SINGAPORE 609476,609476,16830.4671559008,36748.4896072429,1.3486127256626,103.732953394774,320  JURONG EAST Street 32
JURONG SECONDARY SCHOOL,31,YUAN CHING ROAD,JURONG SECONDARY SCHOOL,31 YUAN CHING ROAD JURONG SECONDARY SCHOOL SINGAPORE 618652,618652,15828.7257759329,34692.6761670429,1.33002032220942,103.723952961648,31   YUAN CHING ROAD
JURONG WEST PRIMARY SCHOOL,30,JURONG WEST STREET 61,JURONG WEST PRIMARY SCHOOL,30 JURONG WEST STREET 61 JURONG WEST PRIMARY SCHOOL SINGAPORE 648368,648368,13029.9245329089,35705.1165225543,1.33917519796104,103.698803732244,30   JURONG WEST ST 61
MOE KINDERGARTEN @ JURONG WEST,30,JURONG WEST STREET 61,MOE KINDERGARTEN @ JURONG WEST,30 JURONG WEST STREET 61 MOE KINDERGARTEN @ JURONG WEST SINGAPORE 648368,648368,13054.4448081264,35757.001294883,1.33964443629144,103.699024035245,30   JURONG WEST ST 61
YMCA STUDENT CARE CENTRE @ JURONG WEST 2,30,JURONG WEST STREET 61,YMCA STUDENT CARE CENTRE @ JURONG WEST 2,30 JURONG WEST STREET 61 YMCA STUDENT CARE CENTRE @ JURONG WEST 2 SINGAPORE 648368,648368,13023.2364889588,35764.5547912922,1.33971273175894,103.698743607058,30   JURONG WEST ST 61
JURONG WEST SECONDARY SCHOOL,61,JURONG WEST STREET 65,JURONG WEST SECONDARY SCHOOL,61 JURONG WEST STREET 65 JURONG WEST SECONDARY SCHOOL SINGAPORE 648348,648348,13396.6197330486,35271.7690127064,1.33525634688323,103.702098904443,61   JURONG WEST STREET 65
JURONGVILLE SECONDARY SCHOOL,202,JURONG EAST AVENUE 1,JURONGVILLE SECONDARY SCHOOL,202 JURONG EAST AVENUE 1 JURONGVILLE SECONDARY SCHOOL SINGAPORE 609790,609790,16380.2394942129,37044.3966198433,1.35128862770284,103.728907710089,202  JURONG EAST AVENUE 1
JUYING SECONDARY SCHOOL,33,JURONG WEST STREET 91,JUYING SECONDARY SCHOOL,33 JURONG WEST STREET 91 JUYING SECONDARY SCHOOL SINGAPORE 649038,649038,11750.8178531462,35655.1627567839,1.3387227734133,103.687310264575,33   JURONG WEST STREET 91
KEMING PRIMARY SCHOOL,90,BUKIT BATOK EAST AVENUE 6,KEMING PRIMARY SCHOOL,90 BUKIT BATOK EAST AVENUE 6 KEMING PRIMARY SCHOOL SINGAPORE 659762,659762,19445.3031655131,36407.3561431039,1.34552849960874,103.756449399351,90   BUKIT BATOK EAST AVENUE 6
KNOWLEDGE PARK EDUCARE PTE LTD (KEMING PRIMARY SCHOOL),90,BUKIT BATOK EAST AVENUE 6,KNOWLEDGE PARK EDUCARE PTE LTD (KEMING PRIMARY SCHOOL),90 BUKIT BATOK EAST AVENUE 6 KNOWLEDGE PARK EDUCARE PTE LTD (KEMING PRIMARY SCHOOL) SINGAPORE 659762,659762,19386.7443935787,36355.9404942542,1.34506349843091,103.75592322797,90   BUKIT BATOK EAST AVENUE 6
KENT RIDGE SECONDARY SCHOOL,147,WEST COAST ROAD,KENT RIDGE SECONDARY SCHOOL,147 WEST COAST ROAD KENT RIDGE SECONDARY SCHOOL SINGAPORE 127368,127368,20384.4722389057,31508.7733694967,1.30122773426098,103.764889617566,147  WEST COAST ROAD
KHENG CHENG SCHOOL,15,LORONG 3 TOA PAYOH,KHENG CHENG SCHOOL,15 LORONG 3 TOA PAYOH KHENG CHENG SCHOOL SINGAPORE 319580,319580,29539.1234353296,35501.5835219584,1.3373381935639,103.847148501824,15   LORONG 3 TOA PAYOH
SHG STUDENT CARE (KHENG CHENG SCHOOL),15,LORONG 3 TOA PAYOH,SHG STUDENT CARE (KHENG CHENG SCHOOL),15 LORONG 3 TOA PAYOH SHG STUDENT CARE (KHENG CHENG SCHOOL) SINGAPORE 319580,319580,29538.3022649307,35496.0536824055,1.33728818369962,103.847141122849,15   LORONG 3 TOA PAYOH
KONG HWA SCHOOL,350,GUILLEMARD ROAD,KONG HWA SCHOOL,350 GUILLEMARD ROAD KONG HWA SCHOOL SINGAPORE 399772,399772,34124.7036575247,32588.943696009,1.31099674009193,103.888352029067,350  GUILLEMARD ROAD
NASCANS KONG HWA STUDENT CARE CENTRE,350,GUILLEMARD ROAD,NASCANS KONG HWA STUDENT CARE CENTRE,350 GUILLEMARD ROAD NASCANS KONG HWA STUDENT CARE CENTRE SINGAPORE 399772,399772,34114.3886616211,32582.883773258,1.31094193836138,103.888259342632,350  GUILLEMARD ROAD
KRANJI PRIMARY SCHOOL,11,CHOA CHU KANG STREET 54,KRANJI PRIMARY SCHOOL,11 CHOA CHU KANG STREET 54 KRANJI PRIMARY SCHOOL SINGAPORE 689189,689189,18434.245239621,41718.5305804759,1.39356050497104,103.747362720939,11   CHOA CHU KANG STREET 54
MOE KINDERGARTEN @ KRANJI,11,CHOA CHU KANG STREET 54,MOE KINDERGARTEN @ KRANJI,11 CHOA CHU KANG STREET 54 MOE KINDERGARTEN @ KRANJI SINGAPORE 689189,689189,18375.155506717,41732.8902870435,1.39369034929329,103.746831748711,11   CHOA CHU KANG STREET 54
NASCANS @ KRANJI,11,CHOA CHU KANG STREET 54,NASCANS @ KRANJI,11 CHOA CHU KANG STREET 54 NASCANS @ KRANJI SINGAPORE 689189,689189,18439.7663317276,41787.5800236911,1.39418496446376,103.747412309639,11   CHOA CHU KANG STREET 54
KRANJI SECONDARY SCHOOL,61,CHOA CHU KANG STREET 51,KRANJI SECONDARY SCHOOL,61 CHOA CHU KANG STREET 51 KRANJI SECONDARY SCHOOL SINGAPORE 689333,689333,17747.3609606959,41330.5036858637,1.39005109871311,103.741190664845,61   CHOA CHU KANG STREET 51
KUO CHUAN PRESBYTERIAN PRIMARY SCHOOL,8,BISHAN STREET 13,KUO CHUAN PRESBYTERIAN PRIMARY SCHOOL,8 BISHAN STREET 13 KUO CHUAN PRESBYTERIAN PRIMARY SCHOOL SINGAPORE 579793,579793,30414.9291181238,36835.1167885177,1.34939813669536,103.855018233311,8    BISHAN STREET 13
KUO CHUAN PRESBYTERIAN PRIMARY SCHOOL (U/C),8,BISHAN STREET 13,KUO CHUAN PRESBYTERIAN PRIMARY SCHOOL (U/C),8 BISHAN STREET 13 KUO CHUAN PRESBYTERIAN PRIMARY SCHOOL (U/C) SINGAPORE 579793,579793,30335.0289356941,36825.3860857729,1.34931014201944,103.854300279284,8    BISHAN STREET 13
YMCA STUDENT CARE CENTRE @ KUO CHUAN,8,BISHAN STREET 13,YMCA STUDENT CARE CENTRE @ KUO CHUAN,8 BISHAN STREET 13 YMCA STUDENT CARE CENTRE @ KUO CHUAN SINGAPORE 579793,579793,30351.430913927,36803.7610037327,1.34911457119752,103.854447659659,8    BISHAN STREET 13
KUO CHUAN PRESBYTERIAN SECONDARY SCHOOL,10,BISHAN STREET 13,KUO CHUAN PRESBYTERIAN SECONDARY SCHOOL,10 BISHAN STREET 13 KUO CHUAN PRESBYTERIAN SECONDARY SCHOOL SINGAPORE 579795,579795,30411.0903508216,36920.6091322787,1.35017129930314,103.854983746416,10   BISHAN STREET 13
LAKESIDE PRIMARY SCHOOL,161,CORPORATION WALK,LAKESIDE PRIMARY SCHOOL,161 CORPORATION WALK LAKESIDE PRIMARY SCHOOL SINGAPORE 618310,618310,15176.2291954523,35597.6143301465,1.33820397704287,103.718089546664,161  Corporation Walk
WHEE!CANOPUS STUDENT CARE @ LAKESIDE PRIMARY SCHOOL,161,CORPORATION WALK,WHEE!CANOPUS STUDENT CARE @ LAKESIDE PRIMARY SCHOOL,161 CORPORATION WALK WHEE!CANOPUS STUDENT CARE @ LAKESIDE PRIMARY SCHOOL SINGAPORE 618310,618310,15177.0483984314,35616.6021022275,1.33837569571569,103.718096899655,161  Corporation Walk
LIANHUA PRIMARY SCHOOL,2,BUKIT BATOK STREET 52,LIANHUA PRIMARY SCHOOL,2 BUKIT BATOK STREET 52 LIANHUA PRIMARY SCHOOL SINGAPORE 659243,659243,19191.1979939695,37370.8497486636,1.35424191127295,103.754165828711,2    BUKIT BATOK STREET 52
PRO-TEACH SCHOOLCARE (LIANHUA) PTE LTD,2,BUKIT BATOK STREET 52,PRO-TEACH SCHOOLCARE (LIANHUA) PTE LTD,2 BUKIT BATOK STREET 52 PRO-TEACH SCHOOLCARE (LIANHUA) PTE LTD SINGAPORE 659243,659243,19187.230133716,37362.1183433998,1.35416294645557,103.754130177522,2    BUKIT BATOK STREET 52
LOYANG VIEW SECONDARY SCHOOL,12,PASIR RIS STREET 11,LOYANG VIEW SECONDARY SCHOOL,12 PASIR RIS STREET 11 LOYANG VIEW SECONDARY SCHOOL SINGAPORE 519073,519073,41758.1067258865,38735.8040275108,1.36658417167238,103.956944585725,12   PASIR RIS STREET 11
AFTER SCHOOL @ MAHA BODHI SCHOOL,10,UBI AVENUE 1,AFTER SCHOOL @ MAHA BODHI SCHOOL,10 UBI AVENUE 1 AFTER SCHOOL @ MAHA BODHI SCHOOL SINGAPORE 408931,408931,35566.4064952666,34533.273462953,1.32858023873554,103.901306904157,10   UBI AVENUE 1
MAHA BODHI SCHOOL,10,UBI AVENUE 1,MAHA BODHI SCHOOL,10 UBI AVENUE 1 MAHA BODHI SCHOOL SINGAPORE 408931,408931,35565.4979411988,34521.1796176471,1.32847086658384,103.901298737314,10   UBI AVENUE 1
MANJUSRI SECONDARY SCHOOL,20,UBI AVENUE 1,MANJUSRI SECONDARY SCHOOL,20 UBI AVENUE 1 MANJUSRI SECONDARY SCHOOL SINGAPORE 408940,408940,35612.3792342106,34410.6462380104,1.32747123084846,103.901719963831,20   UBI AVENUE 1
CATHOLIC KINDERGARTEN,25,MOUNT VERNON ROAD,CATHOLIC KINDERGARTEN,25 MOUNT VERNON ROAD CATHOLIC KINDERGARTEN SINGAPORE 368051,368051,32946.8943243129,35950.5614488646,1.34139822375509,103.87776938227,25   MOUNT VERNON ROAD
MARIS STELLA HIGH SCHOOL,25,MOUNT VERNON ROAD,MARIS STELLA HIGH SCHOOL,25 MOUNT VERNON ROAD MARIS STELLA HIGH SCHOOL SINGAPORE 368051,368051,32956.1427672738,35950.1756834127,1.34139473351039,103.877852484979,25   MOUNT VERNON ROAD
THE LEARNING CAMPUS @ MARIS STELLA,25,MOUNT VERNON ROAD,THE LEARNING CAMPUS @ MARIS STELLA,25 MOUNT VERNON ROAD THE LEARNING CAMPUS @ MARIS STELLA SINGAPORE 368051,368051,32956.3052458102,35960.4504834339,1.34148765509926,103.877853946625,25   MOUNT VERNON ROAD
MARSILING PRIMARY SCHOOL,31,WOODLANDS CENTRE ROAD,MARSILING PRIMARY SCHOOL,31 WOODLANDS CENTRE ROAD MARSILING PRIMARY SCHOOL SINGAPORE 738927,738927,21359.011448958,46172.2397052329,1.43383904037059,103.773643013846,31   WOODLANDS CENTRE ROAD
NASCANS @ MARSILING,31,WOODLANDS CENTRE ROAD,NASCANS @ MARSILING,31 WOODLANDS CENTRE ROAD NASCANS @ MARSILING SINGAPORE 738927,738927,21358.3506686054,46182.1604909152,1.43392876015922,103.773637073788,31   WOODLANDS CENTRE ROAD
MARSILING SECONDARY SCHOOL,12,MARSILING ROAD,MARSILING SECONDARY SCHOOL,12 MARSILING ROAD MARSILING SECONDARY SCHOOL SINGAPORE 739110,739110,21622.2165990025,46482.4188591223,1.43664424769955,103.776008090454,12   MARSILING ROAD
GOOD SHEPHERD STUDENT CARE,20,MARYMOUNT ROAD,GOOD SHEPHERD STUDENT CARE,20 MARYMOUNT ROAD GOOD SHEPHERD STUDENT CARE SINGAPORE 297754,297754,28722.6185440896,35844.3858416472,1.34043840661368,103.839811736775,20   Marymount Road
MARYMOUNT CONVENT SCHOOL,20,MARYMOUNT ROAD,MARYMOUNT CONVENT SCHOOL,20 MARYMOUNT ROAD MARYMOUNT CONVENT SCHOOL SINGAPORE 297754,297754,28745.9144793656,35836.4646800403,1.34036676987375,103.840021064426,20   Marymount Road
6 ANG MO KIO AVENUE 2 SINGAPORE 569948,6,ANG MO KIO AVENUE 2,NIL,6 ANG MO KIO AVENUE 2 SINGAPORE 569948,569948,28276.7353066411,39792.7725521773,1.37614621670476,103.835805246743,6    Ang Mo Kio Avenue 2
MAYFLOWER SECONDARY SCHOOL,2,ANG MO KIO STREET 21,MAYFLOWER SECONDARY SCHOOL,2 ANG MO KIO STREET 21 MAYFLOWER SECONDARY SCHOOL SINGAPORE 569384,569384,28227.2664945051,38922.1548925955,1.36827266209722,103.835360726863,2    ANG MO KIO STREET 21
GRACELAND STUDENT CARE CENTRE (MEE TOH),21,EDGEDALE PLAINS,GRACELAND STUDENT CARE CENTRE (MEE TOH),21 EDGEDALE PLAINS GRACELAND STUDENT CARE CENTRE (MEE TOH) SINGAPORE 828867,828867,36374.7735061357,41861.4694083072,1.39485356081865,103.90857257736,21   EDGEDALE PLAINS
MEE TOH SCHOOL,21,EDGEDALE PLAINS,MEE TOH SCHOOL,21 EDGEDALE PLAINS MEE TOH SCHOOL SINGAPORE 828867,828867,36376.6569616906,41835.4725095034,1.3946184538592,103.908589494228,21   EDGEDALE PLAINS
LIFE STUDENT CARE - HAPPY MERIDIANS,20,PASIR RIS STREET 71,LIFE STUDENT CARE - HAPPY MERIDIANS,20 PASIR RIS STREET 71 LIFE STUDENT CARE - HAPPY MERIDIANS SINGAPORE 518798,518798,39310.6903498704,39722.3064462524,1.37550677054835,103.934953276155,20   PASIR RIS ST 71
MERIDIAN PRIMARY SCHOOL,20,PASIR RIS STREET 71,MERIDIAN PRIMARY SCHOOL,20 PASIR RIS STREET 71 MERIDIAN PRIMARY SCHOOL SINGAPORE 518798,518798,39303.5458344575,39724.6885971073,1.37552831658484,103.934889078518,20   PASIR RIS ST 71
MOE KINDERGARTEN @ MERIDIAN,20,PASIR RIS STREET 71,MOE KINDERGARTEN @ MERIDIAN,20 PASIR RIS STREET 71 MOE KINDERGARTEN @ MERIDIAN SINGAPORE 518798,518798,39302.3809105679,39729.4261116516,1.37557116135293,103.93487861266,20   PASIR RIS ST 71
MERIDIAN SECONDARY SCHOOL,31,PASIR RIS STREET 51,MERIDIAN SECONDARY SCHOOL,31 PASIR RIS STREET 51 MERIDIAN SECONDARY SCHOOL SINGAPORE 518901,518901,40870.9016361358,38809.035507232,1.3672468492013,103.948972483629,31   PASIR RIS STREET 51
COMMIT LEARNING SCHOOHHOUSE @ METHODIST GIRLS' SCHOOL,11,BLACKMORE DRIVE,COMMIT LEARNING SCHOOHHOUSE @ METHODIST GIRLS' SCHOOL,11 BLACKMORE DRIVE COMMIT LEARNING SCHOOHHOUSE @ METHODIST GIRLS' SCHOOL SINGAPORE 599986,599986,22442.5909795491,34984.5810560323,1.33266213599636,103.783382114018,11   Blackmore Drive
COVENANT COMMUNITY METHODIST CHURCH,11,BLACKMORE DRIVE,COVENANT COMMUNITY METHODIST CHURCH,11 BLACKMORE DRIVE COVENANT COMMUNITY METHODIST CHURCH SINGAPORE 599986,599986,22395.9094854975,35014.1997914985,1.33292998864414,103.782962649043,11   Blackmore Drive
METHODIST GIRLS' SCHOOL,11,BLACKMORE DRIVE,METHODIST GIRLS' SCHOOL,11 BLACKMORE DRIVE METHODIST GIRLS' SCHOOL SINGAPORE 599986,599986,22443.8042111406,35016.191455096,1.33294800935714,103.783393009829,11   Blackmore Drive
COMMIT LEARNING SCHOOHHOUSE @ METHODIST GIRLS' SCHOOL,11,BLACKMORE DRIVE,COMMIT LEARNING SCHOOHHOUSE @ METHODIST GIRLS' SCHOOL,11 BLACKMORE DRIVE COMMIT LEARNING SCHOOHHOUSE @ METHODIST GIRLS' SCHOOL SINGAPORE 599986,599986,22442.5909795491,34984.5810560323,1.33266213599636,103.783382114018,11   BLACKMORE DRIVE
COVENANT COMMUNITY METHODIST CHURCH,11,BLACKMORE DRIVE,COVENANT COMMUNITY METHODIST CHURCH,11 BLACKMORE DRIVE COVENANT COMMUNITY METHODIST CHURCH SINGAPORE 599986,599986,22395.9094854975,35014.1997914985,1.33292998864414,103.782962649043,11   BLACKMORE DRIVE
METHODIST GIRLS' SCHOOL,11,BLACKMORE DRIVE,METHODIST GIRLS' SCHOOL,11 BLACKMORE DRIVE METHODIST GIRLS' SCHOOL SINGAPORE 599986,599986,22443.8042111406,35016.191455096,1.33294800935714,103.783393009829,11   BLACKMORE DRIVE
MILLENNIA INSTITUTE,60,BUKIT BATOK WEST AVENUE 8,MILLENNIA INSTITUTE,60 BUKIT BATOK WEST AVENUE 8 MILLENNIA INSTITUTE SINGAPORE 658965,658965,17792.0317525892,36937.1663549989,1.35031939200985,103.741593577684,60   Bukit Batok West Avenue 8
LEARNING STUDIO EDUCARE BY ZENITANT (MONTFORT JUNIOR SCHOOL),52,HOUGANG AVENUE 8,LEARNING STUDIO EDUCARE BY ZENITANT (MONTFORT JUNIOR SCHOOL),52 HOUGANG AVENUE 8 LEARNING STUDIO EDUCARE BY ZENITANT (MONTFORT JUNIOR SCHOOL) SINGAPORE 538786,538786,34279.1743147392,39514.0026060622,1.37362445234082,103.889741457901,52   HOUGANG AVENUE 8
MONTFORT JUNIOR SCHOOL,52,HOUGANG AVENUE 8,MONTFORT JUNIOR SCHOOL,52 HOUGANG AVENUE 8 MONTFORT JUNIOR SCHOOL SINGAPORE 538786,538786,34230.9110763939,39536.1151842475,1.37382444075979,103.889307782925,52   HOUGANG AVENUE 8
MONTFORT SECONDARY SCHOOL,50,HOUGANG AVENUE 8,MONTFORT SECONDARY SCHOOL,50 HOUGANG AVENUE 8 MONTFORT SECONDARY SCHOOL SINGAPORE 538785,538785,34188.6869969647,39551.2492366415,1.37396131656912,103.888928372577,50   HOUGANG AVENUE 8
NAN CHIAU HIGH SCHOOL,20,ANCHORVALE LINK,NAN CHIAU HIGH SCHOOL,20 ANCHORVALE LINK NAN CHIAU HIGH SCHOOL SINGAPORE 545079,545079,34308.3992032008,41191.5774543677,1.38879582498399,103.890004423764,20   ANCHORVALE LINK
NAN CHIAU PRIMARY SCHOOL,50,ANCHORVALE LINK,NAN CHIAU PRIMARY SCHOOL,50 ANCHORVALE LINK NAN CHIAU PRIMARY SCHOOL SINGAPORE 545080,545080,34439.3196740765,41569.2687405795,1.39221149906592,103.891180928186,50   ANCHORVALE LINK
NASCANS NAN CHIAU SCC,50,ANCHORVALE LINK,NASCANS NAN CHIAU SCC,50 ANCHORVALE LINK NASCANS NAN CHIAU SCC SINGAPORE 545080,545080,34410.8368960386,41553.0336902775,1.39206468147602,103.890924984558,50   ANCHORVALE LINK
NAN HUA HIGH SCHOOL,41,CLEMENTI AVENUE 1,NAN HUA HIGH SCHOOL,41 CLEMENTI AVENUE 1 NAN HUA HIGH SCHOOL SINGAPORE 129956,129956,20793.1335141817,32268.1425985936,1.30809529518605,103.768561446725,41   CLEMENTI AVENUE 1
NAN HUA PRIMARY SCHOOL,30,JALAN LEMPENG,NAN HUA PRIMARY SCHOOL,30 JALAN LEMPENG NAN HUA PRIMARY SCHOOL SINGAPORE 128806,128806,19962.2298404071,33496.2443055101,1.31920159956387,103.761095065761,30   Jalan Lempeng
NASCANS - NAN HUA STUDENT CARE CENTRE,30,JALAN LEMPENG,NASCANS - NAN HUA STUDENT CARE CENTRE,30 JALAN LEMPENG NASCANS - NAN HUA STUDENT CARE CENTRE SINGAPORE 128806,128806,19971.628594175,33495.6782336775,1.31919648268012,103.761179518517,30   Jalan Lempeng
NANYANG GIRLS' HIGH SCHOOL,2,LINDEN DRIVE,NANYANG GIRLS' HIGH SCHOOL,2 LINDEN DRIVE NANYANG GIRLS' HIGH SCHOOL SINGAPORE 288683,288683,24561.4160661073,34754.6755309552,1.33058326666479,103.802420979943,2    LINDEN DRIVE
NANYANG JUNIOR COLLEGE,128,SERANGOON AVENUE 3,NANYANG JUNIOR COLLEGE,128 SERANGOON AVENUE 3 NANYANG JUNIOR COLLEGE SINGAPORE 556111,556111,31692.5780312549,36932.9914012011,1.35028314949236,103.866498721912,128  SERANGOON AVENUE 3
LEARNING BLISS @ NANYANG PRIMARY,52,KING'S ROAD,LEARNING BLISS @ NANYANG PRIMARY,52 KING'S ROAD LEARNING BLISS @ NANYANG PRIMARY SINGAPORE 268097,268097,25146.8860732606,33702.8446938451,1.32107094241153,103.807681852799,52   KING'S ROAD
NANYANG PRIMARY SCHOOL,52,KING'S ROAD,NANYANG PRIMARY SCHOOL,52 KING'S ROAD NANYANG PRIMARY SCHOOL SINGAPORE 268097,268097,25154.4872114761,33678.1373927556,1.32084749904532,103.807750155296,52   KING'S ROAD
NATIONAL JUNIOR COLLEGE,37,HILLCREST ROAD,NATIONAL JUNIOR COLLEGE,37 HILLCREST ROAD NATIONAL JUNIOR COLLEGE SINGAPORE 288913,288913,24749.4869699022,34722.5671630222,1.33029291072172,103.804110905425,37   HILLCREST ROAD
MOE KINDERGARTEN @ NAVAL BASE,7,YISHUN AVENUE 4,MOE KINDERGARTEN @ NAVAL BASE,7 YISHUN AVENUE 4 MOE KINDERGARTEN @ NAVAL BASE SINGAPORE 769028,769028,28643.4553870633,44188.7616005596,1.41590195697649,103.839100590207,7    YISHUN AVE 4
NAVAL BASE PRIMARY SCHOOL,7,YISHUN AVENUE 4,NAVAL BASE PRIMARY SCHOOL,7 YISHUN AVENUE 4 NAVAL BASE PRIMARY SCHOOL SINGAPORE 769028,769028,28609.3447617413,44233.5083953608,1.41630663159387,103.838794077233,7    YISHUN AVE 4
THE ENABLERS II PTE LTD (STUDENT CARE @ NAVAL BASE PRIMARY),7,YISHUN AVENUE 4,THE ENABLERS II PTE LTD (STUDENT CARE @ NAVAL BASE PRIMARY),7 YISHUN AVENUE 4 THE ENABLERS II PTE LTD (STUDENT CARE @ NAVAL BASE PRIMARY) SINGAPORE 769028,769028,28616.4889442064,44231.9201131817,1.41629226758972,103.838858273963,7    YISHUN AVE 4
NAVAL BASE SECONDARY SCHOOL,901,YISHUN RING ROAD,NAVAL BASE SECONDARY SCHOOL,901 YISHUN RING ROAD NAVAL BASE SECONDARY SCHOOL SINGAPORE 768689,768689,27747.583393123,44573.2144819219,1.41937881620441,103.831050390247,901  YISHUN RING ROAD
NEW TOWN CAREHUT,300,TANGLIN HALT ROAD,NEW TOWN CAREHUT,300 TANGLIN HALT ROAD NEW TOWN CAREHUT SINGAPORE 148812,148812,24288.0252855225,31352.0824043378,1.29981138884057,103.799964819895,300  Tanglin Halt Road
NEW TOWN PRIMARY SCHOOL,300,TANGLIN HALT ROAD,NEW TOWN PRIMARY SCHOOL,300 TANGLIN HALT ROAD NEW TOWN PRIMARY SCHOOL SINGAPORE 148812,148812,24303.310102744,31333.338985689,1.29964188181021,103.80010216304,300  Tanglin Halt Road
NEW TOWN SECONDARY SCHOOL,1020,DOVER ROAD,NEW TOWN SECONDARY SCHOOL,1020 DOVER ROAD NEW TOWN SECONDARY SCHOOL SINGAPORE 139657,139657,21308.1010938296,32453.9625329748,1.30977590011357,103.77318863421,1020 DOVER ROAD
NASCANS NGEE ANN SCC,344,MARINE TERRACE,NASCANS NGEE ANN SCC,344 MARINE TERRACE NASCANS NGEE ANN SCC SINGAPORE 449149,449149,37376.4109761156,31984.7973440588,1.30553224180437,103.917570005713,344  MARINE TERRACE
NGEE ANN PRIMARY SCHOOL,344,MARINE TERRACE,NGEE ANN PRIMARY SCHOOL,344 MARINE TERRACE NGEE ANN PRIMARY SCHOOL SINGAPORE 449149,449149,37364.5041869488,31984.0027186833,1.30552505910497,103.917463017497,344  MARINE TERRACE
NGEE ANN SECONDARY SCHOOL,1,TAMPINES STREET 32,NGEE ANN SECONDARY SCHOOL,1 TAMPINES STREET 32 NGEE ANN SECONDARY SCHOOL SINGAPORE 529283,529283,41736.2154369308,37396.8577860836,1.35447525755806,103.956747262496,1    TAMPINES STREET 32
NORTH SPRING PRIMARY SCHOOL,1,RIVERVALE STREET,NORTH SPRING PRIMARY SCHOOL,1 RIVERVALE STREET NORTH SPRING PRIMARY SCHOOL SINGAPORE 545088,545088,35777.2005732814,40999.8398870248,1.38706146494859,103.903202683028,1    RIVERVALE STREET
RAFFLES STUDENT CARE CENTRE (NORTH SPRING) LLP,1,RIVERVALE STREET,RAFFLES STUDENT CARE CENTRE (NORTH SPRING) LLP,1 RIVERVALE STREET RAFFLES STUDENT CARE CENTRE (NORTH SPRING) LLP SINGAPORE 545088,545088,35764.5011866931,41001.4272914324,1.38707582424175,103.903088569789,1    RIVERVALE STREET
MOE KINDERGARTEN @ NORTH VIEW,210,YISHUN AVENUE 6,MOE KINDERGARTEN @ NORTH VIEW,210 YISHUN AVENUE 6 MOE KINDERGARTEN @ NORTH VIEW SINGAPORE 768960,768960,29675.9396856809,45465.8669915069,1.42745159462566,103.848378442893,210  YISHUN AVENUE 6
NORTH VIEW PRIMARY SCHOOL,210,YISHUN AVENUE 6,NORTH VIEW PRIMARY SCHOOL,210 YISHUN AVENUE 6 NORTH VIEW PRIMARY SCHOOL SINGAPORE 768960,768960,29655.0564113865,45473.7925722394,1.42752327193727,103.848190787869,210  YISHUN AVENUE 6
TRI-LOVE STUDENT CARE @ NORTH VIEW PRIMARY SCHOOL,210,YISHUN AVENUE 6,TRI-LOVE STUDENT CARE @ NORTH VIEW PRIMARY SCHOOL,210 YISHUN AVENUE 6 TRI-LOVE STUDENT CARE @ NORTH VIEW PRIMARY SCHOOL SINGAPORE 768960,768960,29662.2004727796,45473.7919063438,1.42752326549687,103.848254983853,210  YISHUN AVENUE 6
MOE KINDERGARTEN @ NORTH VISTA,20,COMPASSVALE LINK,MOE KINDERGARTEN @ NORTH VISTA,20 COMPASSVALE LINK MOE KINDERGARTEN @ NORTH VISTA SINGAPORE 544974,544974,35005.0914893029,40501.0361976493,1.38255066171151,103.89626457548,20   Compassvale Link
NASCANS NORTH VISTA STUDENT CARE CENTRE,20,COMPASSVALE LINK,NASCANS NORTH VISTA STUDENT CARE CENTRE,20 COMPASSVALE LINK NASCANS NORTH VISTA STUDENT CARE CENTRE SINGAPORE 544974,544974,34959.4167083893,40538.9324094281,1.38289339218536,103.895854162476,20   Compassvale Link
NORTH VISTA PRIMARY SCHOOL,20,COMPASSVALE LINK,NORTH VISTA PRIMARY SCHOOL,20 COMPASSVALE LINK NORTH VISTA PRIMARY SCHOOL SINGAPORE 544974,544974,34971.4042828046,40531.0861005448,1.38282243016299,103.895961877928,20   Compassvale Link
NORTH VISTA SECONDARY SCHOOL,11,RIVERVALE LINK,NORTH VISTA SECONDARY SCHOOL,11 RIVERVALE LINK NORTH VISTA SECONDARY SCHOOL SINGAPORE 545081,545081,35330.5266452944,40344.0974890441,1.381131285358,103.899188813886,11   RIVERVALE LINK
NORTHBROOKS SECONDARY SCHOOL,585,YISHUN RING ROAD,NORTHBROOKS SECONDARY SCHOOL,585 YISHUN RING ROAD NORTHBROOKS SECONDARY SCHOOL SINGAPORE 768692,768692,29316.3687516721,44731.7859666422,1.42081285020652,103.845147332528,585  YISHUN RING ROAD
NASCANS NORTHLAND STUDENT CARE CENTRE,15,YISHUN AVENUE 4,NASCANS NORTHLAND STUDENT CARE CENTRE,15 YISHUN AVENUE 4 NASCANS NORTHLAND STUDENT CARE CENTRE SINGAPORE 769026,769026,28831.785990159,44786.0974140298,1.42130404159807,103.840792923345,15   YISHUN AVENUE 4
NORTHLAND PRIMARY SCHOOL,15,YISHUN AVENUE 4,NORTHLAND PRIMARY SCHOOL,15 YISHUN AVENUE 4 NORTHLAND PRIMARY SCHOOL SINGAPORE 769026,769026,28846.8654693784,44749.1496797893,1.42096989918951,103.840928424929,15   YISHUN AVENUE 4
NORTHLAND SECONDARY SCHOOL,3,YISHUN STREET 22,NORTHLAND SECONDARY SCHOOL,3 YISHUN STREET 22 NORTHLAND SECONDARY SCHOOL SINGAPORE 768578,768578,28755.1906477995,46389.1900489908,1.43580183362637,103.840104687784,3    YISHUN STREET 22
NORTHLIGHT SCHOOL,151,TOWNER ROAD,NORTHLIGHT SCHOOL,151 TOWNER ROAD NORTHLIGHT SCHOOL SINGAPORE 327830,327830,30497.4603147702,33484.9283776525,1.3191002158167,103.85575955353,151  Towner Road
MOE KINDERGARTEN @ NORTHOAKS,61,SEMBAWANG DRIVE,MOE KINDERGARTEN @ NORTHOAKS,61 SEMBAWANG DRIVE MOE KINDERGARTEN @ NORTHOAKS SINGAPORE 757622,757622,25858.5709089329,48769.5280026253,1.45732867302094,103.814075611175,61   Sembawang Drive
NORTHOAKS PRIMARY SCHOOL,61,SEMBAWANG DRIVE,NORTHOAKS PRIMARY SCHOOL,61 SEMBAWANG DRIVE NORTHOAKS PRIMARY SCHOOL SINGAPORE 757622,757622,25872.0767556792,48689.8195981402,1.45660782030102,103.814196981329,61   Sembawang Drive
PCF SPARKLETOTS KCARE CENTRE @ NORTHOAKS,61,SEMBAWANG DRIVE,PCF SPARKLETOTS KCARE CENTRE @ NORTHOAKS,61 SEMBAWANG DRIVE PCF SPARKLETOTS KCARE CENTRE @ NORTHOAKS SINGAPORE 757622,757622,25812.3134693326,48703.4928571042,1.45673147161879,103.813659945178,61   Sembawang Drive
THOMSON HILLS ESTATE,61,SEMBAWANG HILLS DRIVE,THOMSON HILLS ESTATE,61 SEMBAWANG HILLS DRIVE THOMSON HILLS ESTATE SINGAPORE 575923,575923,27752.3088307409,39750.1137034297,1.37576042556154,103.831092893851,61   Sembawang Drive
WHEE!CANOPUS STUDENT CARE @ NORTHOAKS PRIMARY SCHOOL,61,SEMBAWANG DRIVE,WHEE!CANOPUS STUDENT CARE @ NORTHOAKS PRIMARY SCHOOL,61 SEMBAWANG DRIVE WHEE!CANOPUS STUDENT CARE @ NORTHOAKS PRIMARY SCHOOL SINGAPORE 757622,757622,25815.4884597529,48691.586582493,1.45662379586093,103.813688476692,61   Sembawang Drive
MOE KINDERGARTEN @ NORTHSHORE,30,NORTHSHORE DRIVE,MOE KINDERGARTEN @ NORTHSHORE,30 NORTHSHORE DRIVE MOE KINDERGARTEN @ NORTHSHORE SINGAPORE 828671,828671,35993.4941017935,44467.6734127142,1.41842322079348,103.905147201163,30   Northshore Drive
NORTHSHORE PRIMARY SCHOOL,30,NORTHSHORE DRIVE,NORTHSHORE PRIMARY SCHOOL,30 NORTHSHORE DRIVE NORTHSHORE PRIMARY SCHOOL SINGAPORE 828671,828671,35912.2240812248,44436.1362924408,1.41813803336667,103.904416909742,30   Northshore Drive
YMCA STUDENT CARE CENTRE @ NORTHSHORE,30,NORTHSHORE DRIVE,YMCA STUDENT CARE CENTRE @ NORTHSHORE,30 NORTHSHORE DRIVE YMCA STUDENT CARE CENTRE @ NORTHSHORE SINGAPORE 828671,828671,36000.8250377178,44463.5382613149,1.41838582194822,103.905213074925,30   Northshore Drive
NUS HIGH SCHOOL OF MATHEMATICS AND SCIENCE,20,CLEMENTI AVENUE 1,NUS HIGH SCHOOL OF MATHEMATICS AND SCIENCE,20 CLEMENTI AVENUE 1 NUS HIGH SCHOOL OF MATHEMATICS AND SCIENCE SINGAPORE 129957,129957,20882.5747099025,32098.8705946617,1.30656448055686,103.769365156929,20   Clementi Avenue 1
MOE KINDERGARTEN @ OASIS,71,EDGEFIELD PLAINS,MOE KINDERGARTEN @ OASIS,71 EDGEFIELD PLAINS MOE KINDERGARTEN @ OASIS SINGAPORE 828716,828716,36667.1550856009,42991.3663999084,1.40507184758584,103.911200193835,71   Edgefield Plains
OASIS PRIMARY SCHOOL,71,EDGEFIELD PLAINS,OASIS PRIMARY SCHOOL,71 EDGEFIELD PLAINS OASIS PRIMARY SCHOOL SINGAPORE 828716,828716,36658.2990973163,42941.8599344008,1.40462413200793,103.911120600638,71   Edgefield Plains
YMCA STUDENT CARE CENTRE @ OASIS PRIMARY SCHOOL,71,EDGEFIELD PLAINS,YMCA STUDENT CARE CENTRE @ OASIS PRIMARY SCHOOL,71 EDGEFIELD PLAINS YMCA STUDENT CARE CENTRE @ OASIS PRIMARY SCHOOL SINGAPORE 828716,828716,36633.3703859271,42923.6562544368,1.4044595121197,103.910896590133,71   Edgefield Plains
KNOWLEDGE PARK EDUCARE PTE LTE (OPERA ESTATE PRIMARY SCHOOL),48,FIDELIO STREET,KNOWLEDGE PARK EDUCARE PTE LTE (OPERA ESTATE PRIMARY SCHOOL),48 FIDELIO STREET KNOWLEDGE PARK EDUCARE PTE LTE (OPERA ESTATE PRIMARY SCHOOL) SINGAPORE 458436,458436,38064.4274895079,33581.1396132912,1.31996876377748,103.923752668632,48   FIDELIO STREET
OPERA ESTATE PRIMARY SCHOOL,48,FIDELIO STREET,OPERA ESTATE PRIMARY SCHOOL,48 FIDELIO STREET OPERA ESTATE PRIMARY SCHOOL SINGAPORE 458436,458436,38068.3909911709,33509.3080883529,1.31931914436255,103.923788259248,48   FIDELIO STREET
ORCHID PARK SECONDARY SCHOOL,10,YISHUN STREET 81,ORCHID PARK SECONDARY SCHOOL,10 YISHUN STREET 81 ORCHID PARK SECONDARY SCHOOL SINGAPORE 768454,768454,28505.3110986585,44124.4476742018,1.41532032779634,103.837859241343,10   YISHUN STREET 81
OUTRAM SECONDARY SCHOOL,3,YORK HILL,OUTRAM SECONDARY SCHOOL,3 YORK HILL OUTRAM SECONDARY SCHOOL SINGAPORE 168622,168622,28423.8747252515,29881.6544933487,1.28651357464735,103.837127264403,3    YORK HILL
PALM VIEW PRIMARY SCHOOL,150,COMPASSVALE BOW,PALM VIEW PRIMARY SCHOOL,150 COMPASSVALE BOW PALM VIEW PRIMARY SCHOOL SINGAPORE 544822,544822,34458.6783197625,40635.7654705234,1.38376923022123,103.891354675017,150  Compassvale Bow
PRO-TEACH SCHOOLCARE (PALM VIEW),150,COMPASSVALE BOW,PRO-TEACH SCHOOLCARE (PALM VIEW),150 COMPASSVALE BOW PRO-TEACH SCHOOLCARE (PALM VIEW) SINGAPORE 544822,544822,34443.1463947222,40643.6741011851,1.3838407564383,103.891215110737,150  Compassvale Bow
LIFE STUDENT CARE - PARK VIEW PRIMARY,60,PASIR RIS DRIVE 1,LIFE STUDENT CARE - PARK VIEW PRIMARY,60 PASIR RIS DRIVE 1 LIFE STUDENT CARE - PARK VIEW PRIMARY SINGAPORE 519524,519524,39783.5293153096,39999.8822296057,1.37801687647812,103.9392021807,60   PASIR RIS DRIVE 1
PARK VIEW PRIMARY SCHOOL,60,PASIR RIS DRIVE 1,PARK VIEW PRIMARY SCHOOL,60 PASIR RIS DRIVE 1 PARK VIEW PRIMARY SCHOOL SINGAPORE 519524,519524,39821.3162899343,39929.5384668726,1.37738069854249,103.939541695654,60   PASIR RIS DRIVE 1
PASIR RIS CREST SECONDARY SCHOOL,11,PASIR RIS STREET 41,PASIR RIS CREST SECONDARY SCHOOL,11 PASIR RIS STREET 41 PASIR RIS CREST SECONDARY SCHOOL SINGAPORE 518934,518934,42067.8542885976,39427.6259528883,1.37284060102246,103.959728202919,11   PASIR RIS STREET 41
COMMIT LEARNING SCHOOLHOUSE @ PASIR RIS PRIMARY,5,PASIR RIS STREET 21,COMMIT LEARNING SCHOOLHOUSE @ PASIR RIS PRIMARY,5 PASIR RIS STREET 21 COMMIT LEARNING SCHOOLHOUSE @ PASIR RIS PRIMARY SINGAPORE 518968,518968,42423.3658017013,39384.6009523422,1.37245132722087,103.962922699031,5    PASIR RIS STREET 21
PASIR RIS PRIMARY SCHOOL,5,PASIR RIS STREET 21,PASIR RIS PRIMARY SCHOOL,5 PASIR RIS STREET 21 PASIR RIS PRIMARY SCHOOL SINGAPORE 518968,518968,42410.5136828674,39380.9927665386,1.37241870245531,103.962807212116,5    PASIR RIS STREET 21
PASIR RIS SECONDARY SCHOOL,390,TAMPINES STREET 21,PASIR RIS SECONDARY SCHOOL,390 TAMPINES STREET 21 PASIR RIS SECONDARY SCHOOL SINGAPORE 529400,529400,40869.8736143373,37369.4000635836,1.35422732653396,103.948962626204,390  TAMPINES STREET 21
COMMIT LEARNING SCHOOLHOUSE @ PAYA LEBAR METHODIST GIRLS' SCHOOL,298,LORONG AH SOO,COMMIT LEARNING SCHOOLHOUSE @ PAYA LEBAR METHODIST GIRLS' SCHOOL,298 LORONG AH SOO COMMIT LEARNING SCHOOLHOUSE @ PAYA LEBAR METHODIST GIRLS' SCHOOL SINGAPORE 536741,536741,33734.5224694395,36929.8656870592,1.3502545600894,103.884846876112,298  LORONG AH SOO
PAYA LEBAR METHODIST GIRLS' SCHOOL (PRIMARY),298,LORONG AH SOO,PAYA LEBAR METHODIST GIRLS' SCHOOL (PRIMARY),298 LORONG AH SOO PAYA LEBAR METHODIST GIRLS' SCHOOL (PRIMARY) SINGAPORE 536741,536741,33748.3760953182,36843.4187818952,1.34947276268396,103.884971343143,298  LORONG AH SOO
PAYA LEBAR METHODIST GIRLS' SCHOOL (SECONDARY),296,LORONG AH SOO,PAYA LEBAR METHODIST GIRLS' SCHOOL (SECONDARY),296 LORONG AH SOO PAYA LEBAR METHODIST GIRLS' SCHOOL (SECONDARY) SINGAPORE 536742,536742,33764.9220583495,37008.7061571106,1.35096755912522,103.885120050588,296  LOR AH SOO
ACE @ WORK SCHOOLCARE PTE LTD (PEI CHUN PUBLIC SCHOOL),16,LORONG 7 TOA PAYOH,ACE @ WORK SCHOOLCARE PTE LTD (PEI CHUN PUBLIC SCHOOL),16 LORONG 7 TOA PAYOH ACE @ WORK SCHOOLCARE PTE LTD (PEI CHUN PUBLIC SCHOOL) SINGAPORE 319320,319320,30450.8965329072,35439.718033338,1.33677864390672,103.855341310212,16   LORONG 7 TOA PAYOH
PEI CHUN PUBLIC SCHOOL,16,LORONG 7 TOA PAYOH,PEI CHUN PUBLIC SCHOOL,16 LORONG 7 TOA PAYOH PEI CHUN PUBLIC SCHOOL SINGAPORE 319320,319320,30478.0803604238,35505.5040733535,1.33737358725951,103.855585578061,16   LORONG 7 TOA PAYOH
PEI CHUN SPORTS HALL,16,LORONG 7 TOA PAYOH,PEI CHUN SPORTS HALL,16 LORONG 7 TOA PAYOH PEI CHUN SPORTS HALL SINGAPORE 319320,319320,30426.904010254,35470.1329983845,1.3370537079783,103.855125725873,16   LORONG 7 TOA PAYOH
ACE @ WORK ENRICHMENT PTE LTD (PEI HWA PRESBYTERIAN PRIMARY),7,PEI WAH AVENUE,ACE @ WORK ENRICHMENT PTE LTD (PEI HWA PRESBYTERIAN PRIMARY),7 PEI WAH AVENUE ACE @ WORK ENRICHMENT PTE LTD (PEI HWA PRESBYTERIAN PRIMARY) SINGAPORE 597610,597610,21648.9750402756,35582.9065720346,1.33807302121151,103.776250903095,7    PEI WAH AVENUE
PEI HWA PRESBYTERIAN PRIMARY SCHOOL,7,PEI WAH AVENUE,PEI HWA PRESBYTERIAN PRIMARY SCHOOL,7 PEI WAH AVENUE PEI HWA PRESBYTERIAN PRIMARY SCHOOL SINGAPORE 597610,597610,21632.898745548,35581.0631004851,1.33805634613048,103.776106448614,7    PEI WAH AVENUE
PEI HWA SECONDARY SCHOOL,21,FERNVALE LINK,PEI HWA SECONDARY SCHOOL,21 FERNVALE LINK PEI HWA SECONDARY SCHOOL SINGAPORE 797702,797702,33023.8451944096,41366.172537256,1.39037504993234,103.878461745339,21   FERNVALE LINK
LEARNING LEAP PTE LTD (PEI TONG PRIMARY SCHOOL),15,CLEMENTI AVENUE 5,LEARNING LEAP PTE LTD (PEI TONG PRIMARY SCHOOL),15 CLEMENTI AVENUE 5 LEARNING LEAP PTE LTD (PEI TONG PRIMARY SCHOOL) SINGAPORE 129857,129857,20668.2404885115,33215.772784153,1.31666529308968,103.767438999533,15   CLEMENTI AVENUE 5
MOE KINDERGARTEN @ PEI TONG,15,CLEMENTI AVENUE 5,MOE KINDERGARTEN @ PEI TONG,15 CLEMENTI AVENUE 5 MOE KINDERGARTEN @ PEI TONG SINGAPORE 129857,129857,20695.3221918512,33200.6604944393,1.31652862942944,103.767682345847,15   CLEMENTI AVENUE 5
PEI TONG PRIMARY SCHOOL,15,CLEMENTI AVENUE 5,PEI TONG PRIMARY SCHOOL,15 CLEMENTI AVENUE 5 PEI TONG PRIMARY SCHOOL SINGAPORE 129857,129857,20686.1367668323,33164.0863881912,1.31619786415976,103.767599818844,15   CLEMENTI AVENUE 5
PEICAI SECONDARY SCHOOL,10,SERANGOON AVENUE 4,PEICAI SECONDARY SCHOOL,10 SERANGOON AVENUE 4 PEICAI SECONDARY SCHOOL SINGAPORE 556094,556094,32083.411887873,37953.9001634661,1.35951583222214,103.870010749055,10   SERANGOON AVENUE 4
PEIRCE SECONDARY SCHOOL,10,SIN MING WALK,PEIRCE SECONDARY SCHOOL,10 SIN MING WALK PEIRCE SECONDARY SCHOOL SINGAPORE 575566,575566,27654.7276661592,38743.7738600355,1.36665944653812,103.83021606804,10   SIN MING WALK
COMMIT LEARNING SCHOOLHOUSE @ PEIYING PRIMARY SCHOOL,651,YISHUN RING ROAD,COMMIT LEARNING SCHOOLHOUSE @ PEIYING PRIMARY SCHOOL,651 YISHUN RING ROAD COMMIT LEARNING SCHOOLHOUSE @ PEIYING PRIMARY SCHOOL SINGAPORE 768687,768687,27646.6270154091,44356.206750067,1.41741627551251,103.830143209875,651  YISHUN RING ROAD
PEIYING PRIMARY SCHOOL,651,YISHUN RING ROAD,PEIYING PRIMARY SCHOOL,651 YISHUN RING ROAD PEIYING PRIMARY SCHOOL SINGAPORE 768687,768687,27677.1059972411,44335.9849220216,1.41723339695904,103.830417090698,651  YISHUN RING ROAD
23 JURONG WEST STREET 81 SINGAPORE 649076,23,JURONG WEST STREET 81,NIL,23 JURONG WEST STREET 81 SINGAPORE 649076,649076,12607.0934523959,36773.4045769684,1.34883617453427,103.695003812477,23   JURONG WEST STREET 81
STAR CAMPUS PTE LTD (STUDENT CARE @ PIONEER PRI),23,JURONG WEST STREET 81,STAR CAMPUS PTE LTD (STUDENT CARE @ PIONEER PRI),23 JURONG WEST STREET 81 STAR CAMPUS PTE LTD (STUDENT CARE @ PIONEER PRI) SINGAPORE 649076,649076,12591.9652114538,36760.6617860906,1.34872092582384,103.694867882674,23   JURONG WEST STREET 81
NASCANS @ POI CHING,21,TAMPINES STREET 71,NASCANS @ POI CHING,21 TAMPINES STREET 71 NASCANS @ POI CHING SINGAPORE 529067,529067,39343.4048039075,37747.9287135638,1.35765121877679,103.935246486174,21   TAMPINES STREET 71
POI CHING SCHOOL,21,TAMPINES STREET 71,POI CHING SCHOOL,21 TAMPINES STREET 71 POI CHING SCHOOL SINGAPORE 529067,529067,39343.403805064,37747.9291978516,1.35765122315688,103.935246477199,21   TAMPINES STREET 71
TAMPINES MERIDIAN JUNIOR COLLEGE,21,PASIR RIS STREET 71,TAMPINES MERIDIAN JUNIOR COLLEGE,21 PASIR RIS STREET 71 TAMPINES MERIDIAN JUNIOR COLLEGE SINGAPORE 518799,518799,39537.4294200996,39813.7284696326,1.37633346909682,103.936990723441,21   TAMPINES STREET 71
ANG MO KIO PRESBYTERIAN CHURCH,5209,ANG MO KIO AVENUE 6,ANG MO KIO PRESBYTERIAN CHURCH,5209 ANG MO KIO AVENUE 6 ANG MO KIO PRESBYTERIAN CHURCH SINGAPORE 569845,569845,29008.7518431395,40412.8958896007,1.38175437421949,103.842382968794,5209 ANG MO KIO AVENUE 6
PRESBYTERIAN HIGH SCHOOL,5209,ANG MO KIO AVENUE 6,PRESBYTERIAN HIGH SCHOOL,5209 ANG MO KIO AVENUE 6 PRESBYTERIAN HIGH SCHOOL SINGAPORE 569845,569845,29094.0439036526,40441.3768212926,1.38201194250223,103.843149382823,5209 ANG MO KIO AVENUE 6
TRUE GRACE PRESBYTERIAN CHURCH,5209,ANG MO KIO AVENUE 6,TRUE GRACE PRESBYTERIAN CHURCH,5209 ANG MO KIO AVENUE 6 TRUE GRACE PRESBYTERIAN CHURCH SINGAPORE 569845,569845,29014.1863385439,40418.4600833151,1.38180469460692,103.842431801992,5209 ANG MO KIO AVENUE 6
BIG HEART STUDENT CARE (PRINCESS ELIZABETH PRIMARY SCHOOL),30,BUKIT BATOK WEST AVENUE 3,BIG HEART STUDENT CARE (PRINCESS ELIZABETH PRIMARY SCHOOL),30 BUKIT BATOK WEST AVENUE 3 BIG HEART STUDENT CARE (PRINCESS ELIZABETH PRIMARY SCHOOL) SINGAPORE 659163,659163,17694.7193374345,36812.396792436,1.34919098857585,103.740719208011,30   BUKIT BATOK WEST AVENUE 3
MOE KINDERGARTEN @ PRINCESS ELIZABETH,30,BUKIT BATOK WEST AVENUE 3,MOE KINDERGARTEN @ PRINCESS ELIZABETH,30 BUKIT BATOK WEST AVENUE 3 MOE KINDERGARTEN @ PRINCESS ELIZABETH SINGAPORE 659163,659163,17648.9102877453,36838.4058892354,1.34942618948433,103.740307576571,30   BUKIT BATOK WEST AVENUE 3
PRINCESS ELIZABETH PRIMARY SCHOOL,30,BUKIT BATOK WEST AVENUE 3,PRINCESS ELIZABETH PRIMARY SCHOOL,30 BUKIT BATOK WEST AVENUE 3 PRINCESS ELIZABETH PRIMARY SCHOOL SINGAPORE 659163,659163,17728.1546840398,36813.7803722396,1.349203512653,103.74101964471,30   BUKIT BATOK WEST AVENUE 3
KNOWLEDGE PARK EDUCARE PTE LTD (PUNGGOL COVE PRIMARY SCHOOL),52,SUMANG WALK,KNOWLEDGE PARK EDUCARE PTE LTD (PUNGGOL COVE PRIMARY SCHOOL),52 SUMANG WALK KNOWLEDGE PARK EDUCARE PTE LTD (PUNGGOL COVE PRIMARY SCHOOL) SINGAPORE 828674,828674,35298.7904222226,43711.4672181848,1.41158455562454,103.89890448429,52   Sumang Walk
MOE KINDERGARTEN @ PUNGGOL COVE,52,SUMANG WALK,MOE KINDERGARTEN @ PUNGGOL COVE,52 SUMANG WALK MOE KINDERGARTEN @ PUNGGOL COVE SINGAPORE 828674,828674,35325.8871990182,43754.8758048899,1.41197712005806,103.899147983053,52   Sumang Walk
PUNGGOL COVE PRIMARY SCHOOL,52,SUMANG WALK,PUNGGOL COVE PRIMARY SCHOOL,52 SUMANG WALK PUNGGOL COVE PRIMARY SCHOOL SINGAPORE 828674,828674,35287.5991076548,43713.0898242556,1.41159923273069,103.898803921164,52   Sumang Walk
LEARNING LEAP PTE LTD (PUNGGOL GREEN PRIMARY SCHOOL),98,PUNGGOL WALK,LEARNING LEAP PTE LTD (PUNGGOL GREEN PRIMARY SCHOOL),98 PUNGGOL WALK LEARNING LEAP PTE LTD (PUNGGOL GREEN PRIMARY SCHOOL) SINGAPORE 828772,828772,35286.5548319491,42621.3463525623,1.40172590450528,103.898794262307,98   Punggol Walk
MOE KINDERGARTEN @ PUNGGOL GREEN,98,PUNGGOL WALK,MOE KINDERGARTEN @ PUNGGOL GREEN,98 PUNGGOL WALK MOE KINDERGARTEN @ PUNGGOL GREEN SINGAPORE 828772,828772,35284.0661983276,42694.8800883684,1.40239091736157,103.898771918364,98   Punggol Walk
PCF SPARKLETOTS KCARE CENTRE @ PUNGGOL GREEN,98,PUNGGOL WALK,PCF SPARKLETOTS KCARE CENTRE @ PUNGGOL GREEN,98 PUNGGOL WALK PCF SPARKLETOTS KCARE CENTRE @ PUNGGOL GREEN SINGAPORE 828772,828772,35279.4110732358,42622.933847772,1.40174026303645,103.89873007019,98   Punggol Walk
PUNGGOL GREEN PRIMARY SCHOOL,98,PUNGGOL WALK,PUNGGOL GREEN PRIMARY SCHOOL,98 PUNGGOL WALK PUNGGOL GREEN PRIMARY SCHOOL SINGAPORE 828772,828772,35287.340952022,42637.5237120874,1.40187220643293,103.898801330302,98   Punggol Walk
AFTERSCHOOL @ PUNGGOL PRIMARY SCHOOL,61,HOUGANG AVENUE 8,AFTERSCHOOL @ PUNGGOL PRIMARY SCHOOL,61 HOUGANG AVENUE 8 AFTERSCHOOL @ PUNGGOL PRIMARY SCHOOL SINGAPORE 538787,538787,34827.3316768408,40020.0263597388,1.37820062547641,103.894667159512,61   HOUGANG AVENUE 8
PUNGGOL PRIMARY SCHOOL,61,HOUGANG AVENUE 8,PUNGGOL PRIMARY SCHOOL,61 HOUGANG AVENUE 8 PUNGGOL PRIMARY SCHOOL SINGAPORE 538787,538787,34809.5016854042,39975.1199013237,1.37779451191095,103.894506933668,61   HOUGANG AVENUE 8
PUNGGOL SECONDARY SCHOOL,51,EDGEFIELD PLAINS,PUNGGOL SECONDARY SCHOOL,51 EDGEFIELD PLAINS PUNGGOL SECONDARY SCHOOL SINGAPORE 828870,828870,36446.0969829671,42658.0347204488,1.40205738421399,103.909213706482,51   EDGEFIELD PLAINS
LITTLE PROFESSORS LEARNING CENTRE PTE LTD (PUNGGOL VIEW PRIMARY),9,PUNGGOL PLACE,LITTLE PROFESSORS LEARNING CENTRE PTE LTD (PUNGGOL VIEW PRIMARY),9 PUNGGOL PLACE LITTLE PROFESSORS LEARNING CENTRE PTE LTD (PUNGGOL VIEW PRIMARY) SINGAPORE 828845,828845,36010.4358489802,42989.2062344458,1.40505250226058,103.905299026568,9    Punggol Place
MOE KINDERGARTEN @ PUNGGOL VIEW,9,PUNGGOL PLACE,MOE KINDERGARTEN @ PUNGGOL VIEW,9 PUNGGOL PLACE MOE KINDERGARTEN @ PUNGGOL VIEW SINGAPORE 828845,828845,35998.4134966517,43070.6434856262,1.4057889942173,103.905191018271,9    Punggol Place
PCF SPARKLETOTS KCARE CENTRE@PUNGGOL VIEW,9,PUNGGOL PLACE,PCF SPARKLETOTS KCARE CENTRE@PUNGGOL VIEW,9 PUNGGOL PLACE PCF SPARKLETOTS KCARE CENTRE@PUNGGOL VIEW SINGAPORE 828845,828845,36003.292059999,42994.7624979503,1.40510275305742,103.905234835236,9    Punggol Place
PUNGGOL VIEW PRIMARY SCHOOL,9,PUNGGOL PLACE,PUNGGOL VIEW PRIMARY SCHOOL,9 PUNGGOL PLACE PUNGGOL VIEW PRIMARY SCHOOL SINGAPORE 828845,828845,35994.5599585725,42999.5250743832,1.40514582647962,103.905156371376,9    Punggol Place
AMP-MERCU STUDENT CARE CENTRE @ QIFA PRIMARY SCHOOL,50,WEST COAST AVENUE,AMP-MERCU STUDENT CARE CENTRE @ QIFA PRIMARY SCHOOL,50 WEST COAST AVENUE AMP-MERCU STUDENT CARE CENTRE @ QIFA PRIMARY SCHOOL SINGAPORE 128104,128104,19465.1912890384,32839.9119845238,1.3132658326807,103.756629101811,50   WEST COAST AVENUE
QIFA PRIMARY SCHOOL,50,WEST COAST AVENUE,QIFA PRIMARY SCHOOL,50 WEST COAST AVENUE QIFA PRIMARY SCHOOL SINGAPORE 128104,128104,19477.8961843997,32838.2868056744,1.31325113867272,103.756743261958,50   WEST COAST AVENUE
POWERLIFE STUDENT SERVICES @ QIHUA PRIMARY SCHOOL,5,WOODLANDS STREET 81,POWERLIFE STUDENT SERVICES @ QIHUA PRIMARY SCHOOL,5 WOODLANDS STREET 81 POWERLIFE STUDENT SERVICES @ QIHUA PRIMARY SCHOOL SINGAPORE 738525,738525,22994.5556907868,47078.5773993656,1.44203596557592,103.788339762066,5    WOODLANDS STREET 81
QIHUA PRIMARY SCHOOL,5,WOODLANDS STREET 81,QIHUA PRIMARY SCHOOL,5 WOODLANDS STREET 81 QIHUA PRIMARY SCHOOL SINGAPORE 738525,738525,22994.5551156951,47078.5774599016,1.4420359661233,103.788339756898,5    WOODLANDS STREET 81
QUEENSTOWN CAREHUT,310,MARGARET DRIVE,QUEENSTOWN CAREHUT,310 MARGARET DRIVE QUEENSTOWN CAREHUT SINGAPORE 149303,149303,25143.1426198389,30878.5540552996,1.29552905587752,103.807648475656,310  MARGARET DR
QUEENSTOWN PRIMARY SCHOOL,310,MARGARET DRIVE,QUEENSTOWN PRIMARY SCHOOL,310 MARGARET DRIVE QUEENSTOWN PRIMARY SCHOOL SINGAPORE 149303,149303,25132.029336133,30885.6966638304,1.29559365009015,103.807548617332,310  MARGARET DR
QUEENSTOWN SECONDARY SCHOOL,1,STRATHMORE ROAD,QUEENSTOWN SECONDARY SCHOOL,1 STRATHMORE ROAD QUEENSTOWN SECONDARY SCHOOL SINGAPORE 148800,148800,25759.9730125098,30656.5376077667,1.29352126774652,103.813190980055,1    STRATHMORE ROAD
QUEENSWAY SECONDARY SCHOOL,2A,MARGARET DRIVE,QUEENSWAY SECONDARY SCHOOL,2A MARGARET DRIVE QUEENSWAY SECONDARY SCHOOL SINGAPORE 149295,149295,24537.5928928228,31397.561654076,1.30022271592188,103.802207291625,2A   MARGARET DRIVE
ACE @ WORK ENRICHMENT PTE LTD (RADIN MAS PRIMARY),1,BUKIT PURMEI AVENUE,ACE @ WORK ENRICHMENT PTE LTD (RADIN MAS PRIMARY),1 BUKIT PURMEI AVENUE ACE @ WORK ENRICHMENT PTE LTD (RADIN MAS PRIMARY) SINGAPORE 099840,099840,26975.8011428332,28597.1569343451,1.27489701529771,103.824115781658,1    BUKIT PURMEI AVENUE
RADIN MAS PRIMARY SCHOOL,1,BUKIT PURMEI AVENUE,RADIN MAS PRIMARY SCHOOL,1 BUKIT PURMEI AVENUE RADIN MAS PRIMARY SCHOOL SINGAPORE 099840,099840,26983.8685896052,28603.9263991714,1.27495823622634,103.824188270373,1    BUKIT PURMEI AVENUE
KNOWLEDGE PARK EDUCARE (SC) PTE LTD (RAFFLES GIRLS),21,HILLCREST ROAD,KNOWLEDGE PARK EDUCARE (SC) PTE LTD (RAFFLES GIRLS),21 HILLCREST ROAD KNOWLEDGE PARK EDUCARE (SC) PTE LTD (RAFFLES GIRLS) SINGAPORE 289072,289072,25003.9977021599,34694.7955917995,1.33004178068277,103.806397828938,21   Hillcrest Road
RAFFLES GIRLS' PRIMARY SCHOOL,21,HILLCREST ROAD,RAFFLES GIRLS' PRIMARY SCHOOL,21 HILLCREST ROAD RAFFLES GIRLS' PRIMARY SCHOOL SINGAPORE 289072,289072,25009.0146507286,34624.3017604016,1.3294042600012,103.806442915912,21   Hillcrest Road
RAFFLES GIRLS' SCHOOL (SECONDARY),2,BRADDELL RISE,RAFFLES GIRLS' SCHOOL (SECONDARY),2 BRADDELL RISE RAFFLES GIRLS' SCHOOL (SECONDARY) SINGAPORE 318871,318871,29092.3551620366,36036.388495991,1.34217479932295,103.84313404727,2    BRADDELL RISE
RAFFLES INSTITUTION,1,RAFFLES INSTITUTION LANE,RAFFLES INSTITUTION,1 RAFFLES INSTITUTION LANE RAFFLES INSTITUTION SINGAPORE 575954,575954,29397.4034992037,36480.122403916,1.34618775847486,103.845875110532,1    RAFFLES INSTITUTION LANE
RAFFLES INSTITUTION (ADMINISTRATIVE CENTRE),1,RAFFLES INSTITUTION LANE,RAFFLES INSTITUTION (ADMINISTRATIVE CENTRE),1 RAFFLES INSTITUTION LANE RAFFLES INSTITUTION (ADMINISTRATIVE CENTRE) SINGAPORE 575954,575954,29146.4620281225,36491.4763483591,1.34629045013358,103.843620247231,1    RAFFLES INSTITUTION LANE
RAFFLES INSTITUTION (ARTSPACE),1,RAFFLES INSTITUTION LANE,RAFFLES INSTITUTION (ARTSPACE),1 RAFFLES INSTITUTION LANE RAFFLES INSTITUTION (ARTSPACE) SINGAPORE 575954,575954,29253.9772660322,36623.6072359029,1.34748539060326,103.844586343411,1    RAFFLES INSTITUTION LANE
RAFFLES INSTITUTION (AUDITORIUM),1,RAFFLES INSTITUTION LANE,RAFFLES INSTITUTION (AUDITORIUM),1 RAFFLES INSTITUTION LANE RAFFLES INSTITUTION (AUDITORIUM) SINGAPORE 575954,575954,29375.0509261759,36649.26840223,1.34771745576312,103.845674266587,1    RAFFLES INSTITUTION LANE
RAFFLES INSTITUTION (DINING HALL),1,RAFFLES INSTITUTION LANE,RAFFLES INSTITUTION (DINING HALL),1 RAFFLES INSTITUTION LANE RAFFLES INSTITUTION (DINING HALL) SINGAPORE 575954,575954,29281.8145490494,36557.2218292747,1.34688502341737,103.844836475867,1    RAFFLES INSTITUTION LANE
RAFFLES INSTITUTION (MARSHALL BLOCK),1,RAFFLES INSTITUTION LANE,RAFFLES INSTITUTION (MARSHALL BLOCK),1 RAFFLES INSTITUTION LANE RAFFLES INSTITUTION (MARSHALL BLOCK) SINGAPORE 575954,575954,29355.0085570058,36419.169827953,1.34563652699047,103.845494163126,1    RAFFLES INSTITUTION LANE
RAFFLES INSTITUTION (S.RAJARATNAM BLOCK),1,RAFFLES INSTITUTION LANE,RAFFLES INSTITUTION (S.RAJARATNAM BLOCK),1 RAFFLES INSTITUTION LANE RAFFLES INSTITUTION (S.RAJARATNAM BLOCK) SINGAPORE 575954,575954,29203.2871104851,36489.674676897,1.34627415423579,103.844130855559,1    RAFFLES INSTITUTION LANE
RAFFLES INSTITUTION (SCIENCE HUB),1,RAFFLES INSTITUTION LANE,RAFFLES INSTITUTION (SCIENCE HUB),1 RAFFLES INSTITUTION LANE RAFFLES INSTITUTION (SCIENCE HUB) SINGAPORE 575954,575954,29401.460892153,36427.3295315392,1.34571031831881,103.845911566261,1    RAFFLES INSTITUTION LANE
RAFFLES INSTITUTION (SHEARES BLOCK),1,RAFFLES INSTITUTION LANE,RAFFLES INSTITUTION (SHEARES BLOCK),1 RAFFLES INSTITUTION LANE RAFFLES INSTITUTION (SHEARES BLOCK) SINGAPORE 575954,575954,29276.3973971987,36501.677687984,1.34638270218392,103.844787797061,1    RAFFLES INSTITUTION LANE
RAFFLES INSTITUTION BOARDING,1,RAFFLES INSTITUTION LANE,RAFFLES INSTITUTION BOARDING,1 RAFFLES INSTITUTION LANE RAFFLES INSTITUTION BOARDING SINGAPORE 575954,575954,29165.7161584599,36563.4896325395,1.34694171193172,103.843793260239,1    RAFFLES INSTITUTION LANE
COMMIT LEARNING SCHOOLHOUSE @ RED SWASTIKA SCHOOL,350,BEDOK NORTH AVENUE 3,COMMIT LEARNING SCHOOLHOUSE @ RED SWASTIKA SCHOOL,350 BEDOK NORTH AVENUE 3 COMMIT LEARNING SCHOOLHOUSE @ RED SWASTIKA SCHOOL SINGAPORE 469719,469719,39240.1303829281,35138.9475005791,1.33405659580859,103.934317528484,350  BEDOK NORTH AVENUE 3
RED SWASTIKA SCHOOL,350,BEDOK NORTH AVENUE 3,RED SWASTIKA SCHOOL,350 BEDOK NORTH AVENUE 3 RED SWASTIKA SCHOOL SINGAPORE 469719,469719,39241.7795945574,35048.9817909673,1.33324297847732,103.934332314404,350  BEDOK NORTH AVENUE 3
RED SWASTIKA WELFARE CLINIC,350,BEDOK NORTH AVENUE 3,RED SWASTIKA WELFARE CLINIC,350 BEDOK NORTH AVENUE 3 RED SWASTIKA WELFARE CLINIC SINGAPORE 469719,469719,39261.5153187839,35096.6963010356,1.33367448359173,103.93450966846,350  BEDOK NORTH AVENUE 3
REGENT SECONDARY SCHOOL,50,CHOA CHU KANG NORTH 5,REGENT SECONDARY SCHOOL,50 CHOA CHU KANG NORTH 5 REGENT SECONDARY SCHOOL SINGAPORE 689621,689621,18842.8552409327,41687.3977799285,1.39327908335682,103.751034411529,50   CHOA CHU KANG NORTH 5
6 BOON LAY AVENUE SINGAPORE 649961,6,BOON LAY AVENUE,NIL,6 BOON LAY AVENUE SINGAPORE 649961,649961,14074.6256253822,36304.4497505389,1.34459584223718,103.708190688947,6    BOON LAY AVENUE
RIVER VALLEY HIGH SCHOOL,6,BOON LAY AVENUE,RIVER VALLEY HIGH SCHOOL,6 BOON LAY AVENUE RIVER VALLEY HIGH SCHOOL SINGAPORE 649961,649961,14167.1561531294,36247.1858126801,1.34407801149725,103.709022156436,6    BOON LAY AVENUE
AFTERSCHOOL @ RIVER VALLEY PRIMARY SCHOOL,2,RIVER VALLEY GREEN,AFTERSCHOOL @ RIVER VALLEY PRIMARY SCHOOL,2 RIVER VALLEY GREEN AFTERSCHOOL @ RIVER VALLEY PRIMARY SCHOOL SINGAPORE 237993,237993,28300.5267893467,30729.7527125087,1.29418347842837,103.836018941571,2    RIVER VALLEY GREEN
RIVER VALLEY PRIMARY SCHOOL,2,RIVER VALLEY GREEN,RIVER VALLEY PRIMARY SCHOOL,2 RIVER VALLEY GREEN RIVER VALLEY PRIMARY SCHOOL SINGAPORE 237993,237993,28277.8483209386,30734.1542524323,1.2942232846169,103.835815165829,2    RIVER VALLEY GREEN
MERCU STUDENT CARE CENTRE @ RIVERSIDE PRIMARY SCHOOL,110,WOODLANDS CRESCENT,MERCU STUDENT CARE CENTRE @ RIVERSIDE PRIMARY SCHOOL,110 WOODLANDS CRESCENT MERCU STUDENT CARE CENTRE @ RIVERSIDE PRIMARY SCHOOL SINGAPORE 737803,737803,24502.3868994378,47627.9217809848,1.44700426493785,103.801889031334,110  Woodlands Crescent
MOE KINDERGARTEN @ RIVERSIDE,110,WOODLANDS CRESCENT,MOE KINDERGARTEN @ RIVERSIDE,110 WOODLANDS CRESCENT MOE KINDERGARTEN @ RIVERSIDE SINGAPORE 737803,737803,24512.0880000954,47719.6363141593,1.44783369895684,103.80197619401,110  Woodlands Crescent
PCF SPARKLETOTS KCARE CENTRE@RIVERSIDE,110,WOODLANDS CRESCENT,PCF SPARKLETOTS KCARE CENTRE@RIVERSIDE,110 WOODLANDS CRESCENT PCF SPARKLETOTS KCARE CENTRE@RIVERSIDE SINGAPORE 737803,737803,24507.9431629414,47632.6842968836,1.44704733609149,103.801938959313,110  Woodlands Crescent
RIVERSIDE PRIMARY SCHOOL,110,WOODLANDS CRESCENT,RIVERSIDE PRIMARY SCHOOL,110 WOODLANDS CRESCENT RIVERSIDE PRIMARY SCHOOL SINGAPORE 737803,737803,24496.0361921666,47632.6851746552,1.44704734253719,103.801831963297,110  Woodlands Crescent
RIVERSIDE SECONDARY SCHOOL,3,WOODLANDS STREET 81,RIVERSIDE SECONDARY SCHOOL,3 WOODLANDS STREET 81 RIVERSIDE SECONDARY SCHOOL SINGAPORE 738524,738524,22991.0453311065,46975.256819712,1.44110157139127,103.78830823641,3    WOODLANDS STREET 81
PRO-TEACH SCHOOLCARE (RIVERVALE) LLP,80,RIVERVALE DRIVE,PRO-TEACH SCHOOLCARE (RIVERVALE) LLP,80 RIVERVALE DRIVE PRO-TEACH SCHOOLCARE (RIVERVALE) LLP SINGAPORE 545092,545092,35926.5905072847,41693.547538057,1.39333506298213,103.904545253288,80   RIVERVALE DRIVE
RIVERVALE PRIMARY SCHOOL,80,RIVERVALE DRIVE,RIVERVALE PRIMARY SCHOOL,80 RIVERVALE DRIVE RIVERVALE PRIMARY SCHOOL SINGAPORE 545092,545092,35928.1770641869,41701.8312798403,1.39340997767762,103.904559511997,80   RIVERVALE DRIVE
KNOWLEDGE PARK EDUCARE (ROSYTH) PTE LTD,21,SERANGOON NORTH AVENUE 4,KNOWLEDGE PARK EDUCARE (ROSYTH) PTE LTD,21 SERANGOON NORTH AVENUE 4 KNOWLEDGE PARK EDUCARE (ROSYTH) PTE LTD SINGAPORE 555855,555855,32613.2254595151,39429.2584868576,1.3728583654058,103.87477170399,21   Serangoon North Avenue 4
ROSYTH SCHOOL,21,SERANGOON NORTH AVENUE 4,ROSYTH SCHOOL,21 SERANGOON NORTH AVENUE 4 ROSYTH SCHOOL SINGAPORE 555855,555855,32638.8043574626,39432.8315618001,1.37289067499064,103.875001549174,21   Serangoon North Avenue 4
RULANG PRIMARY SCHOOL,6,JURONG WEST STREET 52,RULANG PRIMARY SCHOOL,6 JURONG WEST STREET 52 RULANG PRIMARY SCHOOL SINGAPORE 649295,649295,15217.2735802168,36541.3390983045,1.34673868889096,103.718457955487,6    JURONG WEST STREET 52
YMCA SCC @ RULANG,6,JURONG WEST STREET 52,YMCA SCC @ RULANG,6 JURONG WEST STREET 52 YMCA SCC @ RULANG SINGAPORE 649295,649295,15253.7998630516,36591.1894081067,1.34718953201213,103.718786145011,6    JURONG WEST STREET 52
"SCHOOL OF SCIENCE AND TECHNOLOGY, SINGAPORE",1,TECHNOLOGY DRIVE,"SCHOOL OF SCIENCE AND TECHNOLOGY, SINGAPORE","1 TECHNOLOGY DRIVE SCHOOL OF SCIENCE AND TECHNOLOGY, SINGAPORE SINGAPORE 138572",138572,21399.6898937989,32802.5152550135,1.31292810600277,103.774011529322,1    Technology Drive
SCHOOL OF THE ARTS (SOTA),1,ZUBIR SAID DRIVE,SCHOOL OF THE ARTS (SOTA),1 ZUBIR SAID DRIVE SCHOOL OF THE ARTS (SOTA) SINGAPORE 227968,227968,29710.4144953834,31302.6820281129,1.29936480411316,103.848687419363,1    Zubir Said Drive
SOTA THEATRE & HALL,1,ZUBIR SAID DRIVE,SOTA THEATRE & HALL,1 ZUBIR SAID DRIVE SOTA THEATRE & HALL SINGAPORE 227968,227968,29708.9782492872,31301.1988061052,1.2993513904547,103.848674513968,1    Zubir Said Drive
MOE KINDERGARTEN @ SEMBAWANG,10,SEMBAWANG DRIVE,MOE KINDERGARTEN @ SEMBAWANG,10 SEMBAWANG DRIVE MOE KINDERGARTEN @ SEMBAWANG SINGAPORE 757715,757715,26646.1261990219,47488.6922037564,1.4457453096024,103.821152676215,10   SEMBAWANG DRIVE
POWERLIFE STUDENT SERVICES (SEMBAWANG PRIMARY),10,SEMBAWANG DRIVE,POWERLIFE STUDENT SERVICES (SEMBAWANG PRIMARY),10 SEMBAWANG DRIVE POWERLIFE STUDENT SERVICES (SEMBAWANG PRIMARY) SINGAPORE 757715,757715,26631.5294941422,47411.1054941267,1.4450436428697,103.82102151409,10   SEMBAWANG DRIVE
SEMBAWANG HILLS ESTATE,10,SEMBAWANG HILLS DRIVE,SEMBAWANG HILLS ESTATE,10 SEMBAWANG HILLS DRIVE SEMBAWANG HILLS ESTATE SINGAPORE 575889,575889,27499.4621111564,39921.0318619236,1.37730614502021,103.828820879667,10   SEMBAWANG DRIVE
SEMBAWANG PRIMARY SCHOOL,10,SEMBAWANG DRIVE,SEMBAWANG PRIMARY SCHOOL,10 SEMBAWANG DRIVE SEMBAWANG PRIMARY SCHOOL SINGAPORE 757715,757715,26633.8508971538,47414.4307650849,1.4450737155262,103.821042374036,10   SEMBAWANG DRIVE
SEMBAWANG SECONDARY SCHOOL,30,SEMBAWANG CRESCENT,SEMBAWANG SECONDARY SCHOOL,30 SEMBAWANG CRESCENT SEMBAWANG SECONDARY SCHOOL SINGAPORE 757704,757704,26166.5553010562,47441.1161091775,1.44531502131387,103.816843258118,30   SEMBAWANG CRESCENT
QSF - THE ENABLERS STUDENT CARE @ SENGKANG PRIMARY,21,COMPASSVALE WALK,QSF - THE ENABLERS STUDENT CARE @ SENGKANG PRIMARY,21 COMPASSVALE WALK QSF - THE ENABLERS STUDENT CARE @ SENGKANG PRIMARY SINGAPORE 545166,545166,35368.2352863764,41241.8749130946,1.38925044778224,103.899527879229,21   COMPASSVALE WALK
SENG KANG PRIMARY SCHOOL,21,COMPASSVALE WALK,SENG KANG PRIMARY SCHOOL,21 COMPASSVALE WALK SENG KANG PRIMARY SCHOOL SINGAPORE 545166,545166,35394.8580362787,41269.1828696113,1.38949740422462,103.899767112047,21   COMPASSVALE WALK
SENG KANG SECONDARY SCHOOL,10,COMPASSVALE LANE,SENG KANG SECONDARY SCHOOL,10 COMPASSVALE LANE SENG KANG SECONDARY SCHOOL SINGAPORE 545090,545090,35238.8340261402,40948.4476958644,1.38659683143747,103.898365036709,10   COMPASSVALE LANE
SENGKANG SECONDARY SCHOOL,10,COMPASSVALE LANE,SENGKANG SECONDARY SCHOOL,10 COMPASSVALE LANE SENGKANG SECONDARY SCHOOL SINGAPORE 545090,545090,35238.8912931653,40940.0948522743,1.38652129134849,103.898365549236,10   COMPASSVALE LANE
MOE KINDERGARTEN @ SENGKANG GREEN,15,FERNVALE ROAD,MOE KINDERGARTEN @ SENGKANG GREEN,15 FERNVALE ROAD MOE KINDERGARTEN @ SENGKANG GREEN SINGAPORE 797636,797636,32636.9100054335,41605.5649867393,1.3925400930811,103.874984869551,15   Fernvale Road
PCF SPARKLETOTS KCARE CENTRE @ SENGKANG GREEN,15,FERNVALE ROAD,PCF SPARKLETOTS KCARE CENTRE @ SENGKANG GREEN,15 FERNVALE ROAD PCF SPARKLETOTS KCARE CENTRE @ SENGKANG GREEN SINGAPORE 797636,797636,32656.2685905835,41638.6445937324,1.39283924999573,103.875158826938,15   Fernvale Road
SENGKANG GREEN PRIMARY SCHOOL,15,FERNVALE ROAD,SENGKANG GREEN PRIMARY SCHOOL,15 FERNVALE ROAD SENGKANG GREEN PRIMARY SCHOOL SINGAPORE 797636,797636,32662.8166451091,41639.3984784018,1.39284606680477,103.875217666486,15   Fernvale Road
YMCA STUDENT CARE CENTRE @ SENGKANG GREEN,15,FERNVALE ROAD,YMCA STUDENT CARE CENTRE @ SENGKANG GREEN,15 FERNVALE ROAD YMCA STUDENT CARE CENTRE @ SENGKANG GREEN SINGAPORE 797636,797636,32656.2685905835,41638.6445937324,1.39283924999573,103.875158826938,15   Fernvale Road
SERANGOON GARDEN SECONDARY SCHOOL,21,SERANGOON NORTH AVENUE 1,SERANGOON GARDEN SECONDARY SCHOOL,21 SERANGOON NORTH AVENUE 1 SERANGOON GARDEN SECONDARY SCHOOL SINGAPORE 555889,555889,32000.9924708903,39038.6248832196,1.36932570490947,103.869270301476,21   SERANGOON NORTH AVENUE 1
SERANGOON SECONDARY SCHOOL,11,UPPER SERANGOON VIEW,SERANGOON SECONDARY SCHOOL,11 UPPER SERANGOON VIEW SERANGOON SECONDARY SCHOOL SINGAPORE 534237,534237,35658.8371386668,39628.0344803315,1.37465538827443,103.902138740699,11   UPPER SERANGOON VIEW
MOE KINDERGARTEN @ SHUQUN,8,JURONG WEST STREET 51,MOE KINDERGARTEN @ SHUQUN,8 JURONG WEST STREET 51 MOE KINDERGARTEN @ SHUQUN SINGAPORE 649332,649332,15562.4299923396,36555.8065891601,1.34686967259067,103.721559387203,8    JURONG WEST STREET 51
NASCANS @ SHUQUN,8,JURONG WEST STREET 51,NASCANS @ SHUQUN,8 JURONG WEST STREET 51 NASCANS @ SHUQUN SINGAPORE 649332,649332,15551.3204315957,36636.8785360437,1.34760285244673,103.721459527674,8    JURONG WEST STREET 51
SHUQUN PRIMARY SCHOOL,8,JURONG WEST STREET 51,SHUQUN PRIMARY SCHOOL,8 JURONG WEST STREET 51 SHUQUN PRIMARY SCHOOL SINGAPORE 649332,649332,15558.4638573611,36642.4359194618,1.34765311431632,103.721523713379,8    JURONG WEST STREET 51
SI LING PRIMARY SCHOOL,61,WOODLANDS AVENUE 1,SI LING PRIMARY SCHOOL,61 WOODLANDS AVENUE 1 SI LING PRIMARY SCHOOL SINGAPORE 739067,739067,22738.0565941427,46014.1202728488,1.43240935732525,103.786035065192,61   WOODLANDS AVENUE 1
YMCA STUDENT CARE CENTRE @ SI LING,61,WOODLANDS AVENUE 1,YMCA STUDENT CARE CENTRE @ SI LING,61 WOODLANDS AVENUE 1 YMCA STUDENT CARE CENTRE @ SI LING SINGAPORE 739067,739067,22709.536404877,46046.2428061962,1.43269985645119,103.785778778523,61   WOODLANDS AVENUE 1
SINGAPORE CHINESE GIRLS' SCHOOL,190,DUNEARN ROAD,SINGAPORE CHINESE GIRLS' SCHOOL,190 DUNEARN ROAD SINGAPORE CHINESE GIRLS' SCHOOL SINGAPORE 309437,309437,27426.4538880838,33654.5249451734,1.3206340835184,103.828164966953,190  DUNEARN ROAD
SINGAPORE CHINESE GIRLS' SCHOOL (PRIMARY),190,DUNEARN ROAD,SINGAPORE CHINESE GIRLS' SCHOOL (PRIMARY),190 DUNEARN ROAD SINGAPORE CHINESE GIRLS' SCHOOL (PRIMARY) SINGAPORE 309437,309437,27379.6878858209,33673.6731678378,1.32080725235992,103.827744749548,190  DUNEARN ROAD
SINGAPORE CHINESE GIRLS' SCHOOL,190,DUNEARN ROAD,SINGAPORE CHINESE GIRLS' SCHOOL,190 DUNEARN ROAD SINGAPORE CHINESE GIRLS' SCHOOL SINGAPORE 309437,309437,27426.4538880838,33654.5249451734,1.3206340835184,103.828164966953,190  DUNEARN ROAD
SINGAPORE CHINESE GIRLS' SCHOOL (PRIMARY),190,DUNEARN ROAD,SINGAPORE CHINESE GIRLS' SCHOOL (PRIMARY),190 DUNEARN ROAD SINGAPORE CHINESE GIRLS' SCHOOL (PRIMARY) SINGAPORE 309437,309437,27379.6878858209,33673.6731678378,1.32080725235992,103.827744749548,190  DUNEARN ROAD
SINGAPORE SPORTS SCHOOL,1,CHAMPIONS WAY,SINGAPORE SPORTS SCHOOL,1 CHAMPIONS WAY SINGAPORE SPORTS SCHOOL SINGAPORE 737913,737913,23117.4954931987,45350.8892124798,1.42641140556342,103.789444793951,1    Champions Way
PRO-TEACH SCHOOLCARE (SOUTH VIEW PRIMARY),6,CHOA CHU KANG CENTRAL,PRO-TEACH SCHOOLCARE (SOUTH VIEW PRIMARY),6 CHOA CHU KANG CENTRAL PRO-TEACH SCHOOLCARE (SOUTH VIEW PRIMARY) SINGAPORE 689762,689762,18410.9318699865,40377.3373044748,1.38143123987698,103.747153671,6    Choa Chu Kang Central
SOUTH VIEW PRIMARY SCHOOL,6,CHOA CHU KANG CENTRAL,SOUTH VIEW PRIMARY SCHOOL,6 CHOA CHU KANG CENTRAL SOUTH VIEW PRIMARY SCHOOL SINGAPORE 689762,689762,18313.2418920035,40403.3706761971,1.38166664389749,103.746275846011,6    Choa Chu Kang Central
SPECTRA SECONDARY SCHOOL,1,WOODLANDS DRIVE 64,SPECTRA SECONDARY SCHOOL,1 WOODLANDS DRIVE 64 SPECTRA SECONDARY SCHOOL SINGAPORE 737758,737758,24748.4707526173,46525.8443958983,1.43703750789961,103.804100467487,1    WOODLANDS DRIVE 64
MOE KINDERGARTEN @ SPRINGDALE,71,ANCHORVALE LINK,MOE KINDERGARTEN @ SPRINGDALE,71 ANCHORVALE LINK MOE KINDERGARTEN @ SPRINGDALE SINGAPORE 544799,544799,34242.9442041246,41909.1654851716,1.39528544463377,103.889416413501,71   Anchorvale Link
PCF SPARKLETOTS KCARE CENTRE@SPRINGDALE,71,ANCHORVALE LINK,PCF SPARKLETOTS KCARE CENTRE@SPRINGDALE,71 ANCHORVALE LINK PCF SPARKLETOTS KCARE CENTRE@SPRINGDALE SINGAPORE 544799,544799,34296.3733095182,41872.9795052782,1.39495818021916,103.889896508672,71   Anchorvale Link
SPRINGDALE PRIMARY SCHOOL,71,ANCHORVALE LINK,SPRINGDALE PRIMARY SCHOOL,71 ANCHORVALE LINK SPRINGDALE PRIMARY SCHOOL SINGAPORE 544799,544799,34299.680692099,41841.1254489459,1.39467010299293,103.889926221247,71   Anchorvale Link
YMCA STUDENT CARE CENTRE @ SPRINGDALE,71,ANCHORVALE LINK,YMCA STUDENT CARE CENTRE @ SPRINGDALE,71 ANCHORVALE LINK YMCA STUDENT CARE CENTRE @ SPRINGDALE SINGAPORE 544799,544799,34296.3733095182,41872.9795052782,1.39495818021916,103.889896508672,71   Anchorvale Link
SPRINGFIELD SECONDARY SCHOOL,30,TAMPINES AVENUE 8,SPRINGFIELD SECONDARY SCHOOL,30 TAMPINES AVENUE 8 SPRINGFIELD SECONDARY SCHOOL SINGAPORE 529593,529593,38799.0137778232,36854.6606742647,1.34957303471476,103.930354460693,30   TAMPINES AVENUE 8
SAINT ANDREW'S JUNIOR COLLEGE,5,SORBY ADAMS DRIVE,SAINT ANDREW'S JUNIOR COLLEGE,5 SORBY ADAMS DRIVE SAINT ANDREW'S JUNIOR COLLEGE SINGAPORE 357691,357691,31367.377300797,35029.1094067935,1.33306515740956,103.863576377056,5    Sorby Adams Drive
SAINT ANDREW'S JUNIOR SCHOOL,2,FRANCIS THOMAS DRIVE,SAINT ANDREW'S JUNIOR SCHOOL,2 FRANCIS THOMAS DRIVE SAINT ANDREW'S JUNIOR SCHOOL SINGAPORE 359337,359337,31538.8499082169,34845.2692709584,1.33140255308868,103.865117134385,2    FRANCIS THOMAS DRIVE
SAINT ANDREW'S SECONDARY SCHOOL,15,FRANCIS THOMAS DRIVE,SAINT ANDREW'S SECONDARY SCHOOL,15 FRANCIS THOMAS DRIVE SAINT ANDREW'S SECONDARY SCHOOL SINGAPORE 359342,359342,31664.831310045,34766.8795819897,1.33069360968075,103.866249138562,15   FRANCIS THOMAS DRIVE
SAINT ANTHONY'S CANOSSIAN PRIMARY SCHOOL,1602,BEDOK NORTH AVENUE 4,SAINT ANTHONY'S CANOSSIAN PRIMARY SCHOOL,1602 BEDOK NORTH AVENUE 4 SAINT ANTHONY'S CANOSSIAN PRIMARY SCHOOL SINGAPORE 469701,469701,40009.9558383394,35212.930261923,1.3347253730189,103.941234868202,1602 BEDOK NORTH AVE 4
YMCA STUDENT CARE CENTRE @ ST ANTHONY'S CANOSSIAN,1602,BEDOK NORTH AVENUE 4,YMCA STUDENT CARE CENTRE @ ST ANTHONY'S CANOSSIAN,1602 BEDOK NORTH AVENUE 4 YMCA STUDENT CARE CENTRE @ ST ANTHONY'S CANOSSIAN SINGAPORE 469701,469701,39933.1477423226,35262.2468563691,1.3351714044028,103.940544723873,1602 BEDOK NORTH AVE 4
SAINT ANTHONY'S CANOSSIAN SECONDARY SCHOOL,1600,BEDOK NORTH AVENUE 4,SAINT ANTHONY'S CANOSSIAN SECONDARY SCHOOL,1600 BEDOK NORTH AVENUE 4 SAINT ANTHONY'S CANOSSIAN SECONDARY SCHOOL SINGAPORE 469700,469700,40092.566337103,35206.0519231595,1.33466313498855,103.941977166932,1600 BEDOK NORTH AVENUE 4
MORNING STAR COMMUNITY SERVICES (SGPS),220,LORONG CHUAN,MORNING STAR COMMUNITY SERVICES (SGPS),220 LORONG CHUAN MORNING STAR COMMUNITY SERVICES (SGPS) SINGAPORE 556742,556742,31226.4103413029,36825.1216646656,1.34930766795555,103.862309899986,220  Lorong Chuan
SAINT GABRIEL'S PRIMARY SCHOOL,220,LORONG CHUAN,SAINT GABRIEL'S PRIMARY SCHOOL,220 LORONG CHUAN SAINT GABRIEL'S PRIMARY SCHOOL SINGAPORE 556742,556742,31254.358949963,36843.2848763354,1.34947192653862,103.862561037707,220  Lorong Chuan
SAINT GABRIEL'S SECONDARY SCHOOL,24,SERANGOON AVENUE 1,SAINT GABRIEL'S SECONDARY SCHOOL,24 SERANGOON AVENUE 1 SAINT GABRIEL'S SECONDARY SCHOOL SINGAPORE 556140,556140,32760.4506575912,36513.3583147768,1.34648798732177,103.876094163287,24   SERANGOON AVENUE 1
CHAPEL OF CHRIST THE REDEEMER,2,TAMPINES AVENUE 3,CHAPEL OF CHRIST THE REDEEMER,2 TAMPINES AVENUE 3 CHAPEL OF CHRIST THE REDEEMER SINGAPORE 529706,529706,39540.4096965808,36866.4956980404,1.34967978969837,103.937016363397,2    Tampines Ave 3
SAINT HILDA'S PRIMARY SCHOOL,2,TAMPINES AVENUE 3,SAINT HILDA'S PRIMARY SCHOOL,2 TAMPINES AVENUE 3 SAINT HILDA'S PRIMARY SCHOOL SINGAPORE 529706,529706,39539.3839146122,36833.9711756017,1.34938565036336,103.937007133662,2    Tampines Ave 3
SAINT HILDA'S PRIMARY SCHOOL (U/C),2,TAMPINES AVENUE 3,SAINT HILDA'S PRIMARY SCHOOL (U/C),2 TAMPINES AVENUE 3 SAINT HILDA'S PRIMARY SCHOOL (U/C) SINGAPORE 529706,529706,39641.0330356695,36830.0272573233,1.34934994368496,103.937920511812,2    Tampines Ave 3
YMCA STUDENT CARE CENTRE @ ST. HILDA'S,2,TAMPINES AVENUE 3,YMCA STUDENT CARE CENTRE @ ST. HILDA'S,2 TAMPINES AVENUE 3 YMCA STUDENT CARE CENTRE @ ST. HILDA'S SINGAPORE 529706,529706,39523.6433523595,36829.9848821461,1.34934960586367,103.936865693533,2    Tampines Ave 3
SAINT HILDA'S SECONDARY SCHOOL,2,TAMPINES STREET 82,SAINT HILDA'S SECONDARY SCHOOL,2 TAMPINES STREET 82 SAINT HILDA'S SECONDARY SCHOOL SINGAPORE 528986,528986,39606.2556369342,36873.0704489276,1.34973922385379,103.937608032148,2    TAMPINES STREET 82
SAINT JOSEPH'S INSTITUTION,38,MALCOLM ROAD,SAINT JOSEPH'S INSTITUTION,38 MALCOLM ROAD SAINT JOSEPH'S INSTITUTION SINGAPORE 308274,308274,27463.6263318341,33988.3560766336,1.32365313490152,103.828498974985,38   MALCOLM ROAD
MORNING STAR COMMUNITY SERVICES (ST JOSEPH'S INSTITUTION JUNIOR),3,ESSEX ROAD,MORNING STAR COMMUNITY SERVICES (ST JOSEPH'S INSTITUTION JUNIOR),3 ESSEX ROAD MORNING STAR COMMUNITY SERVICES (ST JOSEPH'S INSTITUTION JUNIOR) SINGAPORE 309331,309331,29370.5121512143,33342.7815418858,1.31781476118551,103.845633334522,3    ESSEX ROAD
SAINT JOSEPH'S INSTITUTION JUNIOR,3,ESSEX ROAD,SAINT JOSEPH'S INSTITUTION JUNIOR,3 ESSEX ROAD SAINT JOSEPH'S INSTITUTION JUNIOR SINGAPORE 309331,309331,29368.130666255,33333.2553599048,1.31772860986913,103.845611935235,3    ESSEX ROAD
SAINT MARGARET'S PRIMARY SCHOOL,2,MATTAR ROAD,SAINT MARGARET'S PRIMARY SCHOOL,2 MATTAR ROAD SAINT MARGARET'S PRIMARY SCHOOL SINGAPORE 387724,387724,33376.0018041981,34070.0528455041,1.32439150290682,103.881624837373,2    Mattar Road
YMCA STUDENT CARE CENTRE @ ST MARGARET'S,2,MATTAR ROAD,YMCA STUDENT CARE CENTRE @ ST MARGARET'S,2 MATTAR ROAD YMCA STUDENT CARE CENTRE @ ST MARGARET'S SINGAPORE 387724,387724,33379.7721355902,34066.6759070978,1.32436096241691,103.881658715222,2    Mattar Road
SAINT JOHN'S CHAPEL,111,FARRER ROAD,SAINT JOHN'S CHAPEL,111 FARRER ROAD SAINT JOHN'S CHAPEL SINGAPORE 259240,259240,25360.6020710841,33559.5041493345,1.31977464050584,103.809602215402,111  FARRER ROAD
SAINT MARGARET'S SCHOOL (SECONDARY),111,FARRER ROAD,SAINT MARGARET'S SCHOOL (SECONDARY),111 FARRER ROAD SAINT MARGARET'S SCHOOL (SECONDARY) SINGAPORE 259240,259240,25399.434259722,33591.9655932952,1.32006821363359,103.80995114006,111  FARRER ROAD
SAINT PATRICK'S SCHOOL,490,EAST COAST ROAD,SAINT PATRICK'S SCHOOL,490 EAST COAST ROAD SAINT PATRICK'S SCHOOL SINGAPORE 429058,429058,37383.9909570096,32244.7789235692,1.30788341871801,103.917638193713,490  EAST COAST ROAD
SAINT STEPHEN'S SCHOOL,20,SIGLAP VIEW,SAINT STEPHEN'S SCHOOL,20 SIGLAP VIEW SAINT STEPHEN'S SCHOOL SINGAPORE 455789,455789,37341.652827817,33450.7695051655,1.31878997295135,103.917258129598,20   SIGLAP VIEW
YMCA STUDENT CARE CENTRE @ ST. STEPHEN'S,20,SIGLAP VIEW,YMCA STUDENT CARE CENTRE @ ST. STEPHEN'S,20 SIGLAP VIEW YMCA STUDENT CARE CENTRE @ ST. STEPHEN'S SINGAPORE 455789,455789,37354.3538186084,33449.9759391677,1.31878279235375,103.917372254203,20   SIGLAP VIEW
SWISS COTTAGE SECONDARY SCHOOL,3,BUKIT BATOK STREET 34,SWISS COTTAGE SECONDARY SCHOOL,3 BUKIT BATOK STREET 34 SWISS COTTAGE SECONDARY SCHOOL SINGAPORE 659322,659322,18771.7135838792,38529.1941047609,1.36471742697475,103.750396136688,3    BUKIT BATOK STREET 34
TAMPINES MERIDIAN JUNIOR COLLEGE,21,PASIR RIS STREET 71,TAMPINES MERIDIAN JUNIOR COLLEGE,21 PASIR RIS STREET 71 TAMPINES MERIDIAN JUNIOR COLLEGE SINGAPORE 518799,518799,39537.4294200996,39813.7284696326,1.37633346909682,103.936990723441,21   Pasir Ris Street 71
BIG HEART STUDENT CARE (TAMPINES NORTH PRIMARY SCHOOL),30,TAMPINES AVENUE 9,BIG HEART STUDENT CARE (TAMPINES NORTH PRIMARY SCHOOL),30 TAMPINES AVENUE 9 BIG HEART STUDENT CARE (TAMPINES NORTH PRIMARY SCHOOL) SINGAPORE 529565,529565,40848.2810703805,38061.6583322138,1.36048786025607,103.948768900518,30   TAMPINES AVENUE 9
TAMPINES NORTH PRIMARY SCHOOL,30,TAMPINES AVENUE 9,TAMPINES NORTH PRIMARY SCHOOL,30 TAMPINES AVENUE 9 TAMPINES NORTH PRIMARY SCHOOL SINGAPORE 529565,529565,40843.482626386,38060.3925251346,1.36047641484682,103.948725782833,30   TAMPINES AVENUE 9
AMP-MERCU STUDENT CARE CENTRE @ TAMPINES PRIMARY SCHOOL,250,TAMPINES STREET 12,AMP-MERCU STUDENT CARE CENTRE @ TAMPINES PRIMARY SCHOOL,250 TAMPINES STREET 12 AMP-MERCU STUDENT CARE CENTRE @ TAMPINES PRIMARY SCHOOL SINGAPORE 529426,529426,40270.0982013792,36955.7182075791,1.3504863946694,103.943573098509,250  TAMPINES STREET 12
MOE KINDERGARTEN @ TAMPINES PRIMARY,250,TAMPINES STREET 12,MOE KINDERGARTEN @ TAMPINES PRIMARY,250 TAMPINES STREET 12 MOE KINDERGARTEN @ TAMPINES PRIMARY SINGAPORE 529426,529426,40251.1018029228,36895.6687979829,1.34994333795888,103.943402379754,250  TAMPINES STREET 12
TAMPINES PRIMARY SCHOOL,250,TAMPINES STREET 12,TAMPINES PRIMARY SCHOOL,250 TAMPINES STREET 12 TAMPINES PRIMARY SCHOOL SINGAPORE 529426,529426,40318.132583499,36877.4678724073,1.34977870805929,103.944004684986,250  TAMPINES STREET 12
TAMPINES SECONDARY SCHOOL,252,TAMPINES STREET 12,TAMPINES SECONDARY SCHOOL,252 TAMPINES STREET 12 TAMPINES SECONDARY SCHOOL SINGAPORE 529427,529427,40346.96177861,36820.2178275529,1.34926094811197,103.944263709507,252  TAMPINES ST 12
TANJANG KATONG GIRLS SCHOOL (U/C),20,DUNMAN LANE,TANJANG KATONG GIRLS SCHOOL (U/C),20 DUNMAN LANE TANJANG KATONG GIRLS SCHOOL (U/C) SINGAPORE 439272,439272,34987.7913389215,32209.2362594008,1.3075626184394,103.896107204542,20   Dunman Lane
TANJONG KATONG GIRLS' SCHOOL,20,DUNMAN LANE,TANJONG KATONG GIRLS' SCHOOL,20 DUNMAN LANE TANJONG KATONG GIRLS' SCHOOL SINGAPORE 439272,439272,34955.8368231514,32281.1232958212,1.30821274627283,103.895820094229,20   Dunman Lane
AFTERSCHOOL @ TANJONG KATONG PRIMARY SCHOOL,10,SERAYA ROAD,AFTERSCHOOL @ TANJONG KATONG PRIMARY SCHOOL,10 SERAYA ROAD AFTERSCHOOL @ TANJONG KATONG PRIMARY SCHOOL SINGAPORE 437259,437259,35421.0272507127,31924.2153390218,1.30498489044822,103.899999965407,10   Seraya Road
TANJONG KATONG PRIMARY SCHOOL,10,SERAYA ROAD,TANJONG KATONG PRIMARY SCHOOL,10 SERAYA ROAD TANJONG KATONG PRIMARY SCHOOL SINGAPORE 437259,437259,35439.13210571,31954.3963628206,1.30525783246242,103.900162653092,10   Seraya Road
TANJONG KATONG SECONDARY SCHOOL,130,HAIG ROAD,TANJONG KATONG SECONDARY SCHOOL,130 HAIG ROAD TANJONG KATONG SECONDARY SCHOOL SINGAPORE 438796,438796,35112.2101863576,32338.8930419572,1.30873515955341,103.897225196199,130  HAIG ROAD
TAO NAN SCHOOL,49,MARINE CRESCENT,TAO NAN SCHOOL,49 MARINE CRESCENT TAO NAN SCHOOL SINGAPORE 449761,449761,36706.7907984024,31957.4686842412,1.30528528687321,103.911553152326,49   MARINE CRESCENT
YMCA STUDENT CARE CENTRE @ TAO NAN,49,MARINE CRESCENT,YMCA STUDENT CARE CENTRE @ TAO NAN,49 MARINE CRESCENT YMCA STUDENT CARE CENTRE @ TAO NAN SINGAPORE 449761,449761,36701.1240870273,31882.6860006228,1.30460898085751,103.911502213437,49   MARINE CRESCENT
NASCANS @ TECK GHEE,1,ANG MO KIO STREET 32,NASCANS @ TECK GHEE,1 ANG MO KIO STREET 32 NASCANS @ TECK GHEE SINGAPORE 569299,569299,29968.822170008,38632.1819182038,1.36565018546903,103.851009800453,1    ANG MO KIO STREET 32
TECK GHEE PRIMARY SCHOOL,1,ANG MO KIO STREET 32,TECK GHEE PRIMARY SCHOOL,1 ANG MO KIO STREET 32 TECK GHEE PRIMARY SCHOOL SINGAPORE 569299,569299,29962.9602906732,38625.285902936,1.36558782075966,103.850957126982,1    ANG MO KIO STREET 32
SHG STUDENT CARE (TECK WHYE PRIMARY SCHOOL),11,TECK WHYE WALK,SHG STUDENT CARE (TECK WHYE PRIMARY SCHOOL),11 TECK WHYE WALK SHG STUDENT CARE (TECK WHYE PRIMARY SCHOOL) SINGAPORE 688261,688261,19164.4558974076,40648.8130902648,1.38388660469396,103.753924558586,11   TECK WHYE WALK
TECK WHYE PRIMARY SCHOOL,11,TECK WHYE WALK,TECK WHYE PRIMARY SCHOOL,11 TECK WHYE WALK TECK WHYE PRIMARY SCHOOL SINGAPORE 688261,688261,19094.0433355458,40622.6493846048,1.38364996834457,103.753291857016,11   TECK WHYE WALK
KOWABUNGA KIDZ TREEHOUSE @ TELOK KURAU PRIMARY,50,BEDOK RESERVOIR ROAD,KOWABUNGA KIDZ TREEHOUSE @ TELOK KURAU PRIMARY,50 BEDOK RESERVOIR ROAD KOWABUNGA KIDZ TREEHOUSE @ TELOK KURAU PRIMARY SINGAPORE 479239,479239,36645.7359166555,34811.4976773225,1.33109611001931,103.911005345855,50   BEDOK RESERVOIR RD
TELOK KURAU PRIMARY SCHOOL,50,BEDOK RESERVOIR ROAD,TELOK KURAU PRIMARY SCHOOL,50 BEDOK RESERVOIR ROAD TELOK KURAU PRIMARY SCHOOL SINGAPORE 479239,479239,36637.797290422,34805.9404149763,1.33104585441349,103.910934011337,50   BEDOK RESERVOIR RD
TEMASEK JUNIOR COLLEGE,22,BEDOK SOUTH ROAD,TEMASEK JUNIOR COLLEGE,22 BEDOK SOUTH ROAD TEMASEK JUNIOR COLLEGE SINGAPORE 469278,469278,39379.2891936116,33417.989127459,1.31849283027837,103.935567309385,22   BEDOK SOUTH ROAD
MOE KINDERGARTEN @ TEMASEK,501,BEDOK SOUTH AVENUE 3,MOE KINDERGARTEN @ TEMASEK,501 BEDOK SOUTH AVENUE 3 MOE KINDERGARTEN @ TEMASEK SINGAPORE 469300,469300,40513.5817926126,33275.4610059001,1.31720341663064,103.94575943784,501  BEDOK SOUTH AVE 3
NASCANS @ TEMASEK,501,BEDOK SOUTH AVENUE 3,NASCANS @ TEMASEK,501 BEDOK SOUTH AVENUE 3 NASCANS @ TEMASEK SINGAPORE 469300,469300,40485.2723593181,33328.7385594994,1.31768525061137,103.945505085146,501  BEDOK SOUTH AVE 3
TEMASEK PRIMARY SCHOOL,501,BEDOK SOUTH AVENUE 3,TEMASEK PRIMARY SCHOOL,501 BEDOK SOUTH AVENUE 3 TEMASEK PRIMARY SCHOOL SINGAPORE 469300,469300,40494.7969370941,33331.1191061512,1.31770677551333,103.945590669163,501  BEDOK SOUTH AVE 3
TEMASEK SECONDARY SCHOOL,600,UPPER EAST COAST ROAD,TEMASEK SECONDARY SCHOOL,600 UPPER EAST COAST ROAD TEMASEK SECONDARY SCHOOL SINGAPORE 465561,465561,40714.4313851139,33133.1948234718,1.31591673150616,103.947564112022,600  UPPER EAST COAST ROAD
PRO-TEACH SCHOOLCARE (TOWNSVILLE) LLP,3,ANG MO KIO AVENUE 10,PRO-TEACH SCHOOLCARE (TOWNSVILLE) LLP,3 ANG MO KIO AVENUE 10 PRO-TEACH SCHOOLCARE (TOWNSVILLE) LLP SINGAPORE 569730,569730,30275.8929835791,38001.4992617127,1.35994649477568,103.853768994775,3    ANG MO KIO AVE 10
TOWNSVILLE PRIMARY SCHOOL,3,ANG MO KIO AVENUE 10,TOWNSVILLE PRIMARY SCHOOL,3 ANG MO KIO AVENUE 10 TOWNSVILLE PRIMARY SCHOOL SINGAPORE 569730,569730,30282.242298523,38011.0245356523,1.36003263746623,103.853826048327,3    ANG MO KIO AVE 10
ALPHAJOY STUDENT CARE CENTRE,21,CHOA CHU KANG CRESCENT,ALPHAJOY STUDENT CARE CENTRE,21 CHOA CHU KANG CRESCENT ALPHAJOY STUDENT CARE CENTRE SINGAPORE 688268,688268,18371.796668564,42738.3144028578,1.40278303219036,103.746801233973,21   CHOA CHU KANG CRESCENT
UNITY PRIMARY SCHOOL,21,CHOA CHU KANG CRESCENT,UNITY PRIMARY SCHOOL,21 CHOA CHU KANG CRESCENT UNITY PRIMARY SCHOOL SINGAPORE 688268,688268,18374.1775784306,42746.2521210518,1.40285481877246,103.746822625758,21   CHOA CHU KANG CRESCENT
UNITY SECONDARY SCHOOL,20,CHOA CHU KANG STREET 62,UNITY SECONDARY SCHOOL,20 CHOA CHU KANG STREET 62 UNITY SECONDARY SCHOOL SINGAPORE 689143,689143,18284.9462911766,42432.2689475045,1.40001524119441,103.74602091483,20   CHOA CHU KANG STREET 62
MOE KINDERGARTEN @ VALOUR,49,PUNGGOL CENTRAL,MOE KINDERGARTEN @ VALOUR,49 PUNGGOL CENTRAL MOE KINDERGARTEN @ VALOUR SINGAPORE 828728,828728,35282.966108459,43253.3683976009,1.40744168163777,103.898762173662,49   Punggol Central
VALOUR PRIMARY SCHOOL,49,PUNGGOL CENTRAL,VALOUR PRIMARY SCHOOL,49 PUNGGOL CENTRAL VALOUR PRIMARY SCHOOL SINGAPORE 828728,828728,35318.1306347065,43186.3631934691,1.40683570215319,103.899078139493,49   Punggol Central
YMCA STUDENT CARE CENTRE @ VALOUR,49,PUNGGOL CENTRAL,YMCA STUDENT CARE CENTRE @ VALOUR,49 PUNGGOL CENTRAL YMCA STUDENT CARE CENTRE @ VALOUR SINGAPORE 828728,828728,35318.1621134095,43189.2733087633,1.40686202016291,103.899078423093,49   Punggol Central
VICTORIA JUNIOR COLLEGE,20,MARINE VISTA,VICTORIA JUNIOR COLLEGE,20 MARINE VISTA VICTORIA JUNIOR COLLEGE SINGAPORE 449035,449035,37644.9179267231,32114.1239029113,1.30670174177479,103.919982704149,20   MARINE VISTA
VICTORIA SCHOOL,2,SIGLAP LINK,VICTORIA SCHOOL,2 SIGLAP LINK VICTORIA SCHOOL SINGAPORE 448880,448880,38535.0431807386,32336.5539019071,1.3087130270751,103.927980966639,2    SIGLAP LINK
KNOWLEDGE PARK EDUCARE PTE LTD (WATERWAY PRIMARY),70,PUNGGOL DRIVE,KNOWLEDGE PARK EDUCARE PTE LTD (WATERWAY PRIMARY),70 PUNGGOL DRIVE KNOWLEDGE PARK EDUCARE PTE LTD (WATERWAY PRIMARY) SINGAPORE 828802,828802,37489.1110288324,42308.1257505957,1.39889261226315,103.918585924582,70   Punggol Drive
MOE KINDERGARTEN @ WATERWAY,70,PUNGGOL DRIVE,MOE KINDERGARTEN @ WATERWAY,70 PUNGGOL DRIVE MOE KINDERGARTEN @ WATERWAY SINGAPORE 828802,828802,37462.4590097899,42400.3134934269,1.39972633289763,103.918346464803,70   Punggol Drive
WATERWAY PRIMARY SCHOOL,70,PUNGGOL DRIVE,WATERWAY PRIMARY SCHOOL,70 PUNGGOL DRIVE WATERWAY PRIMARY SCHOOL SINGAPORE 828802,828802,37493.0794339096,42300.9820826855,1.39882800626578,103.918621581556,70   Punggol Drive
MOE KINDERGARTEN @ WELLINGTON,10,WELLINGTON CIRCLE,MOE KINDERGARTEN @ WELLINGTON,10 WELLINGTON CIRCLE MOE KINDERGARTEN @ WELLINGTON SINGAPORE 757702,757702,26797.86901474,48145.4921045545,1.45168517614776,103.822516208087,10   WELLINGTON CIRCLE
PRO-TEACH SCHOOLCARE (WELLINGTON),10,WELLINGTON CIRCLE,PRO-TEACH SCHOOLCARE (WELLINGTON),10 WELLINGTON CIRCLE PRO-TEACH SCHOOLCARE (WELLINGTON) SINGAPORE 757702,757702,26778.4759543566,48168.2326828651,1.45189083282189,103.822341940714,10   WELLINGTON CIRCLE
WELLINGTON PRIMARY SCHOOL,10,WELLINGTON CIRCLE,WELLINGTON PRIMARY SCHOOL,10 WELLINGTON CIRCLE WELLINGTON PRIMARY SCHOOL SINGAPORE 757702,757702,26774.2225156762,48171.4790451899,1.45192019155475,103.822303719094,10   WELLINGTON CIRCLE
AL-NASRY @ JURONG WEST KINDERGARTEN,743,JURONG WEST STREET 73,AL-NASRY @ JURONG WEST KINDERGARTEN,743 JURONG WEST STREET 73 AL-NASRY @ JURONG WEST KINDERGARTEN SINGAPORE 640743,640743,13073.3688055659,36602.7824090868,1.34729336857901,103.699193660942,1    JURONG WEST ST 72
HDB JURONG WEST BRANCH,518A,JURONG WEST STREET 52,HDB JURONG WEST BRANCH,518A JURONG WEST STREET 52 HDB JURONG WEST BRANCH SINGAPORE 641518,641518,15266.8004766135,36369.5968939532,1.34518553760461,103.718903056774,1    JURONG WEST ST 72
JURONG FIRE STATION,22,JURONG WEST STREET 26,JURONG FIRE STATION,22 JURONG WEST STREET 26 JURONG FIRE STATION SINGAPORE 648126,648126,13751.5866343211,36667.4180235751,1.34787823859638,103.705287822289,1    JURONG WEST ST 72
JURONG WEST FIRE POST,712,JURONG WEST STREET 71,JURONG WEST FIRE POST,712 JURONG WEST STREET 71 JURONG WEST FIRE POST SINGAPORE 640712,640712,12793.0658768788,36056.5338671096,1.34235316411477,103.696675247078,1    JURONG WEST ST 72
JURONG WEST STREET 72,,JURONG WEST STREET 72,NIL,JURONG WEST STREET 72,NIL,13057.9526950015,36470.4456329747,1.3460929412711,103.699057667787,1    JURONG WEST ST 72
JURONG WEST TELEPHONE EXCHANGE,2,JURONG WEST STREET 75,JURONG WEST TELEPHONE EXCHANGE,2 JURONG WEST STREET 75 JURONG WEST TELEPHONE EXCHANGE SINGAPORE 649112,649112,13417.3105635019,36533.7458297648,1.34666919718668,103.702284216027,1    JURONG WEST ST 72
JURONG WEST UNITED TEMPLE,62,JURONG WEST STREET 41,JURONG WEST UNITED TEMPLE,62 JURONG WEST STREET 41 JURONG WEST UNITED TEMPLE SINGAPORE 649408,649408,15402.4515003962,36834.732385125,1.34939210660659,103.720121767733,1    JURONG WEST ST 72
NASCANS @ WEST GROVE,1,JURONG WEST STREET 72,NASCANS @ WEST GROVE,1 JURONG WEST STREET 72 NASCANS @ WEST GROVE SINGAPORE 649223,649223,13047.8179963073,36317.3614973016,1.34471211768915,103.698964212988,1    JURONG WEST ST 72
PCS JURONG WEST CENTRE,452,JURONG WEST STREET 42,PCS JURONG WEST CENTRE,452 JURONG WEST STREET 42 PCS JURONG WEST CENTRE SINGAPORE 640452,640452,15223.1897905823,37076.4469035137,1.35157800634866,103.718510889309,1    JURONG WEST ST 72
WEST GROVE PRIMARY SCHOOL,1,JURONG WEST STREET 72,WEST GROVE PRIMARY SCHOOL,1 JURONG WEST STREET 72 WEST GROVE PRIMARY SCHOOL SINGAPORE 649223,649223,13083.6706046276,36335.8187624309,1.3448790560014,103.699286360581,1    JURONG WEST ST 72
MOE KINDERGARTEN @ WEST SPRING,60,BUKIT PANJANG RING ROAD,MOE KINDERGARTEN @ WEST SPRING,60 BUKIT PANJANG RING ROAD MOE KINDERGARTEN @ WEST SPRING SINGAPORE 679946,679946,20552.577593673,41234.0562994163,1.38917971808454,103.76639772288,60   Bukit Panjang Ring Road
PCF SPARKLETOTS KCARE CENTRE @ WEST SPRING,60,BUKIT PANJANG RING ROAD,PCF SPARKLETOTS KCARE CENTRE @ WEST SPRING,60 BUKIT PANJANG RING ROAD PCF SPARKLETOTS KCARE CENTRE @ WEST SPRING SINGAPORE 679946,679946,20516.7107593995,41222.0864923075,1.38907145830758,103.766075434817,60   Bukit Panjang Ring Road
PRO-TEACH SCHOOL CARE (WEST SPRING),60,BUKIT PANJANG RING ROAD,PRO-TEACH SCHOOL CARE (WEST SPRING),60 BUKIT PANJANG RING ROAD PRO-TEACH SCHOOL CARE (WEST SPRING) SINGAPORE 679946,679946,20536.819112774,41210.4447901417,1.38896618016838,103.766256126816,60   Bukit Panjang Ring Road
WEST SPRING PRIMARY SCHOOL,60,BUKIT PANJANG RING ROAD,WEST SPRING PRIMARY SCHOOL,60 BUKIT PANJANG RING ROAD WEST SPRING PRIMARY SCHOOL SINGAPORE 679946,679946,20530.0971989501,41262.9989389312,1.38944145898943,103.766195711835,60   Bukit Panjang Ring Road
WEST SPRING SECONDARY SCHOOL,61,SENJA ROAD,WEST SPRING SECONDARY SCHOOL,61 SENJA ROAD WEST SPRING SECONDARY SCHOOL SINGAPORE 677737,677737,19854.9273258867,41084.0393943992,1.38782283303782,103.760128840155,61   SENJA  ROAD
BIG HEART STUDENT CARE (WEST VIEW PRIMARY SCHOOL),31,SENJA ROAD,BIG HEART STUDENT CARE (WEST VIEW PRIMARY SCHOOL),31 SENJA ROAD BIG HEART STUDENT CARE (WEST VIEW PRIMARY SCHOOL) SINGAPORE 677742,677742,19871.0048010657,40637.6069141179,1.38378546546228,103.760273432258,31   SENJA ROAD
MOE KINDERGARTEN @ WEST VIEW,31,SENJA ROAD,MOE KINDERGARTEN @ WEST VIEW,31 SENJA ROAD MOE KINDERGARTEN @ WEST VIEW SINGAPORE 677742,677742,19860.00411426,40671.0942005832,1.38408830917172,103.760174573574,31   SENJA ROAD
WEST VIEW PRIMARY SCHOOL,31,SENJA ROAD,WEST VIEW PRIMARY SCHOOL,31 SENJA ROAD WEST VIEW PRIMARY SCHOOL SINGAPORE 677742,677742,19867.3321747258,40625.4829824362,1.3836758200336,103.760240434318,31   SENJA ROAD
MOE KINDERGARTEN @ WESTWOOD,1,JURONG WEST STREET 73,MOE KINDERGARTEN @ WESTWOOD,1 JURONG WEST STREET 73 MOE KINDERGARTEN @ WESTWOOD SINGAPORE 649188,649188,13215.1381995771,36648.9504975975,1.3477109654722,103.700467520791,1    Jurong West Street 73
PCF SPARKLETOTS KCARE CENTRE @ WESTWOOD,1,JURONG WEST STREET 73,PCF SPARKLETOTS KCARE CENTRE @ WESTWOOD,1 JURONG WEST STREET 73 PCF SPARKLETOTS KCARE CENTRE @ WESTWOOD SINGAPORE 649188,649188,13221.7230902379,36587.4326973073,1.34715462510442,103.700526720098,1    Jurong West Street 73
PRO-TEACH SCHOOLCARE (WESTWOOD),1,JURONG WEST STREET 73,PRO-TEACH SCHOOLCARE (WESTWOOD),1 JURONG WEST STREET 73 PRO-TEACH SCHOOLCARE (WESTWOOD) SINGAPORE 649188,649188,13221.7230902379,36587.4326973073,1.34715462510442,103.700526720098,1    Jurong West Street 73
WESTWOOD PRIMARY SCHOOL,1,JURONG WEST STREET 73,WESTWOOD PRIMARY SCHOOL,1 JURONG WEST STREET 73 WESTWOOD PRIMARY SCHOOL SINGAPORE 649188,649188,13222.5567915821,36590.7433790993,1.34718456606375,103.70053420978,1    Jurong West Street 73
WESTWOOD SECONDARY SCHOOL,11,JURONG WEST STREET 25,WESTWOOD SECONDARY SCHOOL,11 JURONG WEST STREET 25 WESTWOOD SECONDARY SCHOOL SINGAPORE 648350,648350,13360.360080882,37315.2708597258,1.35373698510994,103.701772102139,11   JURONG WEST STREET 25
111 PASIR RIS STREET 11 SINGAPORE 510111,111,PASIR RIS STREET 11,NIL,111 PASIR RIS STREET 11 SINGAPORE 510111,510111,41695.0944439005,38898.7607377134,1.36805791982647,103.956378453152,2    PASIR RIS ST 11
114 PASIR RIS STREET 11 SINGAPORE 510114,114,PASIR RIS STREET 11,NIL,114 PASIR RIS STREET 11 SINGAPORE 510114,510114,41537.3936479995,38942.1715945154,1.36845058392966,103.954961424604,2    PASIR RIS ST 11
116 PASIR RIS STREET 11 SINGAPORE 510116,116,PASIR RIS STREET 11,NIL,116 PASIR RIS STREET 11 SINGAPORE 510116,510116,41484.2437950233,38937.07652428,1.36840453035745,103.954483834817,2    PASIR RIS ST 11
117 PASIR RIS STREET 11 SINGAPORE 510117,117,PASIR RIS STREET 11,NIL,117 PASIR RIS STREET 11 SINGAPORE 510117,510117,41510.7127835685,38880.7228657641,1.36789487704032,103.954721651011,2    PASIR RIS ST 11
118 PASIR RIS STREET 11 SINGAPORE 510118,118,PASIR RIS STREET 11,NIL,118 PASIR RIS STREET 11 SINGAPORE 510118,510118,41520.0224889284,38798.2700329274,1.36714920047941,103.954805267521,2    PASIR RIS ST 11
NKF DIALYSIS CENTRE PASIR RIS,180,PASIR RIS STREET 11,NKF DIALYSIS CENTRE PASIR RIS,180 PASIR RIS STREET 11 NKF DIALYSIS CENTRE PASIR RIS SINGAPORE 510180,510180,42101.8170548193,38477.5071034394,1.36424807026658,103.960032931005,2    PASIR RIS ST 11
PASIR RIS CREST SECONDARY SCHOOL,11,PASIR RIS STREET 41,PASIR RIS CREST SECONDARY SCHOOL,11 PASIR RIS STREET 41 PASIR RIS CREST SECONDARY SCHOOL SINGAPORE 518934,518934,42067.8542885976,39427.6259528883,1.37284060102246,103.959728202919,2    PASIR RIS ST 11
PASIR RIS FIRE POST,105,PASIR RIS STREET 12,PASIR RIS FIRE POST,105 PASIR RIS STREET 12 PASIR RIS FIRE POST SINGAPORE 510105,510105,41776.6704737842,38945.3207966145,1.36847895344914,103.957111490512,2    PASIR RIS ST 11
PPIS CHILD DEVELOPMENT CENTRE - PASIR RIS 2,187,PASIR RIS STREET 11,PPIS CHILD DEVELOPMENT CENTRE - PASIR RIS 2,187 PASIR RIS STREET 11 PPIS CHILD DEVELOPMENT CENTRE - PASIR RIS 2 SINGAPORE 510187,510187,42019.4105017297,38536.942405913,1.36478561975397,103.959292481623,2    PASIR RIS ST 11
WHITE SANDS PRIMARY SCHOOL,2,PASIR RIS STREET 11,WHITE SANDS PRIMARY SCHOOL,2 PASIR RIS STREET 11 WHITE SANDS PRIMARY SCHOOL SINGAPORE 519075,519075,42200.4040547684,38622.2636750303,1.36555714668553,103.960918869319,2    PASIR RIS ST 11
WHITLEY SECONDARY SCHOOL,30,BISHAN STREET 24,WHITLEY SECONDARY SCHOOL,30 BISHAN STREET 24 WHITLEY SECONDARY SCHOOL SINGAPORE 579747,579747,29027.6163034551,37460.2926999275,1.35505208480649,103.842552378136,30   BISHAN STREET 24
COMMIT LEARNING SCHOOLHOUSE @ WOODGROVE PRIMARY SCHOOL,2,WOODLANDS DRIVE 14,COMMIT LEARNING SCHOOLHOUSE @ WOODGROVE PRIMARY SCHOOL,2 WOODLANDS DRIVE 14 COMMIT LEARNING SCHOOLHOUSE @ WOODGROVE PRIMARY SCHOOL SINGAPORE 738079,738079,23204.9254116695,46050.2524968032,1.43273620725049,103.79023031392,2    WOODLANDS DRIVE 14
WOODGROVE PRIMARY SCHOOL,2,WOODLANDS DRIVE 14,WOODGROVE PRIMARY SCHOOL,2 WOODLANDS DRIVE 14 WOODGROVE PRIMARY SCHOOL SINGAPORE 738079,738079,23246.5605064044,46090.8542425744,1.43310340168966,103.790604437613,2    WOODLANDS DRIVE 14
WOODGROVE SECONDARY SCHOOL,3,WOODLANDS AVENUE 6,WOODGROVE SECONDARY SCHOOL,3 WOODLANDS AVENUE 6 WOODGROVE SECONDARY SCHOOL SINGAPORE 738990,738990,23852.2922348054,45561.7290254179,1.42831828137013,103.79604758539,3    WOODLANDS AVENUE 6
COMMIT LEARNING SCHOOLHOUSE @ WOODLANDS PRIMARY SCHOOL,10,WOODLANDS DRIVE 50,COMMIT LEARNING SCHOOLHOUSE @ WOODLANDS PRIMARY SCHOOL,10 WOODLANDS DRIVE 50 COMMIT LEARNING SCHOOLHOUSE @ WOODLANDS PRIMARY SCHOOL SINGAPORE 738853,738853,23378.645416881,46475.5760247037,1.43658270720199,103.791791282236,10   WOODLANDS DRIVE 50
WOODLANDS PRIMARY SCHOOL,10,WOODLANDS DRIVE 50,WOODLANDS PRIMARY SCHOOL,10 WOODLANDS DRIVE 50 WOODLANDS PRIMARY SCHOOL SINGAPORE 738853,738853,23354.0808293354,46472.0799515136,1.43655108594232,103.791570546509,10   WOODLANDS DRIVE 50
POWERLIFE STUDENT SERVICES,11,WOODLANDS RING ROAD,POWERLIFE STUDENT SERVICES,11 WOODLANDS RING ROAD POWERLIFE STUDENT SERVICES SINGAPORE 738240,738240,24004.4034421528,46284.1696799081,1.43485179380236,103.79741434351,11   WOODLANDS RING ROAD
WOODLANDS RING PRIMARY SCHOOL,11,WOODLANDS RING ROAD,WOODLANDS RING PRIMARY SCHOOL,11 WOODLANDS RING ROAD WOODLANDS RING PRIMARY SCHOOL SINGAPORE 738240,738240,24006.7839585366,46295.2823582534,1.43495229315857,103.797435733144,11   WOODLANDS RING ROAD
WOODLANDS RING SECONDARY SCHOOL,10,WOODLANDS RING ROAD,WOODLANDS RING SECONDARY SCHOOL,10 WOODLANDS RING ROAD WOODLANDS RING SECONDARY SCHOOL SINGAPORE 738239,738239,24308.6728630271,46465.1933193207,1.43648894729939,103.800148469692,10   WOODLANDS RING ROAD
WOODLANDS SECONDARY SCHOOL,11,MARSILING ROAD,WOODLANDS SECONDARY SCHOOL,11 MARSILING ROAD WOODLANDS SECONDARY SCHOOL SINGAPORE 739111,739111,21464.012295193,46756.7632628027,1.43912528141356,103.774586410437,11   MARSILING ROAD
HOME-IN-SCHOOL CONNECTION STUDENT CARE CENTRE,45,HOUGANG AVENUE 1,HOME-IN-SCHOOL CONNECTION STUDENT CARE CENTRE,45 HOUGANG AVENUE 1 HOME-IN-SCHOOL CONNECTION STUDENT CARE CENTRE SINGAPORE 538882,538882,34332.065497526,37785.9478133563,1.35799653782463,103.890216355459,45   HOUGANG AVENUE 1
XINGHUA PRIMARY SCHOOL,45,HOUGANG AVENUE 1,XINGHUA PRIMARY SCHOOL,45 HOUGANG AVENUE 1 XINGHUA PRIMARY SCHOOL SINGAPORE 538882,538882,34360.61483486,37776.2619072273,1.35790893589535,103.890472887906,45   HOUGANG AVENUE 1
SHG STUDENT CARE (XINGNAN PRIMARY SCHOOL),5,JURONG WEST STREET 91,SHG STUDENT CARE (XINGNAN PRIMARY SCHOOL),5 JURONG WEST STREET 91 SHG STUDENT CARE (XINGNAN PRIMARY SCHOOL) SINGAPORE 649036,649036,11781.8064267524,36095.6510288138,1.34270639669225,103.687588478681,5    JURONG WEST STREET 91
XINGNAN PRIMARY SCHOOL,5,JURONG WEST STREET 91,XINGNAN PRIMARY SCHOOL,5 JURONG WEST STREET 91 XINGNAN PRIMARY SCHOOL SINGAPORE 649036,649036,11822.0669615418,36078.0729275383,1.34254744877694,103.687950252103,5    JURONG WEST STREET 91
RAFFLES STUDENT CARE CENTRE LLP (XINMIN PRIMARY),9,HOUGANG AVENUE 8,RAFFLES STUDENT CARE CENTRE LLP (XINMIN PRIMARY),9 HOUGANG AVENUE 8 RAFFLES STUDENT CARE CENTRE LLP (XINMIN PRIMARY) SINGAPORE 538784,538784,33507.7829754585,39308.7065256815,1.37176798317468,103.88280991785,9    HOUGANG AVENUE 8
XINMIN PRIMARY SCHOOL,9,HOUGANG AVENUE 8,XINMIN PRIMARY SCHOOL,9 HOUGANG AVENUE 8 XINMIN PRIMARY SCHOOL SINGAPORE 538784,538784,33537.9261037428,39267.5186706744,1.37139548941931,103.883080767491,9    HOUGANG AVENUE 8
XINMIN SECONDARY SCHOOL,11,HOUGANG AVENUE 8,XINMIN SECONDARY SCHOOL,11 HOUGANG AVENUE 8 XINMIN SECONDARY SCHOOL SINGAPORE 538789,538789,33534.6789847175,39396.1568145063,1.37255884700002,103.88305161385,11   HOUGANG AVENUE 8
XISHAN PRIMARY SCHOOL,8,YISHUN STREET 21,XISHAN PRIMARY SCHOOL,8 YISHUN STREET 21 XISHAN PRIMARY SCHOOL SINGAPORE 768611,768611,28493.7422212623,46131.5536631271,1.43347186925064,103.837755319448,8    YISHUN STREET 21
XISHAN STUDENT CARE CENTRE,8,YISHUN STREET 21,XISHAN STUDENT CARE CENTRE,8 YISHUN STREET 21 XISHAN STUDENT CARE CENTRE SINGAPORE 768611,768611,28493.7430082299,46131.5526945516,1.43347186049118,103.837755326519,8    YISHUN STREET 21
BIG HEART STUDENT CARE @ YANGZHENG,15,SERANGOON AVENUE 3,BIG HEART STUDENT CARE @ YANGZHENG,15 SERANGOON AVENUE 3 BIG HEART STUDENT CARE @ YANGZHENG SINGAPORE 556108,556108,31911.6418975126,36788.5459239464,1.3489768083841,103.868467129954,15   SERANGOON AVENUE 3
YANGZHENG PRIMARY SCHOOL,15,SERANGOON AVENUE 3,YANGZHENG PRIMARY SCHOOL,15 SERANGOON AVENUE 3 YANGZHENG PRIMARY SCHOOL SINGAPORE 556108,556108,31925.931594234,36751.9403087255,1.34864575840923,103.868595527042,15   SERANGOON AVENUE 3
PRO-TEACH SCHOOLCARE (YEW TEE PRIMARY),10,CHOA CHU KANG STREET 64,PRO-TEACH SCHOOLCARE (YEW TEE PRIMARY),10 CHOA CHU KANG STREET 64 PRO-TEACH SCHOOLCARE (YEW TEE PRIMARY) SINGAPORE 689100,689100,18930.0708015431,42068.5415837038,1.39672603497195,103.751817992962,10   CHOA CHU KANG ST 64
YEW TEE PRIMARY SCHOOL,10,CHOA CHU KANG STREET 64,YEW TEE PRIMARY SCHOOL,10 CHOA CHU KANG STREET 64 YEW TEE PRIMARY SCHOOL SINGAPORE 689100,689100,18837.4775282657,42072.9649468437,1.39676600905037,103.750985967346,10   CHOA CHU KANG ST 64
YIO CHU KANG PRIMARY SCHOOL,1,HOUGANG STREET 51,YIO CHU KANG PRIMARY SCHOOL,1 HOUGANG STREET 51 YIO CHU KANG PRIMARY SCHOOL SINGAPORE 538720,538720,33823.1315680202,39990.3703038469,1.37793264345276,103.885643682171,1    HOUGANG STREET 51
YMCA STUDENT CARE CENTRE @ YIO CHU KANG,1,HOUGANG STREET 51,YMCA STUDENT CARE CENTRE @ YIO CHU KANG,1 HOUGANG STREET 51 YMCA STUDENT CARE CENTRE @ YIO CHU KANG SINGAPORE 538720,538720,33814.7894090274,39978.2141064946,1.3778227088538,103.885568719387,1    HOUGANG STREET 51
YIO CHU KANG SECONDARY SCHOOL,3063,ANG MO KIO AVENUE 5,YIO CHU KANG SECONDARY SCHOOL,3063 ANG MO KIO AVENUE 5 YIO CHU KANG SECONDARY SCHOOL SINGAPORE 569868,569868,28981.3761166064,39995.0998579115,1.37797597740925,103.84213696352,3063 ANG MO KIO AVENUE 5
YISHUN INNOVA JUNIOR COLLEGE,3,YISHUN RING ROAD,YISHUN INNOVA JUNIOR COLLEGE,3 YISHUN RING ROAD YISHUN INNOVA JUNIOR COLLEGE SINGAPORE 768675,768675,27634.2199267391,45113.7171314787,1.42426692572335,103.83003171149,3    YISHUN RING ROAD
MOE KINDERGARTEN @ YISHUN,500,YISHUN RING ROAD,MOE KINDERGARTEN @ YISHUN,500 YISHUN RING ROAD MOE KINDERGARTEN @ YISHUN SINGAPORE 768679,768679,28081.4848068403,46187.3166116737,1.43397617334964,103.834050796658,500  YISHUN RING ROAD
YISHUN PRIMARY SCHOOL,500,YISHUN RING ROAD,YISHUN PRIMARY SCHOOL,500 YISHUN RING ROAD YISHUN PRIMARY SCHOOL SINGAPORE 768679,768679,28085.526611778,46122.0615023617,1.43338602975674,103.834087115915,500  YISHUN RING ROAD
YISHUN STUDENT CARE CENTRE,500,YISHUN RING ROAD,YISHUN STUDENT CARE CENTRE,500 YISHUN RING ROAD YISHUN STUDENT CARE CENTRE SINGAPORE 768679,768679,28066.9764239369,46135.8522919063,1.43351074871338,103.833920424962,500  YISHUN RING ROAD
YISHUN SECONDARY SCHOOL,4,YISHUN STREET 71,YISHUN SECONDARY SCHOOL,4 YISHUN STREET 71 YISHUN SECONDARY SCHOOL SINGAPORE 768516,768516,27493.1783263972,45541.2352395374,1.42813324276086,103.828764316679,4    YISHUN STREET 71
YISHUN TOWN SECONDARY SCHOOL,6,YISHUN STREET 21,YISHUN TOWN SECONDARY SCHOOL,6 YISHUN STREET 21 YISHUN TOWN SECONDARY SCHOOL SINGAPORE 768610,768610,28531.4577029087,46004.3591205124,1.43232156717386,103.838094226361,6    YISHUN STREET 21
BIG HEART STUDENT CARE @ YU NENG,56,BEDOK NORTH STREET 3,BIG HEART STUDENT CARE @ YU NENG,56 BEDOK NORTH STREET 3 BIG HEART STUDENT CARE @ YU NENG SINGAPORE 469623,469623,38983.8870810149,35130.5094223451,1.33398037894072,103.932015036296,56   BEDOK NORTH ST 3
YU NENG PRIMARY SCHOOL,56,BEDOK NORTH STREET 3,YU NENG PRIMARY SCHOOL,56 BEDOK NORTH STREET 3 YU NENG PRIMARY SCHOOL SINGAPORE 469623,469623,38998.3352306299,35120.4393246993,1.33388930344069,103.932144857355,56   BEDOK NORTH ST 3
YUAN CHING SECONDARY SCHOOL,103,YUAN CHING ROAD,YUAN CHING SECONDARY SCHOOL,103 YUAN CHING ROAD YUAN CHING SECONDARY SCHOOL SINGAPORE 618654,618654,15488.8783984222,36018.0484284926,1.34200635764467,103.72089870437,103  YUAN CHING ROAD
PRO-TEACH SCHOOLCARE (YUHUA),158,JURONG EAST STREET 24,PRO-TEACH SCHOOLCARE (YUHUA),158 JURONG EAST STREET 24 PRO-TEACH SCHOOLCARE (YUHUA) SINGAPORE 609558,609558,17710.4895017752,36118.9610992391,1.34291981622016,103.740861148879,158  JURONG EAST STREET 24
YUHUA PRIMARY SCHOOL,158,JURONG EAST STREET 24,YUHUA PRIMARY SCHOOL,158 JURONG EAST STREET 24 YUHUA PRIMARY SCHOOL SINGAPORE 609558,609558,17737.7130106175,36105.9662365932,1.34280230475033,103.741105772644,158  JURONG EAST STREET 24
YUHUA SECONDARY SCHOOL,35,JURONG WEST STREET 41,YUHUA SECONDARY SCHOOL,35 JURONG WEST STREET 41 YUHUA SECONDARY SCHOOL SINGAPORE 649406,649406,15687.9488993762,36590.8085158002,1.34718626876968,103.722687235839,35   JURONG WEST STREET 41
SHG STUDENT CARE (YUMIN PRIMARY SCHOOL),3,TAMPINES STREET 21,SHG STUDENT CARE (YUMIN PRIMARY SCHOOL),3 TAMPINES STREET 21 SHG STUDENT CARE (YUMIN PRIMARY SCHOOL) SINGAPORE 529393,529393,41046.6676057065,37047.4549574535,1.35131569890862,103.950551091373,3    TAMPINES STREET 21
YUMIN PRIMARY SCHOOL,3,TAMPINES STREET 21,YUMIN PRIMARY SCHOOL,3 TAMPINES STREET 21 YUMIN PRIMARY SCHOOL SINGAPORE 529393,529393,41036.7447315324,37044.8092632648,1.35129177656981,103.950461927088,3    TAMPINES STREET 21
11 BUKIT BATOK STREET 25 SINGAPORE 658712,11,BUKIT BATOK STREET 25,NIL,11 BUKIT BATOK STREET 25 SINGAPORE 658712,658712,19858.1701468583,36056.0720382147,1.34235172835604,103.760159353985,11   BUKIT BATOK STREET 25
ST ANDREW'S MISSION SCHOOL,11,BUKIT BATOK STREET 25,ST ANDREW'S MISSION SCHOOL,11 BUKIT BATOK STREET 25 ST ANDREW'S MISSION SCHOOL SINGAPORE 658712,658712,19844.0669009173,36054.6887308229,1.34233921440623,103.760032628302,11   BUKIT BATOK STREET 25
YUYING SECONDARY SCHOOL,47,HOUGANG AVENUE 1,YUYING SECONDARY SCHOOL,47 HOUGANG AVENUE 1 YUYING SECONDARY SCHOOL SINGAPORE 538884,538884,34329.6638843575,37690.788632296,1.35713595302467,103.890194755287,47   HOUGANG AVENUE 1
YMCA STUDENT CARE CENTRE @ ZHANGDE,51,JALAN MEMBINA,YMCA STUDENT CARE CENTRE @ ZHANGDE,51 JALAN MEMBINA YMCA STUDENT CARE CENTRE @ ZHANGDE SINGAPORE 169485,169485,27180.147898172,29627.1081054062,1.28421153855474,103.825951884637,51   Jalan Membina
ZHANGDE PRIMARY SCHOOL,51,JALAN MEMBINA,ZHANGDE PRIMARY SCHOOL,51 JALAN MEMBINA ZHANGDE PRIMARY SCHOOL SINGAPORE 169485,169485,27180.1468993286,29627.1075303145,1.28421153335379,103.825951875662,51   Jalan Membina
MOE KINDERGARTEN @ ZHENGHUA,9,FAJAR ROAD,MOE KINDERGARTEN @ ZHENGHUA,9 FAJAR ROAD MOE KINDERGARTEN @ ZHENGHUA SINGAPORE 679002,679002,20920.4023949644,40155.8313870206,1.37942873617052,103.76970317201,9    Fajar Road
YMCA STUDENT CARE CENTRE @ ZHENGHUA,9,FAJAR ROAD,YMCA STUDENT CARE CENTRE @ ZHENGHUA,9 FAJAR ROAD YMCA STUDENT CARE CENTRE @ ZHENGHUA SINGAPORE 679002,679002,20855.3359762635,40188.1506925318,1.37972100441473,103.769118494651,9    Fajar Road
ZHENGHUA PRIMARY SCHOOL,9,FAJAR ROAD,ZHENGHUA PRIMARY SCHOOL,9 FAJAR ROAD ZHENGHUA PRIMARY SCHOOL SINGAPORE 679002,679002,20877.0395431835,40169.1169131137,1.37954887512229,103.769313521752,9    Fajar Road
SENJA CENTRE,628,SENJA ROAD,SENJA CENTRE,628 SENJA ROAD SENJA CENTRE SINGAPORE 670628,670628,19886.2763911784,40786.13172861,1.38512867383046,103.760410617887,91   SENJA ROAD
SENJA GATEWAY,634B,SENJA ROAD,SENJA GATEWAY,634B SENJA ROAD SENJA GATEWAY SINGAPORE 672634,672634,19654.5804845961,40895.7422979604,1.38611988630201,103.758328624429,91   SENJA ROAD
SENJA GATEWAY,635D,SENJA ROAD,SENJA GATEWAY,635D SENJA ROAD SENJA GATEWAY SINGAPORE 674635,674635,19577.42454891,41000.9880727194,1.3870716683338,103.757635289717,91   SENJA ROAD
SENJA GATEWAY,635B,SENJA ROAD,SENJA GATEWAY,635B SENJA ROAD SENJA GATEWAY SINGAPORE 672635,672635,19585.7892575506,40949.1374124084,1.38660275237577,103.757710467868,91   SENJA ROAD
SENJA GATEWAY,635A,SENJA ROAD,SENJA GATEWAY,635A SENJA ROAD SENJA GATEWAY SINGAPORE 671635,671635,19529.8789341915,40944.6615645848,1.38656225824527,103.757208072494,91   SENJA ROAD
SENJA GATEWAY,635C,SENJA ROAD,SENJA GATEWAY,635C SENJA ROAD SENJA GATEWAY SINGAPORE 673635,673635,19666.3020034339,40937.9798466433,1.38650187058094,103.758433939145,91   SENJA ROAD
SENJA GRAND,625A,SENJA ROAD,SENJA GRAND,625A SENJA ROAD SENJA GRAND SINGAPORE 671625,671625,19927.8863634868,40919.7800107133,1.38633735157449,103.760784478073,91   SENJA ROAD
SENJA GRAND,627,SENJA ROAD,SENJA GRAND,627 SENJA ROAD SENJA GRAND SINGAPORE 670627,670627,19771.3954696991,40831.0672140215,1.38553502172905,103.759378313644,91   SENJA ROAD
SENJA GRAND,631,SENJA ROAD,SENJA GRAND,631 SENJA ROAD SENJA GRAND SINGAPORE 670631,670631,19869.2648157543,40951.7639772315,1.38662658656793,103.760257710151,91   SENJA ROAD
SENJA GRAND,630,SENJA ROAD,SENJA GRAND,630 SENJA ROAD SENJA GRAND SINGAPORE 670630,670630,19813.7555431798,40958.2781921513,1.38668548319749,103.759758915377,91   SENJA ROAD
LEARNING STUDIO BY ZENITANT (ZHONGHUA PRIMARY SCHOOL),12,SERANGOON AVENUE 4,LEARNING STUDIO BY ZENITANT (ZHONGHUA PRIMARY SCHOOL),12 SERANGOON AVENUE 4 LEARNING STUDIO BY ZENITANT (ZHONGHUA PRIMARY SCHOOL) SINGAPORE 556095,556095,32050.2209249679,38036.2660969216,1.36026072476019,103.869712517383,12   SERANGOON AVENUE 4
ZHONGHUA PRIMARY SCHOOL,12,SERANGOON AVENUE 4,ZHONGHUA PRIMARY SCHOOL,12 SERANGOON AVENUE 4 ZHONGHUA PRIMARY SCHOOL SINGAPORE 556095,556095,32055.7766133798,38029.9161160812,1.36020329705047,103.869762438084,12   SERANGOON AVENUE 4
ZHONGHUA SECONDARY SCHOOL,13,SERANGOON AVENUE 3,ZHONGHUA SECONDARY SCHOOL,13 SERANGOON AVENUE 3 ZHONGHUA SECONDARY SCHOOL SINGAPORE 556123,556123,32018.8531237943,36725.5640310161,1.34840720846208,103.869430481414,13   SERANGOON AVENUE 3
